Origin Time       2019/03/09 01:08:00
Lat.              35.4
Long.             136.7
Depth. (km)       40
Mag.              4.5
Station Code      AICH19
Station Lat.      34.9512
Station Long.     137.4114
Station Height(m) 445
Record Time       2019/03/09 01:08:17
Sampling Freq(Hz) 100Hz
Duration Time(s)  120
Dir.              3
Scale Factor      2942(gal)/8224139
Max. Acc. (gal)   1.333
Last Correction   2019/03/09 01:08:02
Memo.             
[...]
  -46026   -46026   -46028   -46028   -46030   -46030   -46028   -46025 
  -46025   -46026   -46026   -46026   -46026   -46025   -46026   -46028 
  -46025   -46025   -46026   -46025   -46025   -46028   -46028   -46028 
  -46026   -46025   -46026   -46029   -46029   -46028   -46025   -46025 
  -46026   -46025   -46025   -46026   -46026   -46025   -46026   -46028 
  -46028   -46028   -46028   -46028   -46026   -46024   -46025   -46028 
  -46029   -46029   -46028   -46028   -46026   -46026   -46028   -46026 
  -46028   -46029   -46026   -46025   -46028   -46029   -46029   -46028 
  -46025   -46025   -46029   -46029   -46026   -46025   -46025   -46024 
  -46025   -46026   -46028   -46028   -46028   -46028   -46025   -46024 
  -46029   -46028   -46026   -46028   -46029   -46025   -46024   -46026 
  -46028   -46026   -46025   -46025   -46026   -46026   -46025   -46025 
  -46026   -46028   -46029   -46030   -46028   -46026   -46028   -46029 
  -46028   -46026   -46026   -46028   -46029   -46026   -46025   -46026 
  -46026   -46024   -46024   -46026   -46028   -46026   -46024   -46025 
  -46026   -46026   -46025   -46025   -46025   -46026   -46028   -46026 
  -46025   -46028   -46029   -46028   -46026   -46026   -46025   -46025 
  -46028   -46029   -46028   -46026   -46029   -46030   -46028   -46025 
  -46028   -46026   -46024   -46026   -46029   -46028   -46025   -46028 
  -46028   -46026   -46026   -46028   -46025   -46025   -46026   -46026 
  -46026   -46028   -46029   -46028   -46026   -46026   -46028   -46026 
  -46024   -46024   -46026   -46028   -46028   -46026   -46028   -46029 
  -46028   -46026   -46026   -46026   -46028   -46026   -46026   -46028 
  -46028   -46026   -46026   -46029   -46028   -46024   -46024   -46024 
  -46026   -46029   -46026   -46024   -46026   -46028   -46026   -46028 
  -46028   -46026   -46026   -46026   -46029   -46028   -46026   -46029 
  -46028   -46025   -46025   -46025   -46026   -46026   -46025   -46028 
  -46028   -46026   -46026   -46024   -46024   -46026   -46028   -46025 
  -46026   -46028   -46026   -46025   -46028   -46030   -46028   -46025 
  -46026   -46026   -46026   -46026   -46025   -46026   -46026   -46025 
  -46025   -46024   -46026   -46029   -46028   -46028   -46026   -46026 
  -46030   -46029   -46026   -46026   -46026   -46028   -46028   -46025 
  -46026   -46029   -46029   -46026   -46026   -46026   -46028   -46029 
  -46026   -46026   -46029   -46028   -46028   -46026   -46025   -46026 
  -46028   -46025   -46025   -46025   -46024   -46024   -46026   -46029 
  -46028   -46028   -46028   -46025   -46025   -46026   -46024   -46022 
  -46026   -46029   -46028   -46026   -46026   -46026   -46028   -46028 
  -46025   -46025   -46026   -46025   -46026   -46028   -46025   -46025 
  -46028   -46029   -46028   -46026   -46026   -46028   -46026   -46024 
  -46024   -46025   -46026   -46026   -46024   -46022   -46025   -46026 
  -46024   -46024   -46025   -46024   -46025   -46026   -46025   -46021 
  -46024   -46026   -46025   -46024   -46026   -46025   -46024   -46026 
  -46028   -46028   -46026   -46025   -46024   -46025   -46026   -46025 
  -46025   -46025   -46026   -46026   -46024   -46025   -46028   -46026 
  -46025   -46026   -46025   -46025   -46025   -46025   -46026   -46028 
  -46026   -46025   -46026   -46025   -46026   -46030   -46028   -46024 
  -46025   -46028   -46026   -46024   -46025   -46026   -46026   -46026 
  -46025   -46026   -46028   -46026   -46025   -46026   -46026   -46026 
  -46025   -46028   -46028   -46026   -46026   -46026   -46024   -46024 
  -46024   -46025   -46025   -46025   -46026   -46025   -46021   -46016 
  -46013   -46013   -46014   -46012   -46008   -46006   -46016   -46030 
  -46040   -46049   -46064   -46080   -46079   -46041   -45982   -45941 
  -45958   -46036   -46137   -46205   -46251   -46325   -46445   -46581 
  -46689   -46747   -46738   -46624   -46414   -46203   -46059   -45927 
  -45705   -45372   -45018   -44771   -44717   -44821   -44959   -45003 
  -44852   -44618   -44697   -45204   -45751   -46130   -46479   -46684 
  -46593   -46653   -47247   -47899   -48072   -47808   -47336   -46909 
  -46693   -46607   -46433   -45960   -45411   -45393   -45827   -45825 
  -45252   -45050   -45488   -45589   -45025   -44848   -45434   -45785 
  -45577   -45532   -45783   -45949   -46125   -46425   -46548   -46338 
  -46164   -46553   -47264   -47171   -46230   -45974   -46446   -46337 
  -46051   -46124   -45859   -45644   -45883   -45786   -45554   -45650 
  -45686   -45609   -45652   -46095   -46460   -45967   -45586   -46012 
  -46296   -46229   -46197   -46294   -46565   -46695   -46492   -46186 
  -46063   -46280   -46568   -46512   -45912   -45175   -45150   -45693 
  -46117   -46234   -45860   -45378   -45492   -45916   -46036   -45916 
  -45948   -45978   -45665   -45462   -45797   -46284   -46446   -46186 
  -45758   -45590   -45828   -46215   -46560   -46620   -46078   -45466 
  -45702   -46435   -46476   -45881   -45868   -46321   -46157   -45701 
  -45963   -46791   -46984   -46165   -45580   -45986   -46434   -46179 
  -45964   -46391   -46600   -45870   -45172   -45403   -45881   -46035 
  -46003   -45711   -45245   -45181   -45704   -46265   -46533   -46413 
  -45879   -45719   -46275   -46480   -45956   -45770   -46309   -46467 
  -45848   -45796   -46589   -46689   -46060   -46032   -46407   -46390 
  -46124   -45863   -45648   -45744   -46113   -46033   -45511   -45605 
  -46228   -46210   -45796   -45825   -45975   -45910   -45812   -45786 
  -45917   -46148   -46268   -45968   -45447   -45717   -46610   -46754 
  -46251   -45989   -46036   -46137   -45986   -45779   -46021   -46379 
  -46170   -45635   -45705   -46178   -46110   -45742   -45748   -46275 
  -46765   -46442   -45844   -45873   -46230   -46373   -46114   -45821 
  -46039   -46136   -45592   -45380   -45921   -46323   -46018   -45559 
  -45771   -46279   -46263   -45941   -45956   -46249   -46279   -46171 
  -46255   -46236   -46048   -45928   -46001   -46306   -46452   -46068 
  -45646   -45693   -45939   -46099   -46006   -45720   -45864   -46118 
  -45640   -45382   -46035   -46437   -46229   -45970   -45832   -45925 
  -45920   -45790   -46191   -46583   -46165   -45760   -45991   -46203 
  -46134   -46134   -46199   -46240   -46171   -45742   -45364   -45706 
  -46398   -46647   -46211   -45630   -45640   -45995   -46113   -46093 
  -46084   -46044   -45922   -45875   -45986   -46056   -46178   -46252 
  -46140   -46145   -46083   -45963   -46082   -46059   -45925   -46013 
  -46171   -46175   -45954   -45841   -45840   -45613   -45712   -46452 
  -46728   -46076   -45661   -45874   -46141   -46364   -46336   -45901 
  -45536   -45623   -45929   -46099   -46237   -46290   -46130   -46020 
  -45925   -45724   -45589   -45767   -46184   -46218   -45925   -45989 
  -46180   -46068   -45891   -45964   -46207   -46265   -46172   -46164 
  -46170   -46296   -46426   -46105   -45748   -45944   -46174   -45933 
  -45733   -45936   -46167   -46190   -45941   -45673   -45959   -46426 
  -46253   -45755   -45652   -45758   -45671   -45728   -46155   -46421 
  -46171   -45759   -45584   -45783   -46302   -46641   -46357   -45858 
  -45833   -46118   -46109   -45901   -45806   -45968   -46410   -46438 
  -45902   -45782   -46221   -46406   -46033   -45663   -45781   -46039 
  -46021   -45856   -45939   -46322   -46491   -46138   -45725   -45821 
  -46325   -46681   -46411   -45639   -45306   -45751   -46176   -46263 
  -46213   -45939   -45723   -45785   -45814   -45935   -46283   -46390 
  -45991   -45385   -45189   -45640   -46186   -46363   -46275   -46026 
  -45771   -45918   -46437   -46723   -46492   -46082   -45885   -45895 
  -45967   -46187   -46531   -46491   -45836   -45430   -45840   -46253 
  -46138   -45941   -45894   -45940   -46066   -46030   -45839   -45893 
  -45981   -45910   -45959   -45956   -45918   -45836   -45544   -45671 
  -46159   -46201   -45925   -45901   -46256   -46626   -46653   -46435 
  -46271   -46295   -46171   -45778   -45667   -45810   -45902   -46106 
  -46138   -45823   -45686   -45920   -46240   -46410   -46337   -45999 
  -45635   -45659   -46075   -46456   -46375   -45987   -45968   -46157 
  -45978   -45848   -46111   -46176   -45837   -45688   -45775   -45792 
  -45929   -46063   -45974   -45904   -45935   -46117   -46261   -46047 
  -45909   -46063   -46068   -46078   -46305   -46287   -45908   -45615 
  -45781   -46280   -46638   -46688   -46408   -45809   -45345   -45639 
  -46488   -46689   -45983   -45404   -45409   -45771   -46113   -46163 
  -46039   -45910   -45893   -45970   -45994   -45999   -46028   -46060 
  -46161   -46244   -46086   -45867   -45954   -46165   -46206   -46210 
  -46083   -45820   -45921   -46141   -45983   -45898   -45920   -45739 
  -45863   -46072   -45789   -45769   -46194   -46379   -46295   -45982 
  -45827   -46184   -46372   -46122   -45863   -45863   -46252   -46516 
  -46171   -45773   -45906   -46286   -46252   -45900   -45738   -45777 
  -45976   -46009   -45806   -45873   -45889   -45841   -46111   -46176 
  -45976   -45890   -45971   -46184   -46211   -46033   -45989   -46256 
  -46503   -46148   -45758   -46152   -46479   -46028   -45765   -46020 
  -46066   -45964   -45817   -45689   -46145   -46537   -46044   -45605 
  -45860   -46144   -46188   -46093   -45771   -45617   -45914   -46326 
  -46527   -46336   -45986   -45909   -45987   -45963   -45846   -45752 
  -45758   -45816   -45958   -46124   -45999   -45760   -45962   -46329 
  -46296   -46006   -45862   -46057   -46256   -46161   -46090   -46171 
  -46126   -45905   -45817   -45982   -46125   -46082   -45901   -45805 
  -46010   -46311   -46467   -46431   -46143   -45941   -45987   -45931 
  -45989   -46184   -45987   -45558   -45357   -45551   -45918   -45960 
  -45868   -45972   -45928   -45812   -46082   -46506   -46624   -46353 
  -45862   -45731   -46183   -46404   -46114   -45855   -45870   -46143 
  -46225   -45868   -45751   -46213   -46568   -46251   -45777   -45746 
  -45814   -45767   -45968   -46322   -46342   -45987   -45816   -46111 
  -46305   -46098   -45850   -45862   -46161   -46171   -45750   -45717 
  -46048   -46286   -46381   -46102   -45931   -46299   -46444   -46105 
  -45773   -45870   -46284   -46287   -45941   -45843   -45922   -45975 
  -45870   -45743   -45978   -46136   -45827   -45774   -46099   -46156 
  -46091   -46095   -45878   -45679   -45864   -45998   -45733   -45577 
  -45713   -45902   -46226   -46368   -46028   -45806   -46082   -46338 
  -46209   -46133   -46278   -46302   -46226   -46084   -46060   -46325 
  -46313   -45929   -45775   -45800   -45850   -46074   -46052   -45720 
  -45828   -46174   -46163   -46036   -45866   -45725   -46037   -46518 
  -46453   -45966   -45724   -45820   -45981   -46079   -46126   -46338 
  -46492   -46209   -45851   -45654   -45808   -46495   -46494   -45458 
  -45241   -46008   -46272   -46117   -46199   -46233   -45979   -45798 
  -46044   -46344   -46043   -45577   -45631   -45887   -46095   -46175 
  -45989   -45840   -46005   -46294   -46211   -46003   -46221   -46284 
  -45870   -45601   -45859   -46344   -46284   -45860   -45929   -46206 
  -46155   -45967   -45918   -46036   -46048   -45918   -45951   -46124 
  -46114   -45828   -45700   -45986   -46230   -46141   -45875   -45692 
  -45908   -46300   -46283   -46101   -46252   -46251   -45866   -45812 
  -46036   -46076   -46210   -46269   -45900   -45693   -45960   -46205 
  -46137   -45925   -45936   -46276   -46437   -46118   -45852   -46010 
  -46278   -46244   -45916   -45843   -46111   -46025   -45704   -45778 
  -46066   -46360   -46461   -46053   -45609   -45601   -45843   -46156 
  -46195   -45850   -45725   -45775   -45636   -45738   -46163   -46462 
  -46336   -45908   -45881   -46159   -46040   -46083   -46615   -46658 
  -46138   -45843   -45773   -45870   -46268   -46431   -46237   -46157 
  -45949   -45705   -45856   -45979   -46012   -46153   -46076   -45792 
  -45642   -45856   -46053   -45790   -45690   -46010   -46036   -45824 
  -45771   -45570   -45519   -46078   -46353   -46025   -45928   -45975 
  -45963   -46207   -46379   -46232   -46059   -45987   -46149   -46502 
  -46620   -46363   -45963   -45725   -45912   -46400   -46549   -46206 
  -45955   -45810   -45697   -46009   -46244   -45960   -45781   -45696 
  -45630   -46001   -46099   -45705   -45813   -46136   -45966   -45613 
  -45582   -46053   -46357   -45944   -45616   -45932   -46252   -46107 
  -45962   -46437   -47121   -47044   -46294   -45752   -45966   -46556 
  -46476   -45841   -45755   -46020   -45810   -45384   -45443   -46102 
  -46616   -46236   -45531   -45454   -45914   -46336   -46300   -45837 
  -45576   -45775   -45954   -45856   -45713   -45774   -45966   -46060 
  -46151   -46176   -46033   -46268   -46830   -46772   -46242   -46234 
  -46558   -46360   -45829   -45634   -45694   -45843   -46241   -46483 
  -46183   -45806   -45856   -46159   -46170   -45994   -45979   -45916 
  -45658   -45280   -45145   -45663   -46519   -47116   -47042   -46327 
  -45733   -45657   -45573   -45378   -45509   -45808   -45932   -46017 
  -46051   -45972   -46184   -46681   -46897   -46899   -46808   -46261 
  -45662   -45513   -45415   -45285   -45430   -45681   -45465   -44640 
  -44037   -43951   -44097   -44875   -46167   -46942   -46413   -44847 
  -43933   -44884   -46653   -47434   -47043   -46665   -46542   -46178 
  -45882   -46008   -46539   -47156   -46946   -45910   -45204   -45308 
  -45978   -46638   -46746   -46993   -48239   -49611   -49751   -48693 
  -47447   -47078   -47915   -48799   -48620   -47915   -47139   -45935 
  -44558   -43749   -44022   -44925   -45453   -45701   -45868   -45571 
  -45036   -44304   -43575   -44190   -46098   -46890   -45310   -43278 
  -42989   -43985   -45211   -46608   -47150   -45898   -44327   -44220 
  -45210   -45775   -45596   -45496   -45850   -46330   -46367   -46048 
  -45931   -45952   -46242   -47240   -48416   -48466   -46904   -45283 
  -45168   -45640   -45686   -45958   -46149   -45447   -45503   -47576 
  -49241   -48351   -46079   -44545   -44851   -46446   -47586   -47275 
  -45983   -44864   -44788   -45192   -45149   -45404   -46163   -46369 
  -46773   -47671   -47169   -45507   -44583   -44582   -44838   -44915 
  -45038   -45561   -45782   -45677   -46338   -47302   -47298   -46735 
  -46581   -46954   -47421   -47328   -46348   -45002   -44200   -44239 
  -44983   -46214   -47093   -47093   -46572   -45743   -45441   -46444 
  -47472   -47299   -46364   -45589   -45692   -46214   -46010   -45264 
  -44938   -45129   -45434   -45879   -46610   -46773   -45566   -44362 
  -44516   -45396   -46346   -46784   -46329   -45966   -46367   -47089 
  -47502   -47432   -47166   -46575   -46020   -46279   -46392   -45516 
  -44944   -45493   -46364   -46741   -46334   -45476   -45150   -45743 
  -46256   -45716   -44776   -44944   -46025   -46508   -46498   -46630 
  -46291   -45630   -45608   -46337   -47150   -47148   -46192   -45046 
  -44481   -44783   -45287   -45123   -44852   -45362   -46006   -46175 
  -46284   -46230   -45983   -46064   -46144   -45970   -45918   -45959 
  -46357   -46746   -46029   -45160   -45180   -45480   -46105   -46865 
  -47009   -46822   -46593   -46445   -46619   -46723   -46773   -47239 
  -47401   -46596   -45785   -45700   -45720   -45388   -45204   -45597 
  -46012   -45891   -45616   -45677   -46138   -46522   -46276   -45808 
  -45589   -45459   -45496   -45766   -46171   -46592   -46642   -46402 
  -46168   -46036   -46345   -46804   -46865   -46622   -46125   -46001 
  -46772   -47164   -46233   -45241   -45196   -45351   -45289   -45388 
  -45462   -45341   -45381   -45640   -45870   -46124   -46423   -46386 
  -45875   -45144   -44487   -44317   -44745   -45357   -45519   -45102 
  -45162   -46155   -46749   -46512   -46552   -46789   -46498   -46286 
  -46602   -46869   -46880   -46745   -46506   -46363   -46272   -46365 
  -46820   -47023   -46855   -46965   -47094   -46714   -46319   -46421 
  -46383   -45875   -45661   -45748   -45411   -44975   -45220   -45767 
  -45808   -45662   -45839   -45902   -45558   -45292   -45516   -46148 
  -46827   -46799   -45797   -44975   -45102   -45477   -45804   -46383 
  -46581   -46170   -46024   -46168   -46238   -46414   -46508   -46264 
  -45962   -45985   -46128   -45972   -45949   -46294   -46118   -45333 
  -45084   -45517   -45832   -46006   -46101   -45689   -45064   -44994 
  -45470   -45935   -45951   -45469   -45169   -45604   -46406   -47012 
  -46985   -46442   -46097   -46137   -46330   -46562   -46581   -46307 
  -46103   -46080   -45995   -46009   -46279   -46630   -46967   -46884 
  -46354   -46203   -46485   -46591   -46435   -46156   -46067   -46309 
  -46291   -45878   -45704   -45774   -45771   -45944   -46294   -46392 
  -46163   -45647   -44980   -44821   -45418   -46106   -46164   -45482 
  -44814   -44915   -45450   -45716   -45644   -45522   -45457   -45472 
  -45854   -46699   -47352   -47232   -46653   -46383   -46705   -47093 
  -46951   -46287   -45766   -45862   -46016   -45844   -45728   -45819 
  -46037   -45940   -45315   -45085   -45630   -46280   -46608   -46475 
  -46226   -46205   -46093   -46033   -46411   -46622   -46102   -45382 
  -45222   -45632   -46145   -46435   -46310   -45949   -45868   -45963 
  -45839   -45673   -45684   -45785   -45939   -45991   -45775   -45709 
  -45909   -45877   -45952   -46396   -46440   -46164   -46248   -46386 
  -46198   -45975   -46206   -46739   -46691   -46091   -45871   -46059 
  -46001   -45751   -45949   -46441   -46426   -45922   -45436   -45164 
  -45269   -45725   -46124   -46117   -45885   -45894   -46151   -46391 
  -46427   -46175   -45993   -46138   -46359   -46445   -46291   -46001 
  -45832   -45717   -45742   -46076   -46191   -45843   -45763   -46132 
  -46296   -46242   -46183   -45840   -45611   -45949   -46013   -45577 
  -45576   -45793   -45677   -45821   -46271   -46232   -45809   -45816 
  -46103   -45833   -45431   -45667   -46002   -45994   -45790   -45594 
  -45804   -46214   -46442   -46499   -46276   -46116   -46468   -46917 
  -46962   -46712   -46512   -46467   -46383   -46144   -45972   -46006 
  -46086   -46105   -46014   -45809   -45755   -46053   -46295   -46122 
  -45966   -46025   -45897   -45598   -45478   -45651   -45958   -46026 
  -45797   -45693   -45925   -46211   -46215   -45916   -45604   -45690 
  -46008   -45951   -45792   -45991   -46095   -46022   -46174   -46353 
  -46269   -46089   -46033   -45981   -45922   -46066   -46179   -46099 
  -46103   -46214   -46241   -46128   -45974   -45912   -45978   -46095 
  -46161   -46184   -46068   -45924   -45962   -45949   -46022   -46291 
  -46248   -45967   -45777   -45817   -46084   -45949   -45496   -45532 
  -45774   -45831   -46002   -46159   -46048   -45790   -45634   -45814 
  -46165   -46242   -46126   -46110   -45997   -45906   -46226   -46381 
  -45976   -45754   -46030   -46261   -46180   -45993   -45901   -45902 
  -45814   -45814   -46194   -46561   -46545   -46248   -45878   -45918 
  -46400   -46565   -46269   -46147   -46248   -46114   -45890   -45941 
  -46064   -45976   -45839   -45916   -46047   -46063   -46126   -46113 
  -45897   -45820   -45962   -46013   -45909   -45754   -45597   -45569 
  -45646   -45686   -45779   -45867   -45740   -45628   -45862   -46182 
