Origin Time       2019/01/26 17:23:00
Lat.              40.280
Long.             142.327
Depth. (km)       38
Mag.              5.6
Station Code      AKTH07
Station Lat.      40.4563
Station Long.     140.8395
Station Height(m) 300
Record Time       2019/01/26 17:23:21
Sampling Freq(Hz) 100Hz
Duration Time(s)  120
Dir.              3
Scale Factor      3920(gal)/6170801
Max. Acc. (gal)   1.069
Last Correction   2019/01/26 17:23:06
Memo.             
[...]
  -11001   -11003   -11002   -11002   -11001   -10999   -11002   -11003 
  -11001   -11002   -11002   -11000   -11000   -11000   -11001   -11002 
  -11003   -11003   -11000   -11000   -11002   -11001   -11000   -11001 
  -11002   -11002   -11002   -11003   -11002   -11002   -11004   -11003 
  -11002   -11003   -11002   -11000   -11001   -11002   -11002   -11003 
  -11004   -11002   -11000   -11000   -11002   -11001   -10999   -11002 
  -11003   -11001   -11002   -11004   -11004   -11003   -11003   -11004 
  -11003   -11002   -11002   -11002   -11001   -11000   -11001   -11003 
  -11002   -11001   -11003   -11004   -11001   -11001   -11001   -11000 
  -11000   -11003   -11004   -11002   -11001   -11001   -11001   -11003 
  -11003   -11000   -10999   -11001   -11001   -11000   -11000   -11002 
  -11002   -11001   -11003   -11002   -11002   -11003   -11002   -11002 
  -11003   -11001   -11000   -11002   -11001   -10999   -11000   -11001 
  -11001   -11002   -11003   -11001   -11001   -11004   -11003   -11002 
  -11002   -11000   -11001   -11004   -11004   -11003   -11003   -11003 
  -11003   -11001   -10999   -11001   -11002   -11002   -11002   -11002 
  -11000   -11000   -11003   -11003   -11002   -11002   -11000   -11000 
  -11002   -11001   -10999   -11001   -11005   -11003   -11000   -11000 
  -11002   -11002   -11002   -11002   -11001   -11001   -11003   -11001 
  -10999   -11001   -11003   -11001   -11001   -11002   -11001   -11001 
  -11001   -11001   -11002   -11003   -11001   -11001   -11001   -11000 
  -11001   -11002   -11002   -11001   -11001   -11001   -11000   -11000 
  -11002   -11003   -11001   -11002   -11002   -11000   -11001   -11001 
  -11001   -11003   -11002   -11001   -11003   -11004   -11003   -11002 
  -11001   -11000   -11000   -11002   -11004   -11001   -10999   -11000 
  -11000   -11001   -11002   -11002   -11001   -10999   -11000   -11001 
  -11001   -11001   -11000   -11001   -11003   -11001   -10999   -11002 
  -11002   -10999   -11000   -11002   -11001   -11002   -11003   -11002 
  -11000   -11000   -11001   -11002   -11002   -11001   -11000   -11002 
  -11003   -11003   -11003   -11003   -11003   -11003   -11002   -11002 
  -11001   -11000   -11001   -11002   -11002   -11001   -11002   -11003 
  -11002   -11001   -11003   -11003   -11003   -11003   -11002   -11001 
  -11003   -11002   -11001   -11003   -11002   -11000   -11001   -11002 
  -11001   -11003   -11003   -11001   -11000   -11002   -11002   -11001 
  -11001   -11001   -11002   -11004   -11002   -11003   -11005   -11003 
  -11003   -11002   -11001   -11003   -11003   -11002   -11000   -11000 
  -11001   -11001   -11001   -11002   -11000   -11000   -11002   -11001 
  -11001   -11001   -11001   -11003   -11003   -11002   -11002   -11002 
  -11001   -11001   -11001   -11000   -11001   -11002   -11002   -11002 
  -11001   -11000   -11000   -11001   -11002   -11001   -11000   -11001 
  -11003   -11001   -11000   -11003   -11003   -11001   -11003   -11001 
  -10999   -11001   -11003   -11002   -11002   -11003   -11003   -11003 
  -11002   -11000   -11002   -11003   -11001   -11000   -11001   -11002 
  -11002   -11002   -11003   -11001   -11001   -11002   -11002   -11001 
  -11002   -11003   -11003   -11001   -11001   -11001   -11001   -11002 
  -11002   -11002   -11002   -11003   -11003   -11001   -11001   -11003 
  -11002   -11002   -11003   -11002   -11000   -11000   -11001   -11002 
  -11002   -11003   -11003   -11002   -11002   -11003   -11002   -11001 
  -11003   -11002   -10999   -11002   -11005   -11004   -11002   -11001 
  -11001   -11001   -11002   -11002   -11002   -11002   -11001   -11001 
  -11001   -11003   -11003   -11002   -11002   -11002   -11001   -11003 
  -11004   -11001   -11001   -11002   -11001   -11002   -11001   -11002 
  -11004   -11002   -11002   -11003   -11001   -10999   -11001   -11003 
  -11002   -11002   -11002   -11001   -11002   -11003   -11002   -11001 
  -11002   -11003   -11002   -11001   -11002   -11002   -11000   -11001 
  -11000   -10999   -11002   -11004   -11003   -11001   -11001   -11003 
  -11002   -11001   -11001   -11001   -11001   -11004   -11003   -11000 
  -11001   -11002   -11002   -11003   -11004   -11004   -11002   -11001 
  -11004   -11002   -10999   -11002   -11003   -11001   -11000   -11001 
  -11002   -11002   -11002   -11001   -11000   -11002   -11003   -11003 
  -11003   -11001   -11000   -11001   -11003   -11003   -11001   -11001 
  -11003   -11002   -11001   -11001   -11001   -11001   -11001   -11001 
  -11001   -11002   -11002   -11002   -11003   -11002   -11001   -11003 
  -11002   -11002   -11003   -11003   -11001   -11002   -11004   -11003 
  -11003   -11002   -11000   -11002   -11004   -11004   -11004   -11001 
  -11001   -11002   -11003   -11002   -11002   -11002   -11003   -11001 
  -11001   -11003   -11002   -11000   -11000   -11000   -11002   -11003 
  -11002   -11002   -11002   -11000   -11002   -11004   -11003   -11002 
  -11001   -11000   -11001   -11001   -11003   -11003   -11003   -11002 
  -11000   -11000   -11002   -11001   -11001   -11002   -11002   -11001 
  -11001   -11000   -10999   -11001   -11003   -11002   -11001   -11001 
  -11000   -11000   -11000   -11001   -11002   -11002   -11001   -11000 
  -11000   -11001   -11002   -11001   -11001   -11001   -11000   -11000 
  -10999   -11000   -11001   -11002   -11000   -10999   -11001   -11004 
  -11001   -10998   -10999   -11002   -11002   -11000   -11000   -11003 
  -11004   -11002   -11001   -11001   -10999   -10999   -11004   -11005 
  -11001   -11000   -11000   -11000   -11002   -11003   -11002   -11002 
  -11001   -11002   -11003   -11001   -11001   -11004   -11003   -11000 
  -11001   -11002   -11004   -11004   -11003   -11002   -11002   -11001 
  -11000   -11001   -11003   -11002   -11001   -11002   -11001   -10999 
  -11001   -11003   -11002   -11001   -11002   -11003   -11003   -11002 
  -11002   -11003   -11003   -11001   -11002   -11004   -11004   -11003 
  -11001   -11002   -11001   -11002   -11004   -11001   -10997   -11000 
  -11004   -11002   -11001   -11003   -11003   -11002   -11002   -11001 
  -11000   -11001   -11002   -11002   -11002   -11002   -11002   -11002 
  -11001   -11002   -11002   -11000   -11001   -11003   -11002   -11001 
  -11002   -11002   -11003   -11004   -11003   -11003   -11003   -11004 
  -11004   -11002   -11002   -11003   -11003   -11003   -11005   -11004 
  -11003   -11003   -11002   -11001   -11002   -11004   -11003   -11001 
  -11004   -11004   -11002   -11003   -11003   -11000   -11002   -11004 
  -11001   -10999   -11001   -11003   -11002   -11001   -11004   -11004 
  -11000   -11000   -11003   -11003   -11001   -11001   -11004   -11004 
  -11003   -11002   -11002   -11003   -11002   -11003   -11003   -11002 
  -11001   -11001   -11001   -11001   -11002   -11002   -11001   -11002 
  -11002   -11002   -11003   -11003   -11003   -11003   -11001   -10999 
  -11001   -11003   -11002   -11001   -11003   -11003   -11001   -11003 
  -11003   -11002   -11002   -11004   -11003   -11001   -11002   -11003 
  -11002   -11002   -11002   -11002   -11001   -11001   -11001   -11001 
  -11002   -11002   -11001   -11002   -11001   -11001   -11002   -11001 
  -11002   -11002   -11002   -11003   -11003   -11002   -11002   -11001 
  -11001   -11003   -11002   -11003   -11004   -11003   -11001   -11001 
  -11003   -11004   -11001   -11001   -11003   -11003   -11002   -11002 
  -11003   -11004   -11004   -11002   -11003   -11004   -11003   -11001 
  -11001   -11002   -11002   -11001   -11003   -11004   -11002   -11001 
  -11001   -11002   -11003   -11002   -11002   -11002   -11002   -11002 
  -11001   -11000   -11001   -11002   -11004   -11004   -11003   -11004 
  -11004   -11000   -11001   -11003   -11002   -11003   -11004   -11002 
  -11001   -11001   -11000   -11001   -11002   -11002   -11002   -11001 
  -11001   -11002   -11004   -11004   -11000   -10999   -11002   -11003 
  -11003   -11001   -11000   -11002   -11002   -11002   -11002   -11001 
  -11001   -11001   -11000   -11000   -11002   -11000   -10999   -11002 
  -11002   -11000   -11000   -10999   -11000   -11002   -11001   -11000 
  -11002   -11003   -11002   -11001   -11000   -11001   -11002   -11001 
  -11000   -11002   -11003   -11000   -10999   -11001   -11001   -11001 
  -11002   -11002   -11002   -11003   -11003   -11002   -11002   -11003 
  -11002   -11000   -11001   -11003   -11002   -11000   -11003   -11003 
  -11001   -11002   -11002   -11001   -11000   -11000   -11002   -11003 
  -11003   -11003   -11002   -11001   -11002   -11002   -11002   -11002 
  -11002   -11003   -11003   -11004   -11004   -11002   -11002   -11004 
  -11003   -11003   -11004   -11004   -11004   -11003   -11002   -11003 
  -11003   -11003   -11002   -11003   -11002   -11000   -11001   -11002 
  -11001   -11001   -11002   -11001   -11001   -11004   -11002   -10998 
  -11000   -11003   -11003   -11001   -11001   -11002   -11002   -11002 
  -11003   -11002   -11000   -11000   -11001   -11000   -11000   -11001 
  -11003   -11003   -11000   -11000   -11003   -11002   -10999   -10999 
  -11000   -11002   -11001   -11001   -11003   -11003   -11002   -11001 
  -11000   -11000   -11000   -10999   -11000   -11002   -11002   -11001 
  -11001   -11000   -11000   -11002   -11002   -11002   -11001   -11000 
  -11001   -11001   -11001   -11002   -11002   -11000   -11000   -11002 
  -11002   -11000   -11001   -11003   -11001   -11001   -11000   -11000 
  -11003   -11004   -11002   -11002   -11002   -11001   -11002   -11003 
  -11002   -11001   -11003   -11002   -11000   -11002   -11003   -11001 
  -11000   -11001   -11002   -11002   -11002   -11003   -11002   -11002 
  -11002   -11001   -11001   -11002   -11002   -11003   -11003   -11001 
  -11001   -11001   -11000   -11001   -11002   -11000   -10999   -11001 
  -11000   -11000   -11001   -11001   -11000   -11001   -11002   -11002 
  -11002   -11001   -11002   -11002   -11002   -11002   -11001   -11001 
  -11002   -11002   -11002   -11003   -11002   -11002   -11003   -11003 
  -11001   -11000   -11003   -11005   -11004   -11005   -11005   -11003 
  -11002   -11002   -11002   -11003   -11003   -11003   -11004   -11003 
  -11003   -11005   -11002   -11000   -11002   -11001   -11000   -11003 
  -11003   -11001   -11002   -11002   -11001   -11003   -11003   -11001 
  -11002   -11003   -11003   -11003   -11003   -11003   -11003   -11000 
  -11001   -11003   -11003   -11004   -11004   -11002   -11003   -11005 
  -11002   -11002   -11004   -11001   -11001   -11003   -11001   -10999 
  -11001   -11002   -11002   -11003   -11001   -11000   -11001   -11001 
  -11002   -11003   -11000   -10998   -11001   -11003   -11001   -11000 
  -11001   -11002   -11001   -11001   -11002   -11001   -11001   -11002 
  -11000   -10999   -11001   -11001   -11003   -11003   -11000   -11000 
  -11004   -11003   -11001   -11003   -11004   -11002   -11001   -11002 
  -11003   -11001   -11000   -11001   -11003   -11003   -11002   -11003 
  -11004   -11005   -11003   -11001   -11002   -11001   -11000   -11003 
  -11004   -11003   -11003   -11004   -11004   -11007   -11011   -11016 
  -11024   -11031   -11040   -11053   -11064   -11073   -11081   -11090 
  -11103   -11119   -11134   -11153   -11174   -11193   -11208   -11208 
  -11183   -11140   -11102   -11072   -11032   -10972   -10907   -10858 
  -10831   -10810   -10793   -10801   -10860   -10952   -11033   -11091 
  -11115   -11063   -10945   -10835   -10773   -10782   -10885   -11012 
  -11053   -11025   -10987   -10922   -10833   -10802   -10851   -10896 
  -10911   -10964   -11010   -10937   -10800   -10721   -10693   -10628 
  -10505   -10388   -10331   -10376   -10585   -10886   -11136   -11341 
  -11502   -11504   -11353   -11165   -10997   -10900   -10959   -11173 
  -11423   -11561   -11552   -11455   -11265   -11057   -11057   -11278 
  -11490   -11567   -11440   -11054   -10629   -10540   -10806   -11056 
  -11079   -11009   -10956   -10879   -10766   -10728   -10924   -11213 
  -11245   -11048   -10937   -10916   -10745   -10484   -10518   -10905 
  -11223   -11258   -11183   -11155   -11255   -11463   -11606   -11605 
  -11546   -11491   -11455   -11446   -11459   -11450   -11386   -11309 
  -11257   -11225   -11187   -11169   -11307   -11596   -11757   -11568 
  -11199   -10982   -10828   -10494   -10240   -10320   -10541   -10741 
  -10850   -10828   -10890   -11213   -11567   -11608   -11374   -11244 
  -11369   -11425   -11121   -10605   -10233   -10152   -10150   -10060 
  -10001   -10076   -10256   -10463   -10517   -10196    -9644    -9385 
   -9463    -9432    -9390    -9781   -10493   -11070   -11364   -11460 
  -11310   -10992   -10809   -10795   -10868   -11164   -11666   -12108 
  -12294   -12188   -11970   -11895   -11781   -11306   -10819   -10773 
  -10890   -10825   -10684   -10564   -10557   -10779   -10817   -10268 
   -9811   -10193   -10847   -11036   -11058   -11045   -10597   -10118 
  -10208   -10462   -10621   -11204   -11979   -11931   -11216   -10863 
  -10996   -11245   -11565   -11770   -11667   -11571   -11682   -11505 
  -10844   -10439   -10704   -11218   -11748   -12016   -11595   -11195 
  -11645   -12130   -11809   -11178   -10813   -10870   -11276   -11396 
  -10920   -10680   -11167   -11606   -11506   -11472   -11889   -12229 
  -12003   -11549   -11479   -11711   -11787   -11540   -11051   -10687 
  -10746   -10999   -11092   -10961   -10866   -10995   -11013   -10676 
  -10331   -10268   -10357   -10431   -10418   -10304   -10116    -9751 
   -9319    -9425   -10201   -10878   -11034   -11106   -11388   -11777 
  -12063   -11923   -11624   -11727   -11830   -11513   -11168   -10918 
  -10717   -10886   -11330   -11497   -11356   -11233   -11111   -10977 
  -10920   -10809   -10618   -10444   -10313   -10347   -10529   -10581 
  -10431   -10340   -10505   -10810   -10985   -10912   -10633   -10288 
  -10220   -10491   -10625   -10412   -10067    -9779    -9719    -9976 
  -10428   -10902   -11347   -11618   -11436   -11003   -10761   -10581 
  -10257   -10084   -10310   -10755   -11183   -11481   -11549   -11521 
  -11692   -11972   -11938   -11495   -11101   -11142   -11394   -11549 
  -11704   -11857   -11737   -11387   -11239   -11456   -11569   -11182 
  -10689   -10637   -11043   -11485   -11459   -11072   -10806   -10705 
  -10667   -10712   -10827   -11064   -11519   -12045   -12204   -11921 
  -11503   -10988   -10478   -10283   -10370   -10547   -10838   -11201 
  -11367   -11286   -11216   -11206   -11061   -10796   -10713   -10888 
  -10954   -10712   -10600   -11014   -11491   -11485   -11229   -11071 
  -11049   -11256   -11596   -11646   -11449   -11448   -11545   -11501 
  -11447   -11401   -11397   -11534   -11520   -11205   -10956   -10892 
  -10800   -10642   -10466   -10313   -10333   -10439   -10325   -10267 
  -10660   -11004   -10944   -10840   -10703   -10478   -10511   -10705 
  -10623   -10422   -10528   -10804   -10920   -10973   -11067   -11077 
  -11053   -11110   -11089   -10933   -10942   -11092   -10994   -10717 
  -10533   -10393   -10364   -10520   -10606   -10614   -10788   -11035 
  -11105   -11035   -11065   -11157   -11154   -11234   -11416   -11421 
  -11304   -11263   -11269   -11277   -11204   -10998   -11010   -11408 
  -11686   -11596   -11522   -11715   -11928   -11853   -11585   -11356 
  -11038   -10578   -10309   -10280   -10293   -10455   -10792   -11038 
  -11112   -11149   -11151   -10997   -10813   -10856   -11011   -10974 
  -10769   -10591   -10490   -10537   -10768   -10983   -11100   -11287 
  -11476   -11405   -11131   -10916   -10800   -10757   -10830   -10926 
  -10923   -10913   -11022   -11096   -10935   -10734   -10751   -10883 
  -10905   -10709   -10402   -10298   -10541   -10904   -11088   -11055 
  -10984   -10984   -11071   -11242   -11376   -11391   -11354   -11269 
  -11089   -10929   -10972   -11123   -11140   -11114   -11219   -11294 
  -11234   -11099   -10856   -10710   -10969   -11288   -11239   -11035 
  -10839   -10579   -10392   -10283   -10167   -10303   -10783   -11228 
  -11354   -11229   -11065   -10991   -11004   -11104   -11275   -11417 
  -11429   -11317   -11231   -11260   -11330   -11373   -11287   -11038 
  -10812   -10710   -10679   -10765   -10951   -11108   -11306   -11552 
  -11568   -11286   -10963   -10862   -10996   -11119   -11134   -11095 
  -10998   -10927   -10923   -10863   -10732   -10720   -10921   -11168 
  -11333   -11452   -11470   -11317   -11141   -11015   -10733   -10384 
  -10386   -10702   -11035   -11327   -11459   -11367   -11307   -11259 
  -10917   -10519   -10518   -10734   -10883   -11041   -11147   -11111 
  -11112   -11146   -11007   -10802   -10766   -10786   -10691   -10576 
  -10529   -10511   -10501   -10574   -10865   -11310   -11577   -11513 
  -11323   -11205   -11225   -11314   -11200   -10870   -10669   -10628 
  -10567   -10544   -10558   -10512   -10570   -10863   -11101   -11071 
  -10959   -10874   -10808   -10811   -10851   -10938   -11138   -11301 
  -11248   -11105   -11094   -11251   -11451   -11509   -11403   -11367 
  -11468   -11484   -11347   -11230   -11195   -11153   -11059   -10890 
  -10669   -10572   -10668   -10788   -10880   -10985   -11004   -10976 
  -11082   -11250   -11240   -11038   -10924   -11029   -11164   -11215 
  -11202   -11194   -11355   -11607   -11616   -11389   -11241   -11272 
  -11280   -11204   -11216   -11226   -11057   -10899   -10837   -10725 
  -10651   -10727   -10819   -10842   -10915   -10989   -10804   -10474 
  -10357   -10369   -10293   -10271   -10370   -10467   -10640   -10830 
  -10697   -10373   -10306   -10497   -10783   -11127   -11314   -11215 
  -11044   -10890   -10651   -10463   -10534   -10786   -11028   -11122 
  -11018   -10873   -10881   -11016   -11193   -11426   -11656   -11730 
  -11640   -11489   -11363   -11335   -11396   -11489   -11530   -11429 
  -11311   -11253   -11076   -10937   -11143   -11438   -11525   -11543 
  -11503   -11224   -10852   -10674   -10680   -10793   -11019   -11174 
  -11031   -10714   -10570   -10742   -10979   -10995   -10950   -11125 
  -11407   -11494   -11326   -11100   -10994   -11028   -11075   -11049 
  -11079   -11233   -11355   -11327   -11143   -10887   -10689   -10570 
  -10567   -10794   -11183   -11432   -11307   -10972   -10795   -10820 
  -10806   -10677   -10618   -10734   -10838   -10737   -10568   -10601 
  -10767   -10847   -10934   -11055   -11017   -10962   -11083   -11108 
  -10960   -10902   -10820   -10603   -10644   -10989   -11179   -11164 
  -11195   -11194   -10997   -10761   -10785   -11021   -11187   -11260 
  -11359   -11458   -11371   -10917   -10348   -10112   -10121   -10169 
  -10317   -10474   -10610   -10817   -10965   -10994   -11049   -11149 
  -11165   -11159   -11287   -11372   -11258   -11116   -11055   -11156 
  -11397   -11494   -11442   -11471   -11463   -11287   -11138   -11004 
  -10717   -10562   -10803   -11075   -11011   -10841   -10942   -11193 
  -11313   -11371   -11382   -11294   -11324   -11494   -11514   -11340 
  -11117   -10942   -10858   -10771   -10725   -10883   -11026   -11008 
  -11102   -11276   -11217   -10987   -10844   -10842   -10908   -11015 
  -11152   -11248   -11176   -10886   -10560   -10446   -10546   -10662 
  -10720   -10868   -11148   -11322   -11220   -10987   -10860   -10893 
  -11005   -11050   -10975   -10863   -10685   -10460   -10383   -10490 
