Origin Time       2019/01/26 17:23:00
Lat.              40.280
Long.             142.327
Depth. (km)       38
Mag.              5.6
Station Code      AOMH16
Station Lat.      40.4624
Station Long.     141.0923
Station Height(m) 165
Record Time       2019/01/26 17:23:19
Sampling Freq(Hz) 100Hz
Duration Time(s)  150
Dir.              3
Scale Factor      2940(gal)/6170270
Max. Acc. (gal)   3.840
Last Correction   2019/01/26 17:23:04
Memo.             
[...]
   12573    12563    12549    12527    12491    12437    12362    12264 
   12148    12001    11807    11574    11336    11134    10986    10871 
   10792    10814    11024    11468    12096    12739    13314    13961 
   14674    15027    14662    13778    13003    12939    13567    14000 
   13495    12463    11542    11128    12234    14915    17135    17668 
   16965    14960    11862     9688    10060    12186    14622    16794 
   17622    15786    12623    10882    10612    10668    11435    12465 
   12201    10798     9349     8774    10217    12794    13755    13071 
   12541    11717    10031     8973     9658    11593    13660    15263 
   16388    16372    14808    12826    11080     9630     9397    10322 
   11278    11981    12450    12589    12464    12264    12181    12396 
   13186    13831    13246    12025    11088    10627    11069    12479 
   14253    15851    16309    14915    12778    10556     8026     7219 
    9464    12602    14645    15230    14805    13814    11914     9829 
    9193     9778    10490    11209    12032    12841    12939    11739 
   10529    10386    10392    10069    10245    11718    13536    13640 
   12318    11153    10692    11805    14179    15323    14683    14268 
   14601    14509    14643    16423    18383    18621    17658    16095 
   14177    12880    12323    11724    11449    12346    13930    15445 
   16884    17851    17501    15918    14403    13168    10598     7818 
    8334    11591    14407    15830    15604    13435    10981    10395 
   11848    13377    13382    13808    15449    14024    10116    10393 
   14389    16743    17015    15596    11385     6680     5136     6926 
    9437    11446    14479    17179    15376    11380    11071    12419 
   10606     8445     9184    10181    10169     9968     9315     9620 
   11861    13423    12437    11160    12576    15556    16036    13883 
   13045    13292    12258    12701    15660    16898    15699    14507 
   13172    10748     7881     7080    10121    14120    15674    15943 
   16424    15807    13272    10355     9016     9254     9788    10708 
   11472    10031     9045    11455    12377     9749     8762    10745 
   12886    13461    12116    10266     9374     8921     9502    13501 
   18464    18915    15718    12517     9450     7911    10127    12979 
   13394    14172    16510    16582    13022    10024    11024    13348 
   14217    15906    18345    17018    12360    10749    13540    15308 
   14933    15533    15827    14165    12588    11724    11230    11573 
   12052    12356    12211    11055    11562    14722    15673    13388 
   12527    12839    11336     9729     9520     9607    10011    10742 
   11071    11550    13388    15898    16681    14876    12422    12020 
   13287    13088    11230     9836     9808    11419    13164    13285 
   12438    11362    10439    10353    11037    11604    11584    11822 
   12446    13147    14508    14780    12344    10307    10732    11514 
   11916    12843    13559    13488    13900    15194    14901    12087 
   10563    11714    12257    12107    12644    12319    10806     8973 
    7430     7823    10410    13658    16016    16372    15464    14140 
   11642     8969     8807    11319    14430    16534    16589    14739 
   12893    11763    11006    12094    14857    15828    13960    12149 
   12801    14914    16202    16723    16578    14509    12208    11778 
   11956    12297    12822    12485    12785    14740    15536    14642 
   14259    13062    10436    10006    11925    12845    12307    11920 
   12798    14272    14533    13597    13051    13447    14000    14260 
   14536    15118    15632    14700    12565    12126    13715    14258 
   12398     8918     5808     6194     9774    12002    11468    11274 
   12190    12147    10409     8019     7306     9232    11574    12808 
   13210    13164    13915    15553    15698    13880    12385    12080 
   11989    11752    12087    13519    14882    14481    12933    11832 
   10941     9930     9970    10990    11056    10479    11304    12264 
   11657    11485    12086    11441    10648    11004    11488    12397 
   14199    15675    16258    15640    13480    11862    12722    14005 
   13650    12550    11281    10540    11960    14183    14627    14139 
   14066    13665    12849    12150    11347    11050    11786    12655 
   13185    13497    13515    12924    11878    11595    11838    11410 
   10910    10648    10775    12544    15143    16201    15287    13945 
   13766    14221    13943    13983    15031    14980    13257    11669 
   11265    12068    13242    13727    13443    12791    12139    11677 
   11360    11362    11712    11928    12008    12327    12350    11631 
   10933    10812    10874    10674    10620    11182    11772    12654 
   14581    15942    15631    15395    15757    15122    13532    12435 
   11963    11555    11271    11106    11216    11889    12159    11592 
   11330    11261    10857    11074    12286    13678    14583    14680 
   13829    12260    10908    10716    11285    11763    12410    13255 
   13498    13759    15057    16151    15762    14614    13340    11796 
   10450     9995    10116    10448    11676    13507    13885    12355 
   11124    11638    12834    13194    12819    12856    13410    13596 
   13524    13760    14193    15028    15716    14648    12397    11019 
   10668    10249     9949    11269    13665    14130    12459    11417 
   11479    11469    11696    12499    12886    11927    10246     9702 
   10781    11980    12446    12183    11334    10887    11084    11230 
   11397    11635    12149    12882    12821    13020    14489    14572 
   12714    11819    12065    12575    13891    14546    13211    11609 
   11013    11578    13131    14087    13626    12378    10783    10000 
   10712    11535    11879    12705    14018    14698    14123    13085 
   12868    13619    14434    14617    14603    14972    14978    14169 
   13326    12688    12518    13050    13072    12730    13324    13841 
   13582    13551    13881    14413    15073    14978    13872    12718 
   11677    10165     8876     9063    10319    11383    12182    12600 
   11852    10871    11309    12453    12657    12637    13966    15290 
   14243    12030    11649    12897    13389    12834    12704    13204 
   13008    11893    11072    10974    11659    12641    12167    11005 
   12246    14481    13418    10395     9625    10970    12623    13498 
   12617    11832    12976    13734    13199    13709    15166    15179 
   13092    10835    10052     9968    10545    12796    14709    14307 
   13569    13835    13578    12407    11614    11327    10614     9939 
   10672    12028    12315    12488    14040    15755    15723    14026 
   12331    11647    11503    11083    10328    11028    13746    14974 
   13302    11806    12143    13512    14518    14079    13232    13752 
   14913    14866    13889    13276    12941    12373    11636    10550 
    9720    10671    12514    12939    12288    12508    14302    16159 
   15862    13888    12856    13706    14886    14464    12338    10495 
   10392    11500    12860    13840    14551    15397    15229    13283 
   10834     9325     9970    11988    12646    12229    12530    12977 
   13227    13037    11416     9946    10489    11460    11482    11287 
   11159    11497    12993    13959    12489    10162     8947     8404 
    8453    10082    12761    14550    15141    15591    15232    13478 
   11922    11888    12588    11923    10362    10471    11296    10900 
   10339    10301    10275    10264    10482    11230    12091    12382 
   13144    14677    14963    14163    14308    14818    14133    12434 
   11117    11163    11845    12782    14371    15309    14503    12964 
   12053    12439    13239    13054    12273    11930    12440    13701 
   14785    15375    15788    15294    13594    11579    10323    10917 
   12695    13545    13374    13341    13441    13693    14022    13716 
   13299    13028    11848    10384    10343    12101    14211    14803 
   14487    14483    13908    12542    11552    11164    11262    12315 
   13832    14394    13784    12601    11107    10358    11121    12161 
   13286    15059    15120    12785    11421    11866    12492    12770 
   12778    13510    14780    14424    12602    11635    12396    13737 
   13908    13094    13071    13423    12916    12413    11886    10809 
   10461    10653    10325     9954     9911    10416    10667     9899 
   10115    11618    12259    12380    12416    11429    10255    10010 
   10427    11080    11268    10659    10609    11804    13085    13977 
   14319    13592    12491    12073    12247    12618    13764    15409 
   15388    13651    12447    12583    13886    15586    15792    14357 
   13204    12698    12205    11969    12185    13154    14572    15239 
   15146    14405    12773    11803    12495    13590    14620    15323 
   14750    13874    13698    13517    13674    14483    15001    15259 
   15040    13386    10993     8912     7909     8986    11365    13441 
   14396    13766    12395    11334    10261     9417    10244    12663 
   14239    13971    13381    12523    11238    11326    11767    10832 
   11065    12572    12151    10739    10882    12480    14194    14867 
   15151    16052    16152    14538    12554    10962    10634    12265 
   13866    14468    14839    13878    11717    10686    10948    11251 
   11593    11854    11542    11516    12025    11988    11509    11022 
   10732    11052    10984    10308    11172    13400    14045    12581 
   11504    12050    12182    10538     9207     9497    10009    10387 
   11226    11709    11417    11196    11571    12593    13549    13581 
   13467    13972    14168    13491    12561    11827    11463    11645 
   12351    13428    14553    15359    15564    14555    12450    11553 
   13332    15282    14998    13980    13984    14049    13011    11522 
   10841    11596    13325    14523    14653    14569    14269    13397 
   12476    11972    11912    12242    12564    11791    10138    10123 
   12108    13162    12615    12100    11514    10819    11093    12246 
   13956    15785    16129    14728    13085    11829    10845    10429 
   10646    10634    10155    10344    10971    11165    12217    14225 
   14942    14377    13878    13149    12315    12215    12908    14284 
   15629    15680    14536    13512    13432    13895    13924    13410 
   12832    12124    12054    13220    13813    13653    14817    16325 
   15937    14026    11621     9426     8594     9352    10787    12729 
   14979    15893    14659    12733    11589    11173    10693    10525 
   11699    12771    12603    13380    14709    14048    12962    12553 
   10931     9139     9346    10455    11035    11377    12320    13967 
   14854    14550    14420    14144    12758    10924     9470     8922 
    9606    10919    11686    11931    12449    12642    12252    12628 
   14079    15205    14960    14108    13565    12767    11848    12085 
   13457    14490    14226    13134    11358     8897     7755     9363 
   12362    14743    15117    13878    13035    12845    11966    10579 
    9939    10765    12632    13640    12499    10666    10354    11467 
   12812    14479    16089    15833    13442    10897     9942    10850 
   12548    13600    13649    13079    12535    12658    12842    12681 
   13438    15047    15565    14958    14865    14767    13304    11668 
   11184    11527    12553    13554    13208    11737    10276     9312 
    8992     9374    10421    12010    13263    13554    13716    13712 
   12491    11361    12280    13741    13229    11356    10092     9751 
   10025    11321    13191    14049    13492    12393    12050    13527 
   15330    15227    14168    13845    13641    12367    10870    10958 
   11650    11463    12074    13951    14891    14295    13508    13957 
   15072    14668    13303    13224    13749    13590    13902    14845 
   14232    11680     9456     8640     8579     9717    11952    12860 
   11972    11261    11860    13896    15460    14111    11218     9710 
    9382     8522     7873     9088    10857    11234    10999    10943 
   10902    11630    12976    13956    14778    15380    15400    14724 
   12833    10770    10746    12691    14419    14688    14349    14398 
   14597    13846    11549     9498     9558    10651    11484    12354 
   13573    14995    16460    17728    17527    15179    13025    13244 
   14004    12487    10191    10175    11282    11372    11713    13949 
   16410    16258    13838    11624    11045    11951    12955    13182 
   12915    12406    12013    12435    13940    15256    14969    13783 
   12438    10534     8595     7560     7446     8329    10991    15055 
   17573    16223    13296    12647    13708    14078    14208    14606 
   15041    15920    15992    13920    11118     9271     8216     7456 
    8323    11476    13864    13576    12558    12419    13349    14072 
   12903    11701    12767    14337    14334    13069    12265    13448 
   14945    14486    13777    14611    15572    15209    13512    11468 
   10556    10510     9990     9488     9804    11205    13531    13793 
   10809     8969    10479    12828    14606    16110    16908    16355 
   15022    14438    15507    17198    16954    13620     9376     6779 
    6253     7570    10473    14116    17319    18781    18042    16089 
   13979    12157    10917    10327    10668    11309     9738     6196 
    4533     5894     8041     9484    11034    13535    14938    14288 
   14581    16362    16897    16151    15692    15471    14781    12753 
    9298     6423     5527     5567     6109     7945    10542    12583 
   13955    15486    17242    17886    16298    13310    10767     9565 
    9648    10316    10446    10040    10326    11746    13364    14251 
   14815    16457    19345    20545    17386    12532     9763     8184 
    7152     8929    13033    16134    16789    16124    15346    14025 
   12062    11262    11750    11418    11054    12600    14260    14243 
   13044    11287    10459    10594     9693     8714     9359    10362 
   10958    11584    12078    12598    12818    12272    12802    15708 
   18623    18519    15310    11538     9771    10809    13295    15090 
   15742    15635    14246    11860     9890     8855     8879    10457 
   12991    14901    15327    14416    13445    13883    15061    15256 
   14233    12150     9113     6997     7319     8963    11397    14817 
   17057    16556    14833    13441    12921    13230    13599    13784 
   13884    13624    12983    11765     9869     8499     9280    11836 
   13387    12607    11570    11893    12904    13624    13496    12538 
   12055    13410    15339    15180    13198    11910    11759    11282 
   10420    10854    13147    15113    15002    14603    15607    16721 
   16532    14982    13158    12286    11491     9668     8454     9409 
   11318    12804    14102    15488    16274    15277    12275     8975 
    7264     7324     8206     8567     8200     9146    11530    12489 
   11501    10125     9360    10783    13890    14659    12274    10330 
   10127    10805    12490    14683    16350    17214    17273    16952 
   16547    15923    15549    15591    15486    15574    16023    15949 
   15601    15546    15085    14020    12601    10688     9080     8521 
    8506     9064    10402    11650    12062    11549    10719    10401 
   10609    11438    12788    13631    13824    13821    13162    11920 
   10997    10040     8504     7937     9290    10808    11335    11528 
   12021    12952    13689    14189    15391    16458    16187    15261 
   13947    12070    10849    11550    13488    14524    13299    10300 
    7554     6925     7615     8463    10775    14331    16744    17933 
   18674    18266    16466    14115    12663    13135    14242    14192 
   13521    13217    13233    13474    13355    12378    11152    10328 
   10360    11555    13332    14924    16086    16330    15308    13473 
   10904     7953     6366     6645     7637     8997    10328    10858 
   11296    12665    14530    15823    15530    13448    11038     9943 
   10542    11919    12400    11608    11091    11713    12911    14346 
   15567    15839    15419    14819    14107    13326    11995    10250 
    9756    10932    12084    12636    13605    14661    15017    15339 
   15470    14650    13603    12912    12406    12249    12537    13163 
   13727    13720    13818    14618    14758    13468    12248    12630 
   14348    15250    13909    12019    11776    12688    13192    13383 
   14071    14640    14004    12650    11459     9984     8322     7953 
    8934    10011    11293    12541    12101    10366     9142     8505 
    7862     7553     8307     9876    11156    11729    12081    12529 
   12524    11638    10256     9001     8919    10476    12253    13224 
   14176    14945    14360    13377    13113    12627    12054    12192 
   12332    12864    14733    16243    15716    14621    14987    16155 
   16239    15448    15407    16182    16790    17022    16301    14071 
   12267    12561    13190    12838    13150    14717    15607    15279 
   14977    14839    14517    14043    13198    12034    10832     9866 
    9580     9944    10376    10502    10203     9441     8690     8516 
    8908     9693    10266    10011     9424     9001     8805     9545 
   11370    12900    13492    13794    13594    12231    10337     9231 
    9440    10591    12079    13184    13207    12340    11985    12988 
   14430    15288    15529    15391    15073    14947    14983    14426 
   13367    12940    13530    14745    15921    16391    16212    15435 
   14194    13669    14325    15339    16186    16330    15325    13803 
   12824    12801    13242    13393    13195    13157    13239    13135 
   13092    13311    13858    14469    14189    12880    11458    10361 
    9948    10929    12782    13945    13783    12673    11415    10626 
   10300    10306    10010     9030     8759    10034    11384    11679 
   11340    10845    10540    10538    10190     9541     9792    10984 
   11938    12289    12332    12114    11413    10412    10244    11343 
   12529    12997    12954    12929    13576    14562    14411    12623 
   10391     8905     8323     8445     9244    10320    11246    12406 
   13601    13936    13962    14422    14642    14486    14725    15385 
   15731    15190    14245    13830    13899    14234    14941    15371 
   15185    15142    15313    15095    14658    14539    14776    14794 
   14285    13816    13528    13036    12500    11898    10827     9556 
    9026     9771    11013    11464    11022    10478     9996     9539 
    9616    10145    10469    10905    12187    13635    13945    13058 
   11750    10840    11086    12392    13636    13889    13437    13136 
   12903    12154    11471    11919    13145    13840    13748    13869 
   14576    15167    14923    13507    11585    10356    10156    11003 
   12603    13688    13930    14354    14504    13210    11561    11178 
   11800    12662    13551    14357    15055    15282    14538    13398 
   12740    12591    12856    13337    13606    13918    14351    14125 
   13178    12108    11297    10879    10092     8926     9263    11127 
   12380    12739    13063    13244    13263    13270    13011    12502 
