Origin Time       2019/01/26 17:23:00
Lat.              40.280
Long.             142.327
Depth. (km)       38
Mag.              5.6
Station Code      AOMH06
Station Lat.      40.9664
Station Long.     141.3738
Station Height(m) -95
Record Time       2019/01/26 17:23:19
Sampling Freq(Hz) 100Hz
Duration Time(s)  138
Dir.              3
Scale Factor      2940(gal)/6170270
Max. Acc. (gal)   3.341
Last Correction   2019/01/26 17:23:04
Memo.             
[...]
  -70767   -70765   -70764   -70765   -70765   -70766   -70767   -70765 
  -70765   -70767   -70766   -70766   -70768   -70769   -70766   -70766 
  -70768   -70769   -70767   -70766   -70765   -70764   -70765   -70765 
  -70763   -70764   -70766   -70765   -70765   -70766   -70767   -70767 
  -70766   -70765   -70765   -70766   -70766   -70765   -70766   -70767 
  -70767   -70768   -70768   -70764   -70762   -70763   -70764   -70765 
  -70768   -70768   -70766   -70764   -70764   -70766   -70765   -70763 
  -70764   -70764   -70763   -70763   -70762   -70764   -70767   -70765 
  -70763   -70766   -70766   -70763   -70765   -70768   -70766   -70763 
  -70764   -70763   -70760   -70761   -70763   -70763   -70762   -70762 
  -70763   -70763   -70761   -70760   -70761   -70762   -70764   -70765 
  -70765   -70766   -70765   -70763   -70764   -70763   -70762   -70763 
  -70764   -70764   -70766   -70767   -70767   -70766   -70765   -70764 
  -70762   -70762   -70764   -70766   -70765   -70764   -70765   -70768 
  -70767   -70766   -70766   -70766   -70766   -70767   -70766   -70765 
  -70767   -70768   -70768   -70768   -70766   -70766   -70768   -70768 
  -70765   -70765   -70767   -70767   -70765   -70765   -70764   -70762 
  -70762   -70763   -70766   -70767   -70764   -70762   -70764   -70764 
  -70762   -70761   -70761   -70762   -70763   -70762   -70762   -70764 
  -70764   -70763   -70762   -70764   -70766   -70764   -70763   -70764 
  -70764   -70764   -70763   -70761   -70762   -70764   -70763   -70762 
  -70762   -70761   -70763   -70765   -70763   -70761   -70761   -70763 
  -70765   -70765   -70764   -70764   -70766   -70765   -70762   -70763 
  -70763   -70760   -70761   -70764   -70762   -70763   -70766   -70767 
  -70765   -70762   -70763   -70766   -70767   -70767   -70767   -70766 
  -70767   -70768   -70768   -70767   -70767   -70769   -70767   -70764 
  -70766   -70768   -70768   -70770   -70772   -70768   -70765   -70766 
  -70769   -70766   -70766   -70769   -70768   -70766   -70768   -70768 
  -70768   -70767   -70767   -70769   -70768   -70767   -70767   -70765 
  -70762   -70764   -70767   -70766   -70765   -70767   -70767   -70764 
  -70763   -70763   -70763   -70761   -70762   -70763   -70762   -70762 
  -70764   -70763   -70762   -70764   -70763   -70761   -70761   -70763 
  -70764   -70763   -70762   -70763   -70763   -70761   -70762   -70764 
  -70763   -70763   -70766   -70767   -70764   -70765   -70764   -70762 
  -70765   -70767   -70764   -70763   -70763   -70763   -70767   -70768 
  -70765   -70763   -70763   -70764   -70766   -70766   -70766   -70766 
  -70765   -70765   -70765   -70764   -70765   -70766   -70764   -70764 
  -70765   -70765   -70766   -70767   -70768   -70768   -70768   -70767 
  -70766   -70768   -70770   -70768   -70767   -70769   -70769   -70767 
  -70766   -70766   -70766   -70766   -70768   -70771   -70769   -70767 
  -70767   -70769   -70770   -70766   -70763   -70765   -70764   -70762 
  -70764   -70766   -70763   -70764   -70767   -70765   -70763   -70763 
  -70764   -70765   -70764   -70764   -70764   -70764   -70764   -70764 
  -70762   -70760   -70762   -70765   -70765   -70764   -70765   -70765 
  -70764   -70764   -70765   -70765   -70766   -70766   -70766   -70766 
  -70767   -70769   -70768   -70766   -70766   -70767   -70768   -70769 
  -70769   -70767   -70766   -70768   -70768   -70767   -70767   -70767 
  -70768   -70770   -70770   -70770   -70770   -70770   -70770   -70768 
  -70765   -70767   -70768   -70766   -70765   -70768   -70768   -70766 
  -70765   -70765   -70765   -70765   -70765   -70766   -70766   -70765 
  -70764   -70765   -70765   -70765   -70764   -70764   -70765   -70766 
  -70766   -70767   -70767   -70768   -70767   -70765   -70767   -70769 
  -70768   -70767   -70768   -70766   -70767   -70769   -70769   -70768 
  -70767   -70764   -70762   -70763   -70765   -70769   -70768   -70766 
  -70766   -70764   -70763   -70766   -70766   -70764   -70764   -70765 
  -70765   -70764   -70763   -70763   -70765   -70765   -70764   -70764 
  -70765   -70766   -70766   -70766   -70766   -70764   -70762   -70764 
  -70766   -70766   -70763   -70763   -70766   -70766   -70765   -70765 
  -70762   -70763   -70766   -70766   -70765   -70765   -70767   -70766 
  -70765   -70767   -70767   -70767   -70768   -70767   -70768   -70769 
  -70767   -70767   -70768   -70768   -70769   -70769   -70769   -70770 
  -70768   -70766   -70769   -70770   -70767   -70765   -70766   -70767 
  -70768   -70768   -70769   -70769   -70767   -70767   -70769   -70768 
  -70767   -70766   -70766   -70769   -70769   -70767   -70766   -70766 
  -70769   -70768   -70764   -70765   -70766   -70764   -70763   -70765 
  -70765   -70765   -70766   -70764   -70762   -70764   -70764   -70763 
  -70765   -70765   -70765   -70764   -70763   -70764   -70765   -70764 
  -70765   -70764   -70764   -70764   -70765   -70763   -70763   -70765 
  -70765   -70763   -70764   -70766   -70766   -70764   -70763   -70765 
  -70766   -70765   -70766   -70767   -70766   -70764   -70765   -70766 
  -70766   -70767   -70767   -70766   -70766   -70768   -70767   -70767 
  -70768   -70768   -70769   -70769   -70767   -70765   -70767   -70768 
  -70767   -70766   -70768   -70769   -70767   -70765   -70766   -70768 
  -70768   -70768   -70768   -70765   -70767   -70771   -70769   -70768 
  -70768   -70766   -70767   -70766   -70765   -70767   -70765   -70763 
  -70764   -70763   -70762   -70764   -70764   -70764   -70765   -70764 
  -70763   -70764   -70765   -70766   -70765   -70764   -70763   -70762 
  -70765   -70766   -70764   -70765   -70766   -70767   -70767   -70767 
  -70765   -70764   -70764   -70766   -70767   -70765   -70765   -70768 
  -70767   -70763   -70764   -70766   -70765   -70764   -70766   -70767 
  -70766   -70766   -70765   -70765   -70766   -70767   -70766   -70769 
  -70771   -70769   -70767   -70766   -70766   -70766   -70765   -70766 
  -70767   -70767   -70767   -70770   -70771   -70769   -70769   -70768 
  -70767   -70768   -70770   -70768   -70768   -70770   -70768   -70768 
  -70769   -70769   -70768   -70768   -70769   -70769   -70768   -70770 
  -70769   -70767   -70766   -70767   -70766   -70765   -70765   -70766 
  -70768   -70768   -70766   -70765   -70764   -70765   -70767   -70768 
  -70766   -70764   -70764   -70765   -70764   -70764   -70766   -70766 
  -70765   -70763   -70763   -70764   -70763   -70765   -70765   -70764 
  -70766   -70766   -70763   -70763   -70767   -70765   -70763   -70765 
  -70765   -70765   -70765   -70764   -70761   -70760   -70764   -70767 
  -70765   -70764   -70765   -70764   -70764   -70764   -70762   -70762 
  -70763   -70763   -70763   -70765   -70767   -70765   -70761   -70763 
  -70765   -70763   -70764   -70767   -70766   -70765   -70768   -70767 
  -70766   -70766   -70765   -70767   -70769   -70768   -70767   -70767 
  -70769   -70770   -70768   -70768   -70769   -70769   -70769   -70769 
  -70769   -70768   -70768   -70770   -70769   -70768   -70768   -70766 
  -70766   -70768   -70769   -70765   -70764   -70767   -70768   -70765 
  -70764   -70763   -70763   -70764   -70763   -70764   -70766   -70764 
  -70762   -70762   -70760   -70762   -70765   -70764   -70764   -70766 
  -70765   -70764   -70763   -70762   -70764   -70765   -70765   -70764 
  -70763   -70764   -70765   -70766   -70769   -70768   -70762   -70762 
  -70767   -70766   -70765   -70766   -70766   -70764   -70763   -70765 
  -70767   -70765   -70763   -70763   -70765   -70766   -70765   -70765 
  -70766   -70766   -70766   -70766   -70764   -70764   -70766   -70766 
  -70764   -70763   -70764   -70764   -70764   -70765   -70766   -70767 
  -70767   -70767   -70768   -70766   -70765   -70765   -70764   -70765 
  -70765   -70764   -70766   -70768   -70767   -70766   -70767   -70765 
  -70764   -70766   -70768   -70767   -70766   -70765   -70765   -70768 
  -70768   -70767   -70765   -70765   -70767   -70767   -70765   -70766 
  -70768   -70768   -70767   -70767   -70768   -70769   -70770   -70767 
  -70765   -70767   -70767   -70767   -70766   -70767   -70768   -70769 
  -70768   -70768   -70769   -70769   -70768   -70767   -70766   -70768 
  -70770   -70769   -70765   -70765   -70766   -70766   -70768   -70768 
  -70766   -70766   -70765   -70763   -70765   -70765   -70764   -70765 
  -70766   -70765   -70765   -70766   -70765   -70764   -70764   -70763 
  -70761   -70764   -70765   -70764   -70765   -70765   -70765   -70766 
  -70767   -70767   -70766   -70767   -70768   -70768   -70766   -70763 
  -70765   -70766   -70766   -70768   -70767   -70765   -70767   -70770 
  -70766   -70763   -70766   -70768   -70766   -70767   -70767   -70766 
  -70766   -70767   -70766   -70765   -70763   -70765   -70767   -70765 
  -70763   -70764   -70765   -70769   -70769   -70767   -70766   -70767 
  -70768   -70769   -70767   -70765   -70765   -70767   -70767   -70766 
  -70767   -70767   -70767   -70767   -70766   -70766   -70765   -70763 
  -70766   -70768   -70765   -70765   -70767   -70766   -70765   -70766 
  -70766   -70765   -70765   -70765   -70764   -70765   -70765   -70763 
  -70763   -70763   -70762   -70764   -70766   -70764   -70764   -70767 
  -70767   -70763   -70761   -70762   -70764   -70766   -70766   -70763 
  -70765   -70768   -70768   -70765   -70766   -70767   -70765   -70766 
  -70769   -70767   -70764   -70766   -70766   -70765   -70766   -70766 
  -70766   -70766   -70766   -70766   -70765   -70764   -70768   -70771 
  -70769   -70769   -70768   -70764   -70763   -70765   -70765   -70764 
  -70763   -70763   -70764   -70765   -70766   -70767   -70765   -70763 
  -70765   -70768   -70768   -70768   -70767   -70768   -70772   -70769 
  -70764   -70766   -70768   -70768   -70770   -70768   -70766   -70767 
  -70768   -70769   -70768   -70768   -70769   -70767   -70766   -70766 
  -70768   -70771   -70769   -70765   -70765   -70765   -70765   -70768 
  -70769   -70766   -70765   -70767   -70767   -70767   -70766   -70766 
  -70765   -70765   -70766   -70763   -70762   -70764   -70765   -70765 
  -70766   -70764   -70763   -70765   -70764   -70763   -70764   -70764 
  -70762   -70762   -70763   -70764   -70765   -70764   -70763   -70763 
  -70766   -70766   -70763   -70763   -70764   -70762   -70763   -70767 
  -70768   -70767   -70767   -70766   -70767   -70767   -70766   -70767 
  -70769   -70767   -70765   -70768   -70767   -70765   -70766   -70767 
  -70764   -70763   -70768   -70769   -70766   -70766   -70768   -70768 
  -70769   -70768   -70765   -70764   -70770   -70770   -70766   -70765 
  -70768   -70771   -70771   -70769   -70769   -70769   -70767   -70767 
  -70767   -70765   -70768   -70769   -70768   -70768   -70769   -70769 
  -70768   -70767   -70765   -70766   -70768   -70767   -70766   -70766 
  -70765   -70766   -70766   -70765   -70766   -70767   -70766   -70765 
  -70766   -70769   -70769   -70765   -70764   -70764   -70765   -70764 
  -70763   -70765   -70767   -70766   -70767   -70766   -70764   -70765 
  -70765   -70764   -70764   -70763   -70764   -70767   -70767   -70764 
  -70763   -70764   -70766   -70765   -70765   -70766   -70767   -70766 
  -70765   -70764   -70763   -70764   -70766   -70768   -70768   -70767 
  -70769   -70770   -70767   -70765   -70765   -70763   -70765   -70769 
  -70768   -70766   -70767   -70766   -70765   -70766   -70765   -70764 
  -70766   -70766   -70765   -70767   -70768   -70766   -70766   -70767 
  -70767   -70768   -70768   -70767   -70766   -70767   -70766   -70764 
  -70766   -70766   -70765   -70767   -70768   -70765   -70764   -70766 
  -70768   -70768   -70766   -70765   -70767   -70769   -70771   -70771 
  -70771   -70770   -70768   -70767   -70767   -70769   -70772   -70771 
  -70769   -70768   -70769   -70769   -70768   -70768   -70770   -70769 
  -70768   -70768   -70767   -70767   -70768   -70768   -70767   -70767 
  -70767   -70766   -70764   -70765   -70768   -70767   -70765   -70766 
  -70767   -70769   -70768   -70767   -70769   -70771   -70773   -70772 
  -70772   -70776   -70782   -70787   -70795   -70802   -70810   -70822 
  -70841   -70867   -70895   -70923   -70951   -70975   -70998   -71020 
  -71045   -71067   -71082   -71101   -71125   -71153   -71194   -71246 
  -71298   -71343   -71373   -71381   -71381   -71363   -71316   -71259 
  -71184   -71076   -70964   -70882   -70820   -70772   -70728   -70661 
  -70546   -70387   -70218   -70048   -69849   -69658   -69545   -69475 
  -69413   -69409   -69424   -69324   -69136   -69036   -68977   -68752 
  -68461   -68327   -68380   -68638   -69157   -69802   -70324   -70723 
  -71111   -71372   -71512   -71670   -71639   -71362   -71183   -71230 
  -71513   -72044   -72435   -72451   -72451   -72716   -73121   -73327 
  -72994   -72230   -71668   -71726   -72028   -71928   -71515   -71368 
  -71548   -71765   -71734   -71190   -70585   -70638   -71021   -71082 
  -70877   -70790   -71021   -71432   -71590   -71200   -70734   -70844 
  -71170   -71050   -70610   -70310   -70269   -70300   -70331   -70348 
  -70293   -70371   -70554   -70507   -70416   -70410   -70176   -69792 
  -69497   -69341   -69540   -70071   -70444   -70474   -70513   -70898 
  -71557   -72046   -72021   -71761   -71892   -72427   -72763   -72750 
  -72742   -73001   -73652   -74332   -74471   -74260   -74018   -73577 
  -72957   -72239   -71452   -70995   -70927   -70540   -69512   -68437 
  -67835   -67525   -67109   -66462   -65786   -65462   -65498   -65371 
  -64771   -64057   -63753   -63814   -63916   -64279   -65129   -66123 
  -67060   -67817   -68239   -68709   -69379   -69754   -69780   -69853 
  -70116   -70667   -71855   -73401   -74121   -73984   -74238   -75049 
  -75495   -75004   -73908   -73018   -72744   -72947   -72949   -72441 
  -72431   -73323   -74096   -74368   -74442   -74358   -74391   -74530 
  -74190   -73544   -73061   -72584   -72200   -71925   -71508   -71442 
  -72128   -72834   -72715   -72111   -71715   -71289   -70660   -69926 
  -68836   -67658   -66985   -67101   -67794   -68294   -68349   -68397 
  -68700   -68938   -68597   -68232   -68628   -69370   -70138   -71034 
  -71621   -71846   -72503   -73569   -73871   -73398   -73305   -73406 
  -73127   -73007   -72842   -72012   -71582   -72348   -72920   -72259 
  -71039   -69915   -69226   -69116   -69275   -69421   -69143   -68635 
  -69055   -70093   -70221   -69630   -69678   -70632   -71709   -72242 
  -71877   -70661   -69332   -68517   -68481   -69355   -70515   -71386 
  -72367   -73402   -73625   -72863   -71427   -69671   -68615   -68712 
  -69322   -70375   -71606   -71933   -71520   -71322   -71388   -71450 
  -71264   -70493   -69284   -68262   -67832   -68440   -70410   -72278 
  -72650   -72849   -73620   -73566   -72322   -70460   -68395   -67408 
  -68198   -69235   -69537   -70016   -70790   -71203   -71501   -71689 
  -70893   -69261   -68246   -68024   -67564   -66968   -66906   -67369 
  -68178   -69583   -71421   -72610   -72966   -72986   -72350   -71137 
  -70087   -69791   -70407   -71239   -71793   -72125   -72072   -71919 
  -72294   -72934   -72985   -72273   -71301   -70312   -69398   -68785 
  -68443   -68456   -69238   -70746   -72351   -73563   -74399   -74730 
  -74172   -73111   -72333   -71973   -71870   -71865   -71668   -71434 
  -71749   -72393   -72394   -71465   -69870   -67877   -66347   -66135 
  -66902   -67874   -68869   -69851   -70579   -70987   -71123   -70826 
  -70181   -69791   -69813   -69952   -70203   -70426   -70666   -71470 
  -72590   -73249   -73315   -72681   -71423   -70576   -70621   -70735 
  -70700   -70945   -71159   -71202   -71522   -71980   -72133   -72077 
  -72110   -72257   -72248   -71771   -71013   -70451   -70170   -70033 
  -69986   -70174   -70654   -70965   -70941   -70874   -70597   -69982 
  -69201   -68375   -68019   -68507   -69389   -70190   -70730   -70946 
  -71181   -71698   -72028   -71702   -71062   -70640   -70387   -70193 
  -70454   -71146   -71584   -71643   -71587   -71313   -70879   -70362 
  -69559   -68830   -68632   -68535   -68536   -69393   -70799   -71908 
  -72680   -72927   -72445   -71915   -71682   -71361   -71036   -70993 
  -71006   -70870   -70681   -70399   -70079   -70131   -70502   -70638 
  -70619   -70860   -71083   -70924   -70687   -70711   -70692   -70243 
  -69728   -69729   -70276   -71036   -71562   -71707   -71695   -71543 
  -71038   -70399   -70273   -70523   -70390   -69843   -69431   -69684 
  -70555   -71284   -71368   -70974   -70598   -70526   -70491   -70247 
  -70094   -70331   -70787   -71202   -71285   -70771   -70141   -70265 
  -71074   -71590   -71432   -71267   -71328   -71269   -71229   -71203 
  -71026   -71137   -71544   -71707   -71596   -71444   -71363   -71223 
  -70926   -70807   -70937   -71028   -71113   -71179   -71137   -71155 
  -71251   -71330   -71437   -71453   -71203   -70741   -70260   -70148 
  -70590   -71175   -71476   -71423   -71355   -71514   -71536   -71388 
  -71253   -70900   -70334   -69799   -69682   -70074   -70444   -70803 
  -71226   -71053   -70118   -68986   -68256   -68207   -68589   -69013 
  -69598   -70723   -72047   -72638   -72160   -71244   -70629   -70163 
  -69516   -69220   -69605   -70100   -70278   -70368   -70591   -70684 
  -70228   -69301   -68710   -68909   -69224   -69259   -69542   -70217 
  -70965   -71719   -72218   -72070   -71857   -72336   -72702   -72045 
  -71186   -70913   -70825   -70678   -70400   -69889   -69660   -69947 
  -70192   -70167   -70136   -70174   -70269   -70571   -70970   -71032 
  -70787   -70780   -71099   -71415   -71793   -72293   -72558   -72406 
  -72027   -71789   -71846   -71868   -71654   -71189   -70537   -70275 
  -70559   -70706   -70484   -70218   -70071   -70047   -70232   -70807 
  -71570   -71859   -71398   -70588   -69988   -69929   -70304   -70718 
  -71099   -71612   -72129   -72541   -72925   -73046   -72668   -72078 
  -71567   -71124   -70797   -70743   -71033   -71374   -71335   -70972 
  -70473   -70043   -69982   -70034   -70012   -70214   -70385   -70160 
  -69869   -69643   -69208   -68851   -68961   -69142   -69190   -69484 
  -69915   -70313   -70869   -71151   -70806   -70514   -70724   -71096 
  -71480   -71926   -72079   -71871   -71924   -72347   -72632   -72497 
  -71988   -71449   -71093   -70916   -70846   -70600   -70309   -70247 
  -70120   -69891   -69668   -69151   -68637   -68718   -69036   -69102 
  -69155   -69464   -69833   -70036   -70168   -70239   -70159   -70094 
  -70173   -70499   -71013   -71387   -71849   -72635   -73173   -73026 
  -72438   -71866   -71344   -70696   -70209   -70136   -70433   -70950 
  -71208   -71118   -71134   -71094   -70534   -69675   -69055   -68870 
  -69022   -69472   -69976   -70205   -70389   -70731   -71085   -71383 
  -71297   -70759   -70409   -70315   -70144   -70101   -70213   -70379 
  -70822   -71402   -71800   -71991   -71945   -71668   -71395   -71390 
  -71469   -71372   -71370   -71459   -71384   -71414   -71755   -72342 
  -72883   -72966   -72844   -72640   -71912   -71102   -70856   -70815 
  -70842   -71308   -71931   -72172   -72195   -72186   -71832   -71254 
  -70942   -70752   -70446   -70366   -70482   -70369   -70273   -70441 
  -70411   -69825   -69019   -68621   -68502   -68235   -68022   -67916 
  -67912   -68229   -68826   -69584   -69812   -69102   -68637   -69071 
