Origin Time       2019/01/26 17:23:00
Lat.              40.280
Long.             142.327
Depth. (km)       38
Mag.              5.6
Station Code      AOMH11
Station Lat.      40.58
Station Long.     140.995
Station Height(m) 140
Record Time       2019/01/26 17:23:20
Sampling Freq(Hz) 100Hz
Duration Time(s)  120
Dir.              3
Scale Factor      2940(gal)/6170270
Max. Acc. (gal)   2.475
Last Correction   2019/01/26 17:23:05
Memo.             
[...]
   77156    78657    79251    78901    77825    76865    77399    78910 
   79759    79925    79690    78575    77417    77437    77881    77744 
   77591    77915    78196    78164    77935    77567    77378    77443 
   77276    76876    76573    76116    75719    76111    76974    77537 
   77506    76878    76364    76797    77729    78316    78637    78515 
   77474    76788    77366    77810    77830    78015    77921    77816 
   77746    77253    77038    77129    76822    76476    76654    77171 
   77114    76105    75354    75705    76152    75908    75969    76792 
   77281    77104    77102    77898    78873    78811    77881    76950 
   76465    77405    79652    80735    79542    77771    77065    77790 
   78932    78864    77529    76401    76351    76649    76448    76519 
   77476    78171    78260    78604    78900    78425    77143    75656 
   75009    75265    75762    76478    77323    77951    78136    77374 
   76114    75849    76748    77860    78556    78564    78330    78672 
   79487    79646    78666    77719    77640    77855    77733    76997 
   76225    76358    76916    77201    77639    78249    78276    77736 
   77215    76698    75991    75310    75091    75495    75972    76162 
   76739    78001    78799    78395    77739    77304    76609    76332 
   77015    77557    77513    77338    76770    76221    76683    77344 
   77320    77339    77595    77489    76894    76497    77283    78403 
   78122    77217    77022    77065    77472    78721    79525    78797 
   77418    76793    77160    77764    78102    78199    78296    78530 
   78360    77397    76541    76884    78060    78738    78485    77922 
   77296    76567    76326    76762    77158    77344    77359    76851 
   76332    76642    77725    78651    78390    77642    77656    77849 
   77536    76940    76319    76113    76356    76512    76494    76728 
   77367    77827    77574    76803    75987    75763    76380    77065 
   77299    77494    77889    78192    78123    77633    77159    77371 
   78008    78335    78319    78230    78458    78958    78808    77867 
   77011    76575    76616    77202    77864    78216    78197    77801 
   77470    77420    77149    76802    77323    78583    79098    78130 
   76589    75648    75690    76514    77665    78575    78976    78756 
   78050    77699    77809    77574    76939    76079    75316    75507 
   76423    76965    76944    76908    77076    77108    76809    76550 
   76796    77343    77368    76855    76684    77136    77945    78928 
   79676    79462    78333    77486    77577    78097    78486    78620 
   78676    78517    77765    76917    76654    76619    76605    76862 
   76792    76106    75887    76449    76785    76745    76728    76443 
   76040    76017    76315    76874    77430    77567    77397    77256 
   77428    77922    78514    78895    78530    77688    77509    77991 
   78096    77706    77417    77181    76772    76664    77243    77876 
   77808    77250    76696    76304    76286    76844    77566    77676 
   77190    76689    76444    76639    77032    77116    77117    77432 
   77824    77986    78035    78097    78140    78318    78454    78041 
   77499    77479    77700    77994    78153    77621    76959    77051 
   77439    77338    76873    76750    77133    77247    76662    75912 
   75604    76027    76783    77118    76965    76605    76621    77360 
   77873    77908    78222    78379    78147    78145    78150    78104 
   78292    78263    78020    78076    78200    77953    77692    78069 
   78667    78599    78043    77597    77456    77541    77691    77749 
   77481    77148    76980    76683    76693    77179    77327    77299 
   77456    77244    76817    76768    77024    77327    77359    76975 
   76454    76219    76603    77273    77449    77003    76625    77010 
   77884    78095    77251    76638    77201    77949    77931    77599 
   77284    76840    76790    77600    78540    78765    78490    78092 
   77633    77520    77714    77827    78116    78217    77796    77801 
   78347    78452    77863    77427    77829    78070    77366    76741 
   76687    76843    77114    77205    76987    76570    76101    76028 
   76239    76236    76229    76256    76103    76365    77070    77290 
   76987    76729    76740    76990    77274    77526    77599    77074 
   76332    76647    77925    78671    78803    78828    78073    76747 
   76149    76459    76916    77132    77178    77230    77433    77586 
   77344    76918    76610    76397    76674    77630    78421    78437 
   77916    77589    77938    78074    77443    77210    77790    78197 
   78166    78074    77717    77190    77230    77723    77835    77291 
   76615    76422    76499    76635    77288    78136    78307    77974 
   77611    77176    77030    77564    78217    78404    78253    78042 
   77993    78013    77868    77965    78338    78323    78102    77930 
   77276    76346    76006    76196    76443    76889    77348    77441 
   77567    77657    76922    75661    75383    76618    77865    77999 
   77920    78302    78377    77766    77257    77476    77946    77896 
   77344    76806    76511    76378    76587    77443    78451    78740 
   78232    77330    76505    76347    76765    77206    77484    77318 
   76665    76269    76740    77603    77829    77409    76983    76720 
   76753    76950    76950    76797    76609    76914    77900    78427 
   78042    77395    76809    76556    76720    77126    77691    78147 
   78469    78657    78352    77889    77867    77946    77700    77285 
   76918    76727    76816    77259    77833    78305    78861    78912 
   77697    76428    76543    77397    77830    77913    77932    77562 
   77159    77454    77763    77130    76166    76015    76693    77397 
   77726    77747    77465    76969    76610    76638    76870    77086 
   77203    77093    77001    77242    77744    78432    78815    78467 
   78158    78302    78257    77884    77314    76765    76961    77774 
   78219    77981    77495    77348    77778    78414    78583    78201 
   77908    77675    77082    76627    76741    77114    77352    77090 
   76629    76813    77372    77263    76562    76409    77164    77760 
   77542    77190    77063    76677    76251    76548    77276    77895 
   78374    78219    77425    77069    77476    78147    78905    79332 
   78782    77698    76864    76104    75592    76012    76964    77649 
   77739    77298    77128    77509    77586    77201    76690    75884 
   75234    75413    76254    77444    78419    78623    78522    78450 
   77942    77328    77548    78169    78142    77429    76208    75191 
   75603    76941    77972    78105    76893    75556    75743    76798 
   77638    77946    77612    77117    76813    76880    77555    78033 
   77611    77041    76872    76743    76842    77609    78238    78048 
   77787    77756    77580    77402    77333    77612    78333    78577 
   78094    77637    77286    77247    77614    77459    77202    77892 
   78508    78347    77849    76858    76209    76948    77993    78333 
   78075    77379    76978    77399    77897    77793    77290    76703 
   76280    76190    76494    77400    78185    77624    76343    75593 
   75616    76535    77674    77926    77728    77755    77640    77217 
   76885    76972    77407    78028    78607    78488    77655    76973 
   76754    76979    77763    78840    79500    78918    77545    76943 
   77243    77632    77906    77700    76994    76663    76998    77331 
   77118    76600    76623    77413    78051    78037    78013    78327 
   78491    78231    77850    77577    77328    77018    76625    76352 
   76602    77324    78102    78308    77397    76144    75686    76059 
   76725    76910    76658    76811    77117    77289    77825    78326 
   78250    77968    77746    77416    76920    76658    77029    77815 
   78498    78807    78822    78428    77489    76815    77090    77545 
   77527    77703    78532    79172    78679    77502    76785    76629 
   76754    77233    77454    77022    76613    76716    77409    78185 
   77976    77069    76601    76390    76259    76677    77005    76706 
   76569    76954    77356    77451    77415    77562    78049    78649 
   78458    77262    76314    76375    77000    77563    77746    77570 
   77025    76407    76627    77766    78614    78403    77712    77555 
   77910    77929    77709    77670    77376    76803    76148    75528 
   75862    77302    78646    79263    79277    78610    77698    77486 
   77505    77165    77188    77120    76526    76715    77500    77726 
   77909    78151    77746    77067    76473    75928    75796    75952 
   76094    76414    76821    77012    77040    77121    77201    77114 
   77136    77544    77817    77547    77266    77513    78353    79178 
   78944    78063    77641    77394    77251    77821    78690    78936 
   78321    77787    78043    78253    78113    77986    77612    77383 
   77428    76708    75590    75388    75822    76221    76438    75795 
   74500    74350    75816    77501    78352    78125    77284    76772 
   76910    77268    77484    77442    77218    77196    77449    77356 
   76921    76936    77186    77076    77038    77295    77589    77969 
   78182    77584    76079    74876    75193    76348    77358    78297 
   78831    78707    78933    80018    81021    81109    80226    78866 
   77855    77403    77011    76605    76635    77452    78968    80212 
   79987    78510    77396    77306    77101    76315    75873    76078 
   76519    77112    77789    78329    78643    78441    77457    76313 
   76065    76978    77951    77660    76807    76893    77204    76656 
   76078    76063    76157    76481    77269    77941    78065    77828 
   77190    76259    76032    76862    77558    77372    77115    77918 
   79507    80023    78588    76470    74839    74021    74157    75197 
   76922    78504    79234    79292    78932    78482    77994    77201 
   76585    76424    76227    75871    75514    75112    74840    75282 
   76547    77782    78581    79317    79456    78716    78554    79081 
   78609    77433    76895    76689    76451    76412    76363    76216 
   75957    75890    76946    78939    80270    79928    78362    76680 
   75700    75509    75696    76180    77131    78085    78484    78630 
   78608    77918    76762    75648    75006    75441    76661    77353 
   76565    74681    73181    72997    73619    74688    76550    78594 
   80005    80995    81235    80121    78263    76540    75491    75581 
   76724    78122    78833    78580    77855    77280    77314    78010 
   78821    79102    78983    78995    78502    77006    76024    76331 
   76879    77631    79077    80488    81100    81187    81243    81005 
   80494    80527    80520    79027    76837    75819    76339    77740 
   79096    79669    79262    78066    76974    76816    77002    76401 
   75183    74401    74254    74470    75269    76637    78165    79538 
   80393    80276    79004    77202    75895    75419    75648    76431 
   77443    78340    78595    77862    76830    76102    75371    74924 
   75272    75567    75367    75763    76910    78015    79086    79408 
   77974    76073    75194    75041    75115    75386    76205    77709 
   79556    81280    81609    80146    78783    78802    79384    79112 
   77968    77059    76142    75050    75121    76061    76143    75655 
   76243    77720    78511    78765    79283    79203    78116    76857 
   76036    76033    76166    75718    76316    78645    80433    80719 
   79989    78055    76137    75605    75309    74477    74210    74952 
   75847    76330    76760    77631    78761    79519    79427    78320 
   76964    76530    76545    76135    75959    76051    75660    75479 
   76160    77225    78238    78618    78264    78040    78329    78566 
   78218    77903    78300    78453    77567    76090    74881    75022 
   76396    78083    79810    80888    81051    80696    79511    78315 
   78049    77543    76801    77084    77617    77589    77475    77031 
   76120    75708    76316    77220    77334    76467    75416    75420 
   77092    78701    78301    76980    76234    75668    75004    74380 
   74037    74653    76071    77753    79521    80471    80391    79989 
   79020    77939    77883    78615    79423    79430    78464    77837 
   77723    77619    78086    78931    79581    79650    78348    76738 
   76530    76575    75408    74250    74721    76256    77555    78776 
   79769    78964    76538    74328    72939    72761    74309    76630 
   78175    78093    76923    75950    75199    74827    76253    78716 
   79774    79360    78418    77338    76971    77170    77408    78509 
   79881    79720    78478    77295    76271    75886    76386    77234 
   78036    78268    77818    77705    78268    78245    77337    77432 
   79221    80651    80539    79822    78843    77381    76179    75428 
   74626    74669    76013    77163    77424    77179    76456    75814 
   76316    77847    78895    78280    76638    75895    76709    77528 
   77773    78694    79796    79582    78768    78012    77065    76898 
   77337    77141    77187    78065    78549    78190    77591    77241 
   77230    77371    77255    76475    75373    74967    75916    77745 
   79273    79978    80117    79909    79331    78374    77510    76959 
   76095    75447    76259    77460    77716    77957    78604    78357 
   76326    73538    72188    72621    73502    74468    75118    75023 
   75393    76778    77849    77771    77317    77523    77855    77675 
   77817    78178    78000    77826    77690    77010    76306    76159 
   76773    78031    78450    77507    77238    78376    79406    80095 
   81243    81783    80693    79702    79563    78450    76584    75630 
   75223    75308    76593    77885    78208    78290    78363    78328 
   78179    77370    76204    75571    75285    75335    75978    76602 
   77198    78002    78213    78121    78581    78288    76368    74606 
   74779    76650    78346    78951    79558    80256    80031    78885 
   77480    76925    77472    77520    76465    75597    75567    75775 
   75682    75568    75900    76661    77885    79450    80511    80219 
   78551    76555    75384    74988    75112    76237    77846    78275 
   77514    77232    77816    78339    78753    79132    78669    77833 
   78103    78965    79091    78789    78785    78900    78733    78293 
   77944    77929    77756    76977    76388    76924    78264    79103 
   78468    77073    76283    76113    76053    76307    76900    76918 
   75873    75018    75157    75240    74973    75299    76213    76889 
   76961    76657    76502    76779    76963    76851    77412    78507 
   78725    78415    78521    78530    78513    78817    78636    77877 
   77121    76118    75045    74969    75798    76402    76690    77135 
   77541    77559    77058    76365    76401    77508    78860    79793 
   80391    80368    79291    78059    77634    77498    77298    77061 
   76490    76073    76298    76802    77158    77073    77105    77998 
   78839    78651    78350    78811    79251    78741    77324    75757 
   75186    75883    77073    78424    79431    79210    78430    78007 
   77608    77483    77995    78422    78268    77515    76500    76152 
   76743    77529    78022    78167    77977    77592    77253    77247 
   77207    76713    76568    76957    77097    76951    76289    75164 
   74636    74740    75008    75682    76335    76369    76399    76855 
   77166    77188    77170    76833    76265    76085    76167    75996 
   75827    76273    77215    78009    78458    78694    78824    78956 
   79016    78775    77996    76930    76400    76642    77177    77565 
   77560    77400    77430    77694    78051    78265    78592    79041 
   78793    77894    77286    77260    77473    77857    78501    78925 
   78959    79021    79113    79483    80208    80213    78991    77366 
   76350    76378    76692    76437    76085    75958    75871    76218 
   76933    77442    77607    77666    77886    77872    77339    76767 
   76469    76619    77169    77589    77659    77694    78021    78605 
   78912    78365    77399    77005    77150    77170    76922    76664 
   76860    77725    78376    78165    77946    77944    77545    77439 
   78213    78810    78369    77335    76476    76179    76475    76901 
   76990    76886    76516    75913    76019    76758    76990    76829 
   76853    77003    77276    77410    77057    76700    76675    76645 
   76732    77055    77174    77109    77228    77567    77913    78047 
   78102    78207    78190    78073    77788    77136    76527    76518 
   76840    76811    76358    75930    75897    76351    76989    77338 
   77273    77061    76937    76813    76582    76308    75999    75832 
   76140    76916    77812    78389    78451    78104    77471    76934 
   76928    77449    78260    78800    78711    78441    78027    77162 
   76354    76116    76330    76560    76256    75623    75572    76162 
   76700    76975    77252    77667    77992    78121    78187    78133 
   78151    78458    78554    78220    77990    77891    77655    77707 
   78157    78395    78444    78782    79305    79362    78536    77807 
   78361    79297    79428    79224    79085    78719    78243    78114 
   78514    79122    79223    78545    77598    76651    75952    76146 
   76855    77281    77644    77879    77585    77251    77053    76538 
   76037    76023    76348    77058    77888    78121    77785    77079 
   76092    75613    76183    77092    77447    77533    77778    77479 
   76564    76263    76892    77568    77764    77507    76988    76466 
   76144    76276    76855    77515    78054    78166    77392    76058 
   75371    75746    76216    76273    76023    75590    75755    76573 
   77030    77186    77535    77728    77527    76972    76324    76341 
   77087    77618    77661    77681    77770    77995    78485    78716 
   78412    78266    78409    78228    77991    77973    77604    77081 
   77005    77245    77745    78333    78443    78164    77883    77488 
   77059    76862    76656    76306    76255    76512    76532    76303 
   76205    76418    77065    77893    78280    78310    78514    78556 
   78023    77439    77276    77601    78309    79081    79808    80088 
   79405    78581    78673    79227    79383    79109    78582    77824 
   77288    77328    77422    77170    76980    76994    76700    76036 
   75820    76542    77454    77592    77046    76413    75974    75819 
   76124    77002    77750    77649    77363    77306    77029    76886 
   77082    77149    77235    77396    77191    76590    75867    75565 
   76188    77121    77371    77206    77303    77469    77542    77685 
   77673    77501    77483    77584    77518    77029    76442    76291 
   76459    76820    77307    77394    76922    76433    76282    76320 
   76332    76386    76566    76761    76874    76682    76218    76091 
   76530    77134    77519    77570    77349    77020    77113    77735 
   77915    77448    77321    77776    78243    78506    78784    79097 
   79235    79368    79446    79069    78641    78511    78281    77979 
   77752    77578    77822    78428    78694    78446    78206    78229 
