Origin Time       2019/01/18 21:46:00
Lat.              35.920
Long.             140.432
Depth. (km)       54
Mag.              5.3
Station Code      CHBH06
Station Lat.      35.7215
Station Long.     140.5046
Station Height(m) -145
Record Time       2019/01/18 21:46:34
Sampling Freq(Hz) 100Hz
Duration Time(s)  150
Dir.              3
Scale Factor      3923(gal)/8224838
Max. Acc. (gal)   2.523
Last Correction   2019/01/18 21:46:19
Memo.             
[...]
      17       17       14       13       16       14       16       18 
      18       18       21       18       16       18       22       18 
      14       16       18       18       17       17       20       21 
      17       16       18       20       18       18       17       17 
      20       20       17       17       16       17       20       16 
      14       18       18       18       17       17       18       17 
      17       20       20       21       21       17       16       16 
      14       14       18       21       21       18       18       21 
      22       20       17       16       14       12       14       18 
      18       18       17       17       18       18       18       17 
      14       16       20       20       17       17       17       16 
      17       20       18       18       20       17       18       17 
      12       13       18       17       17       17       14       17 
      20       17       16       17       17       17       16       16 
      16       16       14       14       16       16       16       20 
      18       16       17       16       14       14       13       14 
      17       16       16       18       17       16       16       13 
      12       16       17       17       17       14       14       16 
      13        8       13       18       16       16       17       12 
      12       16       13       14       16       16       17       17 
      16       17       16       13       14       14       13       17 
      18       16       14       13       13       14       16       16 
      14       14       14       13       13       14       14       16 
      18       14       12       14       14       14       17       16 
      13       14       17       18       17       17       16       17 
      18       17       16       16       16       16       18       20 
      17       16       17       17       17       16       17       17 
      17       16       16       20       22       18       17       18 
      18       21       21       20       20       20       20       20 
      20       20       18       17       17       18       20       20 
      20       16       14       17       18       17       20       21 
      21       21       20       21       20       16       17       22 
      21       20       24       21       17       18       18       16 
      17       18       18       17       20       20       17       18 
      18       17       18       20       20       20       20       20 
      18       18       21       18       16       18       22       21 
      16       16       17       16       18       20       16       16 
      20       21       17       18       17       13       16       18 
      17       17       16       18       20       18       20       17 
      16       17       16       16       18       18       18       18 
      17       16       18       18       16       17       18       17 
      20       18       17       20       18       13       17       20 
      18       17       17       16       16       17       20       21 
      20       16       17       20       18       16       18       18 
      14       16       18       17       14       16       18       18 
      18       17       17       14       10       12       17       17 
      14       14       18       20       18       16       16       17 
      16       17       16       16       17       16       16       16 
      16       17       16       13       13       14       17       20 
      17       17       17       14       16       17       17       17 
      16       17       17       17       17       17       20       20 
      17       16       17       17       16       16       17       17 
      17       18       17       14       16       17       17       18 
      20       17       18       21       20       20       20       18 
      17       20       20       14       14       17       18       21 
      20       17       21       20       17       17       14       16 
      20       17       13       16       18       17       16       18 
      17       16       16       18       17       12       14       17 
      17       20       17       13       16       17       16       16 
      17       16       14       14       13       16       17       16 
      13       13       14       14       16       17       17       16 
      13       12       17       20       18       14       13       16 
      14       10       10       14       16       13        9       13 
      13       10       16       16       12       13       16       17 
      20       18       17       22       22       17       17       20 
      20       20       21       18       17       18       18       17 
      20       18       13       14       17       17       18       20 
      20       20       21       24       24       20       21       27 
      25       18       17       18       17       21       22       18 
      18       24       24       20       17       17       20       21 
      18       16       18       20       18       22       25       21 
      20       21       22       20       17       17       18       20 
      20       17       20       21       17       16       18       17 
      16       16       13       14       18       18       18       16 
      12       14       17       14       17       14       12       14 
      17       16       16       14       14       16       14       14 
      14       17       18       18       17       17       17       16 
      14       14       16       16       14       12       12       13 
      16       12       10       14       16       17       14       10 
      13       14       13       16       14       16       17       16 
      16       20       18       17       16       13       14       20 
      20       16       17       20       14       10       12       14 
      13       12       10       12       13       14       16       18 
      18       18       18       16       16       18       20       21 
      20       18       21       22       20       20       20       20 
      21       20       17       18       17       14       16       17 
      20       21       17       17       21       21       21       21 
      18       17       18       18       21       24       27       27 
      21       18       22       27       27       22       18       16 
      17       20       24       22       17       18       22       25 
      22       18       20       21       21       20       21       21 
      18       18       22       22       18       18       18       18 
      21       22       20       16       17       18       17       18 
      20       18       21       24       21       18       20       22 
      21       20       20       16       16       20       18       16 
      18       20       16       14       17       17       13       10 
      12       16       16       13       14       17       14       13 
      14       21       22       17       12       13       16       16 
      17       16       12       12       17       20       17       17 
      16       14       16       16       14       12       13       18 
      17       14       16       17       16       14       13       17 
      17       14       14       18       16       12       13       16 
      17       17       16       17       18       14       14       17 
      16       14       16       16       14       16       18       17 
      17       18       17       14       13       13       17       21 
      21       16       13       16       18       14       13       17 
      20       18       18       17       14       14       17       18 
      16       14       17       17       17       17       16       16 
      17       17       18       18       17       14       14       18 
      20       20       21       17       18       21       20       16 
      16       17       17       14       16       16       13       12 
      12       10       13       14       14       14       14       12 
      12       17       20       14       13       18       20       17 
      16       17       17       17       20       18       17       20 
      20       16       16       17       16       16       14       14 
      16       14       16       16       14       14       14       17 
      16       14       17       20       18       18       17       17 
      18       18       18       18       14       13       18       21 
      18       17       20       20       13       12       16       17 
      13       13       13       13       16       14       12       14 
      16       16       16       14       13       18       20       17 
      18       21       20       16       12       14       20       17 
      12       14       20       18       16       18       17       13 
      17       21       17       17       21       20       17       18 
      18       16       17       20       17       17       20       18 
      17       17       18       22       22       17       17       20 
      20       20       20       18       21       22       21       20 
      18       20       22       21       20       18       20       21 
      17       17       20       18       21       20       17       18 
      21       21       18       18       22       25       21       14 
      17       20       20       20       21       17       16       20 
      21       18       16       18       21       20       20       24 
      22       20       20       18       21       21       17       18 
      21       21       20       18       16       17       21       18 
      17       21       21       18       21       22       18       20 
      21       20       21       20       16       17       20       21 
      20       20       17       18       20       17       14       14 
      14       18       20       17       20       20       16       14 
      16       17       17       16       18       20       18       17 
      16       14       18       17       14       17       20       14 
      13       17       17       17       17       16       14       14 
      14       17       20       17       14       14       14       16 
      16       13       14       18       18       13       13       16 
      14       14       13        9       12       17       14       12 
      16       16       12       12       14       12       10       13 
      14       17       14       12       12       13        9        9 
      14       16       13       13       12       12       14       12 
      12       14       13       12        9       12       16       14 
      13       14       13       10       10       14       14       13 
      16       17       16       14       13       13       13       13 
      14       13       12       12       13       14       16       14 
      17       17       12       13       13       12       12       13 
      16       16       14       14       16       16       14       14 
      14       14       13       16       16       16       20       20 
      14       13       17       16       14       18       14       12 
      16       17       16       17       20       18       17       18 
      17       16       17       16       16       17       17       16 
      16       16       14       17       20       16       16       20 
      18       18       20       17       17       20       21       20 
      20       22       20       17       16       21       25       21 
      18       24       22       21       24       22       20       17 
      18       25       24       21       22       20       18       24 
      21       18       21       24       24       24       21       21 
      21       21       24       24       24       21       22       27 
      21       17       21       24       24       25       29       31 
      25       20       24       22       20       24       22       17 
      20       20       24       25       21       24       25       20 
      20       24       24       27       27       24       27       31 
      32       37       44       47       51       56       63       71 
      79       86       91      109      136      167      209      259 
     313      382      461      530      583      603      568      499 
     426      346      267      203      189      268      433      633 
     832     1015     1175     1312     1383     1344     1192      950 
     649      317      -45     -449     -832    -1055     -953     -427 
     352      957     1100      859      396     -178     -631     -811 
    -835     -753     -414       89      369      199     -372    -1097 
   -1572    -1471     -801       22      465      414       47     -545 
   -1146    -1479    -1629    -1818    -1981    -1929    -1651    -1308 
   -1127    -1216    -1336    -1173     -747     -301      -33       44 
     116      245      338      348      157     -292     -750    -1030 
   -1174    -1237    -1391    -1718    -1836    -1339     -324      797 
    1530     1564     1158      819      754      908     1080      938 
     388     -224     -589     -741     -816     -965    -1155    -1011 
    -349      467     1016     1171      904      247     -425     -610 
    -234      356      831     1165     1615     2201     2583     2687 
    2712     2619     2265     1633      723     -334    -1460    -2897 
   -4453    -5271    -4932    -3659    -1819        0     1429     2678 
    3685     3955     3457     2602     1622      658       -1     -244 
    -324     -479     -587     -298      438     1213     1669     1671 
    1112      261     -371     -672     -824    -1067    -1506    -1849 
   -1875    -1694    -1282     -616       70      785     1783     2766 
    3055     2539     1530      383     -355     -513     -494     -421 
     -81      490     1031     1318     1154      406     -693    -1671 
   -2281    -2465    -2118    -1277     -221      611      855      627 
     373      318      407      608      924     1200     1264     1101 
     702      222       -1       20      -59     -410     -820     -939 
    -621        0      495      361     -332     -922     -926     -430 
     167      552      626      434      225      307      557      522 
      82     -480     -951    -1216    -1111     -792     -691     -797 
    -710     -240      484     1237     1780     1923     1664     1170 
     556     -218    -1138    -1917    -2187    -1795     -881      164 
     812      746      216     -186     -172       94      395      560 
     427       66     -322     -749    -1251    -1564    -1372     -656 
     398     1483     2154     2103     1424      495     -202     -326 
     -14      211       60     -197     -178       52      156       12 
    -278     -564     -639     -434     -184     -171     -359     -504 
    -473     -197      309      773      935      916      984     1125 
    1121      942      648      129     -619    -1247    -1445    -1297 
    -986     -560     -166      -95     -414     -892    -1248    -1206 
    -591      426     1377     1925     2033     1649      693     -521 
   -1463    -1958    -2120    -1981    -1528     -919     -460     -278 
    -168      113      573     1016     1240     1244     1192     1151 
     943      379     -365     -862     -986     -953     -808     -400 
     167      558      600      318     -191     -689     -915     -855 
    -657     -336      112      446      429      162       63      517 
    1444     2324     2635     2219     1328      325     -554    -1178 
   -1485    -1467    -1223     -949     -696     -367       31      386 
     579      567      531      664      967     1352     1588     1453 
    1031      479     -211     -911    -1235    -1075     -749     -459 
    -164      101      178      -40     -477     -904    -1173    -1323 
   -1408    -1406    -1250     -824     -206      318      687     1015 
    1212     1174     1000      777      583      487      410      249 
     -17     -356     -625     -831    -1134    -1449    -1610    -1541 
   -1050      -45     1148     2054     2350     2025     1379      723 
     109     -529    -1104    -1371    -1178     -616       12      418 
     602      676      654      672      819      903      738      310 
    -190     -449     -463     -449     -513     -589     -422      147 
     872     1397     1609     1586     1386      882       28     -834 
   -1285    -1239     -908     -614     -591     -834    -1088    -1143 
   -1020     -819     -723     -853     -997     -928     -719     -469 
    -222      -28      175      494      916     1329     1534     1368 
     891      348      -51     -282     -511     -876    -1210    -1240 
   -1012     -737     -405       29      414      645      757      796 
     837      931     1034     1119     1213     1274     1120      687 
     211      -13       32       76      -60     -257     -449     -734 
   -1000    -1054     -922     -658     -303       -4      259      577 
     795      760      569      348      148       67      155      265 
     206       22      -95      -97      -62      -97     -224     -299 
    -180      120      437      587      531      275     -174     -635 
    -818     -615     -248       -6      102      241      344      225 
     -71     -322     -378     -279     -183     -199     -271     -230 
      12      390      750      957      962      850      739      692 
     735      766      621      368      203      159      171      193 
     203      329      706     1159     1350     1167      722      135 
    -506    -1139    -1661    -1912    -1845    -1517    -1030     -607 
    -452     -473     -422     -164      329     1004     1587     1752 
    1471      982      507      163      -55     -199     -229     -122 
      37      174      147     -136     -511     -827    -1131    -1424 
   -1580    -1568    -1529    -1528    -1350     -792      -28      588 
     947     1206     1425     1445     1166      683      211      -90 
    -270     -426     -496     -413     -256     -226     -456     -745 
    -756     -506     -271     -220     -367     -612     -788     -834 
    -824     -727     -394      218      965     1579     1806     1614 
    1162      583       51     -224     -307     -429     -658     -899 
   -1050    -1104    -1078     -920     -639     -315       48      407 
     553      353     -152     -853    -1557    -2012    -1988    -1432 
    -572      244      787     1007     1039     1035      940      661 
     288      -40     -253     -294     -221     -184     -232     -294 
    -243      130      965     2097     3099     3607     3557     3127 
    2434     1431      301     -537     -966    -1155    -1233    -1379 
   -1686    -1930    -1892    -1644    -1317     -877     -257      407 
     958     1412     1775     1980     2046     2011     1906     1800 
    1707     1568     1301      878      384     -103     -562     -918 
   -1136    -1267    -1385    -1521    -1576    -1445    -1165     -830 
    -465      -49      380      737      945      940      662      172 
    -306     -565     -595     -499     -292       32      303      301 
      22     -333     -619     -733     -573     -352     -433     -799 
