Origin Time       2019/01/14 13:23:00
Lat.              36.162
Long.             139.810
Depth. (km)       53
Mag.              4.9
Station Code      CHBH13
Station Lat.      35.8307
Station Long.     140.298
Station Height(m) -1288
Record Time       2019/01/14 13:23:53
Sampling Freq(Hz) 100Hz
Duration Time(s)  120
Dir.              3
Scale Factor      2940(gal)/6170270
Max. Acc. (gal)   2.934
Last Correction   2019/01/14 13:23:38
Memo.             
[...]
  117311   117310   117308   117309   117311   117310   117308   117310 
  117311   117310   117311   117312   117311   117310   117309   117309 
  117311   117312   117311   117311   117310   117311   117311   117309 
  117310   117312   117311   117311   117311   117310   117311   117310 
  117309   117311   117311   117309   117309   117310   117309   117311 
  117312   117310   117311   117311   117311   117311   117310   117310 
  117310   117311   117311   117310   117309   117309   117310   117310 
  117309   117309   117310   117311   117310   117309   117310   117312 
  117312   117312   117311   117310   117311   117311   117310   117311 
  117311   117310   117310   117311   117311   117311   117312   117312 
  117310   117309   117311   117311   117311   117311   117310   117309 
  117310   117311   117311   117309   117310   117311   117311   117310 
  117309   117309   117310   117310   117309   117310   117311   117311 
  117310   117310   117310   117310   117310   117310   117311   117312 
  117311   117311   117311   117311   117312   117313   117310   117309 
  117309   117309   117311   117313   117312   117311   117311   117310 
  117310   117310   117311   117312   117311   117311   117311   117310 
  117309   117310   117310   117310   117313   117313   117310   117309 
  117309   117309   117311   117313   117313   117313   117311   117308 
  117309   117312   117311   117307   117308   117309   117309   117310 
  117310   117310   117311   117310   117312   117314   117311   117309 
  117310   117310   117310   117312   117312   117311   117309   117306 
  117307   117310   117309   117307   117310   117311   117309   117309 
  117310   117310   117310   117310   117310   117309   117309   117310 
  117311   117310   117310   117309   117309   117309   117309   117311 
  117313   117311   117309   117310   117311   117311   117311   117311 
  117311   117311   117311   117310   117310   117312   117313   117311 
  117309   117309   117310   117311   117312   117311   117311   117311 
  117312   117311   117310   117311   117312   117310   117309   117310 
  117309   117309   117312   117312   117309   117309   117311   117311 
  117310   117309   117310   117311   117309   117309   117312   117311 
  117309   117310   117312   117311   117311   117312   117309   117308 
  117311   117312   117310   117309   117309   117310   117311   117311 
  117311   117311   117310   117311   117310   117310   117310   117310 
  117310   117311   117310   117310   117311   117310   117309   117310 
  117311   117311   117310   117310   117309   117309   117309   117309 
  117311   117315   117311   117308   117308   117311   117312   117309 
  117309   117310   117310   117311   117310   117310   117310   117310 
  117310   117311   117310   117311   117312   117310   117311   117312 
  117311   117310   117309   117310   117309   117310   117312   117310 
  117308   117310   117310   117310   117312   117311   117310   117312 
  117311   117309   117309   117311   117312   117312   117311   117310 
  117309   117306   117307   117310   117310   117311   117311   117311 
  117310   117309   117309   117311   117311   117311   117311   117311 
  117310   117311   117311   117309   117311   117311   117310   117310 
  117309   117308   117310   117311   117312   117311   117309   117310 
  117311   117309   117308   117310   117310   117309   117310   117312 
  117310   117309   117310   117311   117312   117312   117310   117309 
  117310   117311   117312   117312   117310   117309   117310   117312 
  117311   117311   117311   117312   117312   117310   117308   117310 
  117311   117310   117309   117311   117311   117310   117308   117310 
  117311   117310   117309   117310   117310   117311   117311   117309 
  117309   117309   117311   117311   117310   117310   117311   117310 
  117308   117309   117310   117310   117310   117310   117310   117309 
  117309   117309   117309   117310   117311   117310   117309   117309 
  117311   117311   117309   117308   117312   117311   117309   117311 
  117311   117309   117309   117311   117310   117309   117308   117308 
  117310   117312   117311   117310   117307   117308   117309   117308 
  117310   117311   117311   117313   117310   117307   117308   117310 
  117309   117309   117309   117309   117310   117310   117310   117309 
  117308   117309   117311   117311   117310   117312   117311   117308 
  117309   117312   117310   117309   117312   117311   117308   117310 
  117310   117308   117309   117310   117312   117310   117308   117309 
  117310   117310   117311   117309   117308   117310   117311   117309 
  117310   117310   117311   117312   117310   117311   117312   117310 
  117309   117310   117310   117310   117310   117312   117312   117311 
  117312   117311   117307   117306   117309   117312   117313   117313 
  117311   117309   117309   117310   117310   117311   117310   117309 
  117310   117310   117309   117312   117312   117310   117310   117311 
  117310   117310   117311   117312   117310   117308   117309   117311 
  117310   117311   117313   117312   117310   117311   117310   117310 
  117311   117311   117310   117311   117310   117310   117310   117310 
  117310   117311   117311   117310   117311   117310   117311   117313 
  117312   117310   117309   117310   117313   117312   117311   117310 
  117309   117311   117313   117311   117310   117311   117310   117308 
  117308   117311   117312   117311   117311   117311   117309   117309 
  117310   117311   117310   117311   117311   117311   117311   117309 
  117309   117311   117310   117307   117310   117312   117309   117309 
  117312   117311   117308   117309   117311   117310   117308   117310 
  117312   117310   117310   117312   117311   117310   117309   117310 
  117311   117310   117309   117310   117311   117310   117310   117311 
  117311   117312   117313   117310   117309   117311   117312   117311 
  117308   117306   117308   117311   117312   117312   117312   117310 
  117310   117309   117310   117310   117308   117308   117311   117311 
  117309   117308   117309   117309   117308   117310   117310   117310 
  117309   117308   117310   117310   117309   117312   117312   117309 
  117310   117311   117311   117310   117308   117310   117312   117310 
  117312   117313   117309   117308   117311   117310   117309   117311 
  117311   117310   117309   117308   117309   117311   117312   117311 
  117311   117310   117310   117310   117310   117310   117311   117311 
  117311   117310   117311   117313   117312   117310   117309   117309 
  117311   117312   117309   117306   117310   117312   117311   117312 
  117313   117310   117307   117309   117311   117312   117313   117313 
  117311   117311   117310   117311   117312   117312   117309   117307 
  117309   117312   117312   117311   117312   117311   117308   117310 
  117312   117312   117311   117310   117309   117308   117310   117312 
  117309   117308   117312   117312   117311   117313   117311   117310 
  117315   117314   117310   117311   117310   117309   117311   117311 
  117310   117312   117312   117310   117310   117311   117311   117310 
  117311   117312   117311   117311   117312   117310   117307   117308 
  117310   117313   117312   117310   117310   117311   117308   117308 
  117311   117311   117310   117311   117312   117310   117309   117310 
  117309   117310   117311   117311   117313   117312   117311   117311 
  117312   117311   117309   117309   117312   117313   117310   117308 
  117309   117310   117312   117313   117313   117311   117309   117310 
  117311   117310   117311   117313   117312   117310   117311   117311 
  117309   117307   117307   117310   117314   117313   117311   117311 
  117311   117311   117311   117311   117310   117309   117308   117310 
  117312   117311   117309   117310   117309   117309   117310   117312 
  117311   117311   117310   117312   117312   117311   117311   117311 
  117308   117308   117311   117313   117313   117312   117311   117310 
  117311   117312   117310   117310   117310   117310   117313   117313 
  117310   117309   117311   117311   117310   117309   117309   117312 
  117312   117311   117310   117310   117310   117310   117311   117312 
  117312   117311   117309   117309   117311   117312   117312   117309 
  117309   117310   117311   117311   117311   117309   117308   117308 
  117309   117312   117315   117313   117308   117308   117310   117311 
  117312   117310   117309   117310   117310   117311   117312   117311 
  117310   117310   117310   117311   117312   117310   117309   117311 
  117310   117310   117310   117310   117310   117311   117310   117309 
  117310   117311   117310   117310   117311   117310   117309   117310 
  117312   117311   117309   117311   117311   117311   117310   117308 
  117311   117312   117309   117308   117312   117312   117309   117309 
  117311   117311   117310   117311   117311   117310   117310   117309 
  117310   117311   117310   117309   117311   117311   117309   117310 
  117312   117311   117309   117308   117309   117310   117311   117311 
  117309   117308   117308   117311   117312   117311   117310   117309 
  117309   117309   117310   117312   117311   117308   117309   117310 
  117310   117309   117307   117310   117312   117309   117309   117311 
  117311   117311   117310   117310   117311   117311   117310   117311 
  117310   117309   117309   117311   117311   117311   117311   117310 
  117309   117310   117310   117309   117308   117310   117310   117309 
  117311   117311   117310   117310   117311   117310   117309   117311 
  117312   117312   117312   117310   117310   117310   117311   117312 
  117311   117311   117310   117309   117311   117313   117311   117308 
  117308   117311   117309   117309   117311   117310   117310   117311 
  117311   117311   117311   117311   117312   117310   117308   117308 
  117310   117311   117310   117310   117312   117310   117309   117310 
  117312   117311   117309   117309   117310   117309   117309   117312 
  117312   117309   117309   117311   117312   117312   117309   117307 
  117309   117311   117311   117310   117310   117310   117308   117308 
  117310   117311   117311   117308   117308   117310   117310   117310 
  117311   117310   117310   117309   117307   117308   117309   117310 
  117309   117309   117311   117311   117310   117309   117307   117310 
  117311   117308   117309   117311   117309   117309   117312   117311 
  117309   117308   117310   117311   117309   117309   117310   117309 
  117310   117311   117311   117311   117311   117312   117311   117308 
  117309   117311   117310   117311   117312   117311   117311   117312 
  117309   117309   117311   117310   117310   117311   117311   117310 
  117309   117311   117312   117311   117310   117311   117311   117313 
  117311   117308   117309   117310   117309   117311   117313   117311 
  117309   117308   117308   117311   117313   117312   117311   117310 
  117309   117311   117310   117309   117310   117311   117310   117311 
  117312   117311   117311   117311   117309   117308   117309   117311 
  117311   117310   117310   117311   117308   117308   117312   117313 
  117311   117309   117310   117311   117310   117310   117311   117311 
  117313   117311   117309   117310   117311   117311   117312   117311 
  117310   117310   117312   117312   117310   117310   117311   117310 
  117311   117312   117311   117311   117310   117309   117310   117310 
  117310   117310   117310   117312   117312   117310   117309   117310 
  117312   117312   117311   117311   117311   117310   117310   117311 
  117312   117310   117309   117312   117313   117309   117308   117313 
  117312   117308   117309   117310   117310   117310   117310   117310 
  117308   117310   117311   117310   117311   117310   117310   117311 
  117310   117310   117314   117315   117311   117310   117310   117307 
  117307   117311   117313   117311   117311   117310   117310   117312 
  117311   117309   117309   117309   117309   117311   117313   117312 
  117310   117310   117308   117307   117311   117312   117309   117310 
  117311   117308   117308   117312   117311   117307   117309   117311 
  117310   117311   117311   117310   117310   117309   117309   117312 
  117313   117312   117312   117312   117311   117310   117310   117312 
  117310   117308   117309   117309   117310   117310   117312   117313 
  117312   117309   117309   117310   117309   117309   117311   117311 
  117309   117307   117308   117310   117311   117310   117309   117312 
  117312   117312   117311   117310   117309   117310   117311   117312 
  117313   117312   117311   117311   117311   117312   117311   117310 
  117310   117311   117311   117311   117310   117311   117311   117311 
  117310   117310   117310   117312   117312   117310   117310   117311 
  117312   117312   117312   117312   117312   117311   117309   117309 
  117312   117313   117311   117311   117312   117312   117311   117309 
  117308   117311   117314   117314   117312   117311   117310   117310 
  117312   117312   117310   117311   117311   117310   117310   117311 
  117313   117310   117310   117312   117311   117311   117311   117310 
  117311   117311   117311   117311   117310   117310   117311   117310 
  117309   117310   117313   117318   117337   117406   117603   118037 
  118792   119817   120827   121204   120140   117420   114071   111628 
  111154   113307   117048   119136   118500   117180   116135   116290 
  118785   120976   120095   118105   116508   113858   112123   114616 
  118211   118965   118137   116639   114829   115490   118702   120895 
  120381   118409   116791   116019   115784   116329   117209   117224 
  116490   115870   116333   118558   120568   120055   117889   115986 
  115357   116082   117632   119160   119355   118169   117131   116238 
  115041   115348   117535   118866   118555   118260   118149   117775 
  117660   117672   117157   116904   117562   117297   115721   115338 
  116233   116935   117760   118652   118704   117577   116237   116287 
  117411   118216   118359   117758   117038   117279   117887   118000 
  117646   116831   116515   117326   117758   116911   116037   116480 
  117811   118395   117635   116519   116708   118341   119053   117819 
  116324   116198   117591   118826   118724   118068   117366   116936 
  117590   118135   116406   114532   115524   116777   116517   117226 
  118167   117581   117443   118069   117817   117747   118212   116770 
  114461   114741   116343   117015   117623   118037   117315   116658 
  117323   118136   117942   118006   118827   118584   116726   115213 
  115640   117231   118525   118605   117277   116252   116727   117938 
  119073   119047   118098   117841   117725   116823   116186   116389 
  116739   117170   117922   117740   116027   115168   116576   118474 
  119484   119111   117362   116316   116782   116928   116810   117449 
  117903   117566   116886   116354   116485   116823   117029   117686 
  118400   118507   118174   117627   117379   117345   116792   116705 
  117623   117433   116271   116602   117715   117840   117482   117467 
  117444   116635   116003   116780   117748   117968   118075   118256 
  117956   117172   116883   117058   117208   117613   117149   115800 
  116325   118142   118341   117698   117547   117748   118267   117753 
  116841   117886   118979   118023   116803   116710   117042   117082 
  117060   116991   116599   116319   116399   116449   116694   117612 
  118346   118018   117554   117534   117310   117091   117216   117086 
  116484   116247   116855   117313   117061   117116   118036   118421 
  117336   116602   116875   116934   117458   118210   117941   117616 
  117291   116726   116980   117136   116876   117666   118334   117914 
  117815   118058   118150   117999   117214   116539   116534   116422 
  116044   116065   116569   117416   118423   118839   118395   117164 
  116047   116964   118668   118488   117603   117256   116433   115714 
  116394   117617   118141   118152   117657   116699   116385   116484 
  116423   117229   118297   118175   117588   117328   116998   116252 
  115917   116980   118313   118842   118704   117544   116402   116551 
  116990   117278   117475   116967   116699   117473   117951   117642 
  117584   117652   117360   117689   118648   118509   117037   116082 
  116525   117090   117251   117624   117441   116776   117110   117407 
  116856   117126   117829   117555   117478   118339   118209   116603 
  115949   116628   117178   117845   118204   117261   116286   116304 
  116821   117666   118421   118491   118158   117756   117191   116384 
  115856   116332   117381   117932   117887   117613   116703   115890 
  116809   118113   118089   117876   117693   117003   117079   117765 
  117526   117293   117612   117091   116508   116813   116992   117354 
  118034   117762   117353   117885   117955   117177   116725   116657 
  116776   117024   117189   117499   117624   116934   116269   116796 
  117816   118084   117776   117286   116875   117023   117421   117695 
  117873   117832   117624   117393   117228   117198   117207   117144 
  117321   117646   117254   116749   117280   117966   117806   117336 
  117102   116922   116891   117050   116977   117021   117476   117653 
  117459   117409   117451   117170   116695   116723   117355   118189 
  118504   117757   117083   117072   116734   116339   116927   118268 
  118818   117976   117126   116856   116857   117064   116999   116784 
  116822   117089   117471   117103   116471   117369   118551   118201 
  117476   117328   117569   117666   117169   116932   117112   116967 
  116816   117002   117286   117123   116830   117467   118217   118083 
  117774   117557   117083   116556   116498   117025   117481   117464 
  117414   117161   116700   117201   118144   118267   118099   117637 
  116587   116142   116829   117635   117759   117412   117278   117498 
  117679   117647   117313   116748   116534   116749   116853   117136 
  117942   118562   118235   117232   116979   117597   117623   117398 
  117457   116990   116277   116013   116361   117190   117967   118298 
  118225   118252   118107   117285   116785   116853   116701   116873 
  117372   117179   116690   116827   117583   117976   117290   116858 
  117285   116992   116509   117142   117552   117417   117772   117690 
  116855   116918   117706   117653   117008   116767   117203   118148 
  118541   117480   116619   117630   118423   117335   116322   116743 
  117569   117671   117347   117333   117416   117280   117122   117136 
  117097   116973   117301   117612   117484   117749   117874   117334 
  117283   117266   116685   116905   117310   116755   117144   118392 
  117848   116744   117269   117744   117340   117394   117473   117021 
  117019   117559   117601   116959   116656   117350   118236   118216 
  117550   117030   116516   116310   117176   118083   118014   117623 
  117341   117184   116844   115914   115604   116885   117779   117190 
  117119   117530   117032   116772   117312   117898   118157   118122 
  118407   118328   117400   117023   117256   117327   117538   118090 
  118381   117635   116293   115960   116990   117281   116531   117096 
