Origin Time       2019/01/14 13:23:00
Lat.              36.162
Long.             139.810
Depth. (km)       53
Mag.              4.9
Station Code      CHBH04
Station Lat.      35.7966
Station Long.     140.0206
Station Height(m) -2277.19
Record Time       2019/01/14 13:23:52
Sampling Freq(Hz) 100Hz
Duration Time(s)  120
Dir.              3
Scale Factor      2940(gal)/6170270
Max. Acc. (gal)   4.278
Last Correction   2019/01/14 13:23:37
Memo.             
[...]
  195646   195647   195648   195648   195648   195646   195647   195648 
  195648   195649   195651   195650   195649   195649   195648   195647 
  195647   195647   195647   195647   195648   195649   195647   195647 
  195649   195649   195646   195646   195648   195649   195648   195649 
  195648   195648   195648   195648   195648   195647   195648   195647 
  195646   195647   195647   195646   195647   195648   195648   195648 
  195648   195647   195649   195650   195648   195648   195649   195648 
  195648   195648   195646   195645   195647   195647   195647   195648 
  195648   195647   195649   195650   195648   195649   195648   195647 
  195649   195649   195649   195649   195649   195648   195649   195649 
  195648   195648   195648   195647   195646   195647   195649   195648 
  195647   195647   195646   195646   195649   195649   195647   195647 
  195648   195647   195647   195649   195649   195646   195646   195648 
  195647   195646   195648   195648   195647   195648   195648   195646 
  195646   195647   195648   195648   195648   195648   195648   195646 
  195646   195648   195648   195648   195649   195649   195647   195646 
  195648   195649   195648   195647   195647   195648   195647   195647 
  195649   195649   195648   195649   195648   195645   195645   195648 
  195647   195646   195648   195646   195646   195648   195648   195648 
  195648   195647   195646   195646   195647   195648   195647   195647 
  195649   195649   195648   195647   195647   195649   195648   195646 
  195648   195649   195647   195648   195649   195647   195646   195648 
  195648   195647   195647   195646   195646   195649   195649   195647 
  195648   195648   195646   195646   195647   195647   195647   195646 
  195647   195648   195647   195648   195648   195647   195646   195648 
  195649   195648   195648   195647   195647   195649   195648   195649 
  195650   195650   195648   195648   195647   195646   195647   195648 
  195646   195647   195648   195647   195648   195649   195647   195648 
  195648   195646   195646   195648   195649   195649   195647   195646 
  195646   195646   195647   195647   195648   195647   195645   195645 
  195647   195647   195648   195649   195649   195648   195648   195647 
  195647   195647   195646   195647   195648   195647   195648   195648 
  195647   195647   195647   195647   195648   195649   195650   195649 
  195648   195648   195648   195648   195647   195645   195647   195649 
  195649   195647   195646   195647   195650   195649   195647   195647 
  195648   195647   195647   195647   195647   195648   195648   195647 
  195648   195648   195648   195648   195648   195647   195648   195648 
  195647   195647   195647   195646   195647   195647   195647   195648 
  195648   195648   195647   195647   195647   195648   195648   195646 
  195646   195646   195646   195646   195647   195647   195648   195649 
  195648   195646   195646   195647   195649   195648   195647   195647 
  195647   195648   195648   195647   195646   195646   195646   195646 
  195647   195648   195648   195647   195647   195646   195644   195645 
  195647   195648   195648   195646   195647   195648   195649   195650 
  195649   195648   195647   195648   195650   195648   195647   195648 
  195648   195647   195645   195645   195647   195648   195647   195647 
  195647   195646   195647   195648   195648   195647   195647   195648 
  195647   195647   195648   195647   195646   195648   195648   195647 
  195648   195649   195649   195648   195648   195648   195649   195649 
  195648   195648   195646   195647   195649   195649   195647   195648 
  195647   195648   195649   195647   195646   195648   195649   195649 
  195648   195647   195646   195647   195647   195647   195646   195646 
  195647   195649   195648   195648   195649   195648   195647   195647 
  195649   195649   195648   195648   195646   195647   195649   195649 
  195649   195649   195649   195650   195650   195648   195647   195648 
  195647   195646   195648   195650   195649   195647   195648   195649 
  195647   195647   195648   195648   195649   195649   195648   195649 
  195649   195648   195647   195647   195648   195648   195647   195647 
  195648   195648   195648   195649   195648   195646   195646   195648 
  195649   195649   195649   195650   195650   195649   195648   195648 
  195648   195649   195648   195648   195649   195650   195650   195648 
  195647   195647   195647   195646   195646   195646   195648   195647 
  195646   195648   195648   195647   195647   195646   195648   195651 
  195647   195646   195648   195648   195647   195649   195650   195648 
  195647   195647   195648   195648   195648   195646   195646   195648 
  195649   195649   195648   195649   195649   195648   195649   195649 
  195649   195648   195647   195647   195648   195646   195648   195650 
  195648   195649   195649   195648   195649   195649   195648   195649 
  195649   195647   195647   195648   195648   195647   195649   195648 
  195646   195647   195649   195648   195647   195649   195649   195647 
  195647   195648   195648   195648   195647   195647   195648   195648 
  195647   195647   195646   195646   195647   195647   195648   195648 
  195646   195648   195650   195648   195647   195649   195649   195648 
  195648   195649   195648   195648   195648   195646   195646   195649 
  195649   195649   195650   195649   195647   195648   195648   195648 
  195647   195645   195647   195648   195648   195648   195649   195649 
  195647   195646   195647   195648   195648   195648   195648   195648 
  195648   195646   195646   195648   195648   195648   195648   195648 
  195648   195648   195648   195649   195649   195647   195647   195648 
  195647   195648   195649   195648   195647   195647   195647   195647 
  195648   195648   195648   195649   195648   195646   195647   195649 
  195649   195649   195648   195647   195648   195648   195647   195649 
  195648   195646   195647   195648   195647   195648   195648   195647 
  195646   195647   195648   195647   195647   195649   195648   195646 
  195647   195648   195647   195647   195646   195647   195647   195647 
  195648   195648   195646   195648   195648   195648   195648   195647 
  195648   195650   195648   195646   195647   195649   195649   195648 
  195652   195677   195753   195925   196221   196631   197081   197369 
  197277   196836   196203   195419   194786   194781   195021   194799 
  194596   194792   194568   194024   194216   194854   195010   195071 
  196110   197951   198393   196668   195702   195517   193320   191573 
  192790   194380   195438   197266   198666   197805   195421   194216 
  195619   197090   196726   196085   195232   194179   194222   194724 
  195486   196449   196246   195652   196078   196542   196542   196508 
  196384   196575   196094   194613   194182   194207   193835   194759 
  196507   197176   196608   195113   194097   195113   196241   196048 
  196216   196655   195980   195062   195115   195494   195558   195937 
  196649   196445   195525   195499   195746   195227   195149   195530 
  195505   195621   195642   195499   195527   195063   195234   196213 
  196389   196818   196902   195459   195026   195562   195267   195444 
  196298   195932   195236   195611   195328   194740   194963   194675 
  195342   196846   196260   195733   196652   196184   195054   195300 
  195720   195811   196256   196817   196802   196061   195516   194931 
  194249   194794   195406   195079   195085   195396   195570   195951 
  196321   196481   196351   195514   195294   196262   195909   195069 
  195740   195726   195200   195976   196212   195423   195018   194929 
  195370   195678   195239   195128   195408   196367   196904   195434 
  194808   195552   195118   194951   195723   195831   195870   196274 
  196693   196525   195143   194613   195966   196688   195774   195119 
  196246   197252   196118   195478   196630   196535   195123   195087 
  195992   195984   195325   194399   193096   192952   194170   195084 
  196444   198045   197174   195408   196196   196986   195269   194574 
  195182   193922   193143   194426   194965   195016   195560   195751 
  196419   197164   196539   196203   196970   196972   196407   196774 
  196997   195350   193395   193840   195601   195935   195237   195271 
  195901   196025   195688   195620   195771   195753   195344   195058 
  195549   196090   196107   195979   195723   195250   195160   195497 
  195551   195833   196693   197111   196356   195408   195966   196564 
  195337   194430   195000   195436   195708   196140   195595   194819 
  195476   196107   195247   194820   195747   196055   195716   195802 
  195342   195113   196633   197458   196124   195182   195038   194314 
  194450   195822   196138   195394   195271   195844   196407   196716 
  196629   196172   195241   193963   194220   195811   195836   195536 
  196337   195939   195425   196416   196986   196852   196615   196013 
  195442   194712   193665   193980   195944   196569   195186   194820 
  195442   194893   195076   196770   196651   195374   195218   195080 
  195268   196031   196135   195902   195198   194503   195416   197227 
  197750   196372   195719   196189   194658   193176   194677   196336 
  196582   196044   194472   193579   194462   195224   195968   197550 
  197988   196790   195843   195339   195028   195252   195003   194249 
  194766   196139   196311   195920   196561   196810   195891   195839 
  196902   197436   196808   195755   195464   195470   194512   193283 
  193472   195020   195771   194836   194260   195124   196091   196661 
  196684   195596   194934   195756   196714   197236   196869   195685 
  194856   193793   193317   195141   196663   196241   196321   196911 
  196054   195370   196208   196382   195939   196539   196787   195863 
  195423   195691   195160   194085   194215   195371   196357   196064 
  194408   194140   195548   195819   195690   196367   196253   195598 
  195607   195731   195980   196315   196203   196100   196399   196510 
  195387   193923   193357   193387   195010   196364   195387   195985 
  197310   196045   195385   195931   196062   196618   196688   195794 
  195256   194812   194225   195098   196735   196660   195752   195357 
  195546   196064   195487   194632   194697   195340   197403   198182 
  195371   193902   195032   195441   195946   196029   194549   194897 
  196925   196761   195965   196658   196099   194713   195170   195650 
  195841   196691   195657   193833   194358   195840   196542   196487 
  196281   195808   194882   194929   195646   196212   196913   196207 
  194488   194113   194834   195475   195426   195655   196820   196586 
  194789   195067   197534   198072   196181   194259   193118   193817 
  195675   196275   195832   195220   194455   194678   196377   197234 
  196236   195098   194620   195677   197093   195605   193923   195446 
  196250   194777   195250   196763   195369   194073   195748   196671 
  195759   195636   196164   196533   197142   197584   196697   195131 
  195049   195797   195052   194049   194425   194629   195324   197066 
  197088   195746   194572   194470   196014   196671   195593   194200 
  193868   195067   195816   196495   197643   196835   195386   195821 
  196543   196313   195691   195307   195982   196349   194980   194352 
  195409   195396   194411   195242   196851   196535   195957   196383 
  195737   194757   195589   196827   196306   194828   195077   196546 
  195852   194414   194986   195382   195058   195311   195298   195124 
  195336   195969   196835   196444   194949   194885   195982   195896 
  195442   195905   195643   194682   195273   196075   195540   195552 
  195870   195604   195615   195666   195814   196100   195985   195480 
  194975   195578   196367   196060   196271   196631   195529   194718 
  195819   196667   195462   194532   195244   195607   195242   195873 
  197110   197072   196409   195977   195326   195856   196618   195312 
  194536   194918   194414   194301   194935   195603   196128   195976 
  196246   196742   196156   195722   195784   195233   194584   194827 
  195405   195681   196014   195687   194912   195045   195005   194982 
  196060   196348   196099   197005   197295   196072   195315   195530 
  195148   194653   195635   196135   195443   195896   196299   195561 
  194723   193705   194454   196694   196769   195540   195137   195085 
  195561   196969   197197   194849   193720   195716   196679   195626 
  195972   197274   196037   193714   194792   197325   197004   195464 
  195071   195424   195954   195979   195147   194000   194257   196617 
  198281   197672   196788   196308   195379   194427   194280   194712 
  193894   192154   193615   197075   197106   196181   197496   196689 
  194116   194740   196256   195868   194751   191914   190198   193147 
  194844   193744   195892   198411   196091   193760   195533   196892 
  195076   192993   193016   195035   195405   193035   194444   199750 
  199928   197124   199568   200918   196283   194925   197549   194904 
  190867   195202   201244   198643   194119   196393   199250   196422 
  193889   195233   196786   198484   197847   193142   192997   196273 
  195263   195544   197510   195300   194635   198596   200310   198878 
  198983   198885   195690   192714   191846   191475   191373   191652 
  193320   196027   195116   192782   197377   203344   198535   188823 
  189826   200369   204628   199773   194861   190498   187947   192240 
  199475   203197   202089   198554   193489   188423   191222   199265 
  199533   193773   190104   189590   193357   198938   201909   200666 
  194069   190048   195537   200212   199176   197711   192261   187501 
  193099   199541   199707   197674   194449   193177   195775   198365 
  197015   193686   194137   194615   192279   194810   199354   196647 
  192600   195293   199109   198182   195073   194201   196121   196539 
  196114   196842   194554   192776   194919   195667   196851   198527 
  195275   192231   193730   194957   195985   199340   199325   194763 
  195584   199776   196167   191351   193859   196303   196618   198176 
  196213   192186   193593   195962   194263   194359   196162   194447 
  193570   195493   196212   198640   201310   197571   193342   194937 
  196393   194149   192576   193709   194933   195839   197763   198041 
  196350   196127   195191   193817   194955   194994   195001   196992 
  197592   197810   197292   195716   196802   197585   194723   192467 
  193324   195419   197388   198075   196769   195838   197412   198357 
  195471   192732   193451   193962   194270   197344   198085   194893 
  195580   197840   195916   196256   198758   196349   193036   193365 
  194850   195752   196137   196784   197715   197709   196315   194728 
  194109   194000   195035   197048   196568   194437   194320   194958 
  195167   194551   192989   194206   196944   196537   195398   196512 
  198056   197447   196169   196390   195330   193355   193748   194686 
  194950   195614   196819   198187   197256   194629   194428   194510 
  192973   193828   196700   197873   196853   196031   196497   195256 
  193845   196556   198357   195170   192787   194234   195522   195384 
  196783   197561   194063   191047   193103   197580   199446   196607 
  193177   192860   195057   198028   198289   196939   197675   197238 
  194455   193155   195175   198551   197456   194543   196592   197448 
  194716   194707   195227   194690   195532   195931   195689   195030 
  194069   195163   196211   196057   196726   196207   195117   195764 
  195080   193671   195508   197180   196302   195872   194459   192631 
  193565   193730   193391   197267   200475   197800   195045   196192 
  197322   197235   197607   196411   193389   194241   197883   196671 
  194025   194982   196019   196948   196465   193041   193180   196021 
  194667   192494   193967   196821   198618   198481   196832   195650 
  195829   195967   195010   193895   194795   197726   198071   193706 
  191714   195901   197815   195277   195397   196676   195897   196015 
  196164   194409   194588   196595   195323   193358   194721   196111 
  195980   196384   196601   194925   193631   195221   197314   197628 
  196857   195810   194396   193386   195097   197010   196307   196810 
  197183   194735   194483   197001   198193   197508   195951   194495 
  193630   192998   193123   194805   196884   198156   198188   196312 
  194179   194404   195593   195029   194255   194973   195850   196722 
  196338   194318   195142   197164   195585   193875   194314   195529 
  197268   197712   196650   195409   195226   196320   195340   193774 
  195398   195956   193916   194187   196941   198813   198286   195296 
  192851   194183   195979   195739   195798   195527   195294   196477 
  196884   196008   194996   195138   196711   197153   195465   194329 
  195150   194854   193286   194460   195942   194201   193618   196081 
  197463   197672   198078   196972   195657   196009   195981   194668 
  194362   195904   196455   195481   195983   197164   196371   195339 
  195694   195596   195286   195720   195452   195682   197313   197085 
  195012   194646   195219   194512   194359   195202   195374   195880 
  197105   197109   195522   194225   194227   195238   196210   195982 
  195754   195485   194363   194759   196097   196106   195586   194815 
  194816   196275   196295   194422   194181   196126   196847   195936 
  196391   196992   195342   194016   194879   196263   196227   194411 
  192789   193269   195639   197697   197746   196823   196589   197542 
  197446   195102   194397   196153   196721   195681   194649   194288 
  194913   195561   195303   195811   197047   196772   196020   196138 
  196387   196391   196151   195473   194312   194158   195215   194980 
  194174   195039   195796   195888   197374   198426   196801   194980 
  194885   195091   194790   194753   194826   194959   196260   197471 
  197104   196349   195036   194171   195535   196442   195791   195156 
  195078   196346   197352   196125   194337   193763   194860   196439 
  195844   193950   194119   195842   196318   195569   195644   196207 
  195746   195381   195479   195149   195245   196008   197136   197761 
  196825   196216   196405   195536   194548   194641   194783   194552 
  194447   194423   194794   195780   196280   195703   195683   197442 
  198176   196365   195421   195547   195036   195758   196886   196650 
  196558   196180   194657   193693   194303   195353   195898   196480 
  196221   194385   193544   194608   195719   196380   196878   197139 
  196830   196253   196225   196217   195464   194065   193255   194464 
  195407   194222   194180   195977   196904   196861   196396   196259 
  196854   196165   194538   194430   195017   195587   196765   197040 
  195935   195292   195377   195189   195057   195231   195301   195644 
  196216   196493   196198   195950   196402   196008   194705   194323 
  194354   194404   195342   196417   196498   196481   196450   194814 
  193491   194847   196400   196522   196117   194970   194116   195561 
  197102   195818   194462   195665   196893   196213   195683   196625 
  197115   196363   195647   195925   196484   195559   194648   195126 
