Origin Time       2019/03/11 15:37:00
Lat.              33.2
Long.             132.7
Depth. (km)       40
Mag.              4.5
Station Code      EHMH12
Station Lat.      33.427
Station Long.     132.5055
Station Height(m) 100
Record Time       2019/03/11 15:37:59
Sampling Freq(Hz) 100Hz
Duration Time(s)  120
Dir.              3
Scale Factor      2942(gal)/8224139
Max. Acc. (gal)   2.365
Last Correction   2019/03/11 15:37:44
Memo.             
[...]
   96030    96029    96029    96030    96032    96029    96028    96030 
   96032    96030    96032    96030    96028    96029    96030    96028 
   96026    96030    96033    96030    96029    96032    96029    96029 
   96030    96030    96029    96030    96028    96026    96030    96030 
   96026    96028    96028    96025    96026    96029    96032    96033 
   96030    96028    96032    96033    96029    96028    96030    96030 
   96029    96030    96032    96030    96030    96030    96030    96033 
   96029    96029    96033    96032    96029    96030    96032    96033 
   96034    96033    96030    96030    96032    96032    96032    96030 
   96030    96030    96029    96028    96029    96030    96030    96030 
   96033    96036    96034    96032    96032    96032    96030    96029 
   96030    96032    96032    96030    96030    96032    96032    96032 
   96032    96029    96028    96030    96032    96030    96032    96034 
   96032    96029    96029    96030    96029    96029    96032    96036 
   96036    96033    96032    96029    96030    96030    96032    96030 
   96028    96029    96030    96029    96030    96032    96032    96032 
   96030    96028    96028    96030    96029    96029    96029    96029 
   96029    96029    96029    96030    96030    96029    96032    96032 
   96032    96033    96033    96032    96032    96033    96032    96032 
   96033    96032    96032    96034    96037    96034    96032    96030 
   96030    96032    96032    96032    96032    96030    96033    96033 
   96032    96033    96032    96029    96030    96030    96030    96033 
   96036    96033    96030    96032    96034    96034    96032    96032 
   96034    96033    96032    96033    96030    96029    96033    96032 
   96028    96030    96033    96033    96034    96034    96032    96030 
   96030    96030    96029    96030    96033    96032    96029    96032 
   96032    96030    96032    96033    96032    96029    96030    96030 
   96030    96030    96032    96032    96032    96030    96029    96029 
   96030    96029    96029    96029    96030    96029    96028    96029 
   96028    96026    96029    96030    96026    96029    96030    96028 
   96028    96030    96029    96028    96026    96029    96032    96030 
   96029    96030    96032    96030    96029    96030    96032    96032 
   96030    96029    96029    96029    96030    96033    96033    96030 
   96030    96032    96030    96033    96033    96029    96026    96029 
   96030    96030    96030    96032    96030    96029    96030    96032 
   96033    96033    96030    96029    96026    96028    96033    96034 
   96032    96032    96029    96030    96036    96033    96030    96033 
   96032    96030    96032    96033    96032    96029    96030    96034 
   96033    96030    96032    96033    96034    96033    96032    96032 
   96033    96030    96029    96033    96032    96030    96033    96036 
   96033    96030    96030    96033    96033    96029    96029    96030 
   96030    96032    96033    96032    96032    96033    96032    96029 
   96030    96034    96034    96030    96029    96028    96030    96032 
   96030    96032    96032    96029    96030    96033    96033    96030 
   96029    96033    96036    96032    96030    96034    96034    96033 
   96033    96036    96033    96032    96032    96030    96032    96034 
   96030    96029    96032    96030    96032    96033    96033    96032 
   96033    96034    96030    96030    96033    96033    96032    96030 
   96032    96033    96033    96033    96033    96033    96032    96032 
   96032    96030    96028    96028    96030    96032    96032    96033 
   96033    96030    96030    96033    96036    96033    96030    96030 
   96032    96032    96033    96033    96030    96030    96036    96034 
   96030    96032    96032    96029    96030    96032    96029    96029 
   96032    96030    96029    96029    96029    96029    96028    96028 
   96029    96030    96032    96033    96032    96029    96033    96033 
   96030    96033    96032    96028    96030    96034    96033    96033 
   96033    96033    96033    96033    96032    96033    96033    96032 
   96033    96032    96032    96034    96034    96032    96032    96029 
   96029    96033    96032    96030    96033    96033    96032    96032 
   96033    96033    96033    96033    96033    96032    96033    96033 
   96033    96033    96030    96030    96034    96032    96032    96030 
   96026    96030    96034    96030    96032    96036    96033    96032 
   96032    96032    96030    96030    96029    96029    96034    96034 
   96030    96030    96030    96030    96030    96032    96033    96032 
   96030    96032    96033    96029    96030    96030    96030    96032 
   96032    96029    96029    96028    96029    96032    96032    96029 
   96029    96030    96032    96030    96028    96028    96028    96028 
   96030    96032    96028    96028    96032    96032    96028    96030 
   96033    96032    96032    96030    96029    96030    96030    96030 
   96030    96030    96032    96034    96033    96033    96033    96032 
   96030    96030    96033    96032    96029    96029    96030    96030 
   96029    96029    96032    96033    96030    96028    96032    96033 
   96030    96030    96032    96030    96032    96032    96030    96033 
   96033    96033    96032    96030    96032    96030    96032    96033 
   96032    96032    96033    96032    96029    96030    96030    96028 
   96029    96033    96033    96032    96030    96032    96032    96030 
   96030    96030    96029    96030    96032    96032    96033    96032 
   96032    96032    96030    96032    96030    96029    96030    96033 
   96032    96026    96028    96030    96032    96032    96029    96030 
   96033    96030    96029    96030    96029    96029    96030    96029 
   96032    96034    96036    96034    96032    96030    96032    96033 
   96033    96034    96033    96033    96033    96033    96033    96032 
   96032    96034    96034    96032    96034    96037    96036    96034 
   96033    96030    96029    96032    96036    96033    96030    96032 
   96034    96036    96033    96032    96034    96034    96033    96033 
   96030    96030    96036    96036    96030    96030    96033    96030 
   96032    96036    96034    96030    96030    96032    96030    96030 
   96032    96032    96032    96033    96033    96033    96033    96032 
   96030    96032    96033    96030    96030    96032    96032    96033 
   96030    96029    96032    96030    96029    96033    96034    96032 
   96028    96028    96030    96032    96029    96026    96032    96034 
   96032    96030    96029    96029    96030    96029    96028    96028 
   96029    96032    96030    96029    96029    96030    96032    96032 
   96033    96036    96030    96029    96032    96030    96030    96033 
   96032    96030    96032    96032    96032    96032    96032    96030 
   96030    96032    96033    96033    96033    96032    96030    96030 
   96030    96030    96032    96030    96028    96030    96033    96033 
   96032    96033    96032    96033    96034    96032    96032    96033 
   96030    96029    96033    96033    96030    96030    96032    96033 
   96033    96030    96030    96033    96034    96032    96032    96032 
   96032    96030    96029    96032    96033    96033    96032    96032 
   96030    96030    96033    96033    96030    96032    96032    96029 
   96030    96032    96032    96032    96030    96032    96030    96029 
   96032    96032    96030    96032    96033    96030    96029    96030 
   96032    96032    96029    96026    96028    96030    96032    96032 
   96033    96034    96033    96030    96030    96030    96032    96033 
   96030    96030    96032    96032    96033    96033    96033    96032 
   96029    96032    96033    96030    96030    96032    96033    96032 
   96030    96032    96030    96030    96033    96033    96032    96032 
   96030    96030    96033    96033    96032    96033    96034    96032 
   96030    96032    96033    96032    96032    96030    96032    96032 
   96030    96033    96032    96029    96028    96022    96002    95956 
   95868    95732    95569    95428    95380    95449    95563    95561 
   95447    95420    95418    95156    94612    94107    94165    94899 
   95906    96688    96508    95245    93968    93731    94886    96749 
   97956    97947    96952    95625    95446    96531    97428    98388 
   99063    97891    96865    97762    98161    97409    97405    97258 
   96383    97177    99148    99142    97056    95596    96346    97573 
   97587    97673    97507    95513    93992    94674    96580    98302 
   97416    95620    95501    94633    93722    93748    93170    95123 
   97461    95094    94158    96165    94165    91489    93572    96219 
   95998    95330    95478    94864    93768    93900    95667    97108 
   96007    95345    96815    96059    94694    96500    96962    95538 
   96776    97899    96587    96149    96391    96125    97364    98486 
   97083    96661    97586    96558    95733    96022    95416    96018 
   97704    97160    96105    96294    95400    93935    94636    96219 
   96071    95944    96957    96055    94255    94783    95604    95418 
   96071    96800    96013    95342    95648    95320    95432    96762 
   96326    95042    96228    96819    94636    94055    95613    96180 
   96530    96930    95999    94625    94007    94354    95528    96988 
   97861    97195    95362    94736    96074    96800    96789    97681 
   97671    96681    96665    96731    96681    97260    97646    97773 
   97827    96927    96439    97276    96512    95396    96692    96967 
   96192    97006    96570    94936    94853    95261    95910    96406 
   95326    94489    95114    95652    95418    95126    95565    95894 
   95099    94624    95195    95777    96155    95667    94468    94537 
   95608    96102    96051    95670    95269    95277    95458    95809 
   96175    96267    96396    96322    95501    94749    95521    96826 
   96547    95642    95667    96407    97028    96795    96361    96344 
   96365    96244    96360    97700    98512    97011    96385    97052 
   96520    96322    96693    96422    96795    97310    96421    95337 
   95134    95218    95860    96614    95827    94825    95386    95983 
   95501    95099    95542    95667    94903    95227    96658    96466 
   95342    95310    95234    95125    95771    95986    96037    96365 
   96277    96491    96394    95010    94722    96210    97124    97301 
   97110    96236    95817    95917    95875    96009    95860    95976 
   96664    96487    96101    95663    94625    95307    96923    96543 
   96101    96705    96568    96390    96423    95582    95283    96342 
   97117    97295    97595    97137    95634    94945    95958    97189 
   96762    95242    95349    96684    96615    95823    95581    95538 
   95621    95150    94744    95974    96873    95678    94736    95612 
   96435    96145    95986    96061    95725    95685    95821    95320 
   95405    95976    95200    95191    96877    96568    95152    95638 
   95964    95424    95816    96095    95744    96071    96650    96633 
   96211    96032    96273    95936    95440    96215    97001    96601 
   96446    96784    96464    96099    96248    95941    95623    96458 
   97129    96381    95349    94903    95222    96103    96480    96292 
   96155    95794    95311    95692    96751    96854    96037    95774 
   96346    97204    97031    95825    95678    96298    96209    95775 
   95674    96473    97349    96682    95575    95669    95878    95480 
   95852    96603    96176    95677    95746    95404    95401    95796 
   95634    95694    96052    95913    95492    95338    95893    96047 
   95164    95046    95669    96048    96576    96508    95835    95696 
   95736    96009    96934    97403    96758    95914    95986    96720 
   96855    96592    96515    95932    95476    96009    96155    95658 
   95881    96280    95910    95597    95638    95446    95050    94852 
   95862    97676    97525    95646    94959    95485    95991    96171 
   96147    96371    96124    95685    96330    96606    95952    95438 
   95346    96419    96801    95553    95978    96896    95810    95620 
   97062    97195    95418    94244    95638    97109    96118    95324 
   96286    96530    95277    94185    95031    97131    97135    95435 
   95419    96256    95858    95407    96029    96769    96727    96222 
   95843    95951    96313    96429    96765    96846    95604    94998 
   96230    97069    97067    97092    96553    96066    96222    95951 
   95671    96169    96418    96101    96047    96060    95558    95647 
   96687    96595    95675    95893    96175    95725    95677    95948 
   95837    95288    95133    95883    96306    96159    96277    95836 
   94649    94377    95385    96304    96788    97434    97410    96086 
   95098    95435    95539    94837    95411    97073    97150    96041 
   95517    95442    95771    96564    97206    97420    96651    95210 
   95127    95993    95825    95951    97252    97024    95454    95486 
   95994    96090    97047    96620    94601    94992    97078    97675 
   97148    96134    95015    94988    95619    96202    97016    97002 
   95287    94263    96034    97492    95621    93591    94312    95926 
   97117    98417    99172    98378    96984    96206    95343    93757 
   92510    93293    95723    96888    96174    95419    94736    93966 
   94173    95594    97532   100056   102567   102643   100156    97040 
   93868    91708    92068    94464    97363    99628    99905    97582 
   94811    93465    93692    95022    94778    93410    94587    96026 
   95955    97182    97171    93964    93201    96057    98147    98227 
   94814    89548    89764    94342    96134    95956    96493    95607 
   93422    93706    96003    96720    96356    96234    95748    96206 
   97713    97708    96919    97691    98867    98732    98402    99569 
  100287    97264    93954    95038    96437    94459    93166    95382 
   98139    98687    98008    96803    93700    90217    90909    96352 
  101542   101407    96484    92415    92298    94482    96801    97470 
   96950    96718    95596    94666    95779    95800    93820    93137 
   95007    98076    99418    98247    96404    94635    94794    97309 
   98778    99210    99760    98208    95481    95011    96277    96573 
   95130    93857    94343    95185    95535    96811    98220    97314 
   95031    94509    95875    96106    94238    93488    96016    98795 
   98311    95759    93926    93183    93505    95107    96206    96225 
   96687    96425    95045    95111    95791    95913    97067    97424 
   95804    95451    96215    96098    96191    96593    96257    95894 
   96668    97815    97005    94633    93896    95025    95567    95332 
   95612    96207    96315    95999    95944    96079    95480    94986 
   95743    95883    94884    95310    96564    96396    95655    94676 
   93395    93669    94953    95237    95029    95189    96016    97156 
   96986    96040    96353    96843    96851    98066    98810    97202 
   96056    96612    97154    97545    97715    97393    97619    98301 
   98300    97854    98024    98593    98181    97447    97849    97850 
   96861    97166    98232    97722    96477    95924    95021    93816 
   94437    95955    95407    93781    94032    95801    96446    95119 
   93703    93712    94122    94246    95091    95725    94593    93413 
   93873    94726    94485    93563    93243    93336    93411    94498 
   95661    95134    94960    95959    95558    94844    95898    96819 
   96882    96831    96076    95569    96279    96826    96992    97681 
   98315    98014    96985    96183    96408    97646    98948    99235 
   98614    97839    97524    97798    97518    96496    96502    97488 
   97792    97503    97136    96237    94986    94248    94482    95366 
   96026    95921    95488    95436    95409    94995    94932    95143 
   94693    94265    94940    95694    95575    95461    95262    94467 
   94173    94275    94136    94967    96286    95917    94691    94840 
   95713    95751    95796    96697    97270    97198    97150    96817 
   96269    96007    96261    97147    97957    98301    98085    96662 
   95185    95474    96655    97326    97615    97546    96898    96441 
   96650    96500    95666    95004    94652    94826    95818    96562 
   96380    95932    95409    94802    94756    95338    95972    96448 
   96550    95895    94917    94856    95832    96596    96692    96276 
   95258    94697    95612    96731    96754    96469    96878    97502 
   97410    96842    96331    95625    95035    94984    94729    94494 
   95415    96520    96380    95743    95521    95652    95980    96151 
   96072    95828    95292    95030    95368    95531    95278    95195 
   95693    96646    97139    96664    96252    96461    96483    96394 
   96948    97687    97654    97096    97228    97723    97214    96654 
   97035    96932    96207    96352    97136    97451    97164    96616 
   96211    96124    95902    95588    95675    95588    94902    94558 
   94961    95322    95169    94775    94186    93550    93841    94949 
   95373    95040    94829    94717    94801    95476    96180    96115 
   95364    94670    94861    95720    96333    96446    96040    95596 
   95899    96368    96211    96132    96707    97144    97181    97475 
   97610    97043    96826    97379    97517    97078    96958    97227 
   97391    97316    97252    97100    96692    96338    96079    95964 
   96033    95669    95126    95511    96330    96213    95332    94640 
   94481    94740    94775    94510    94717    95006    94795    94848 
   95260    95183    94782    94797    95160    95339    95420    95777 
   96186    96422    96504    96394    96448    96943    97301    96874 
   96240    96288    96560    96700    97241    97718    97420    97089 
   97403    97640    97224    96930    97218    97372    97231    97347 
   97433    97106    96859    96599    95855    95459    95975    96315 
   95816    95251    95287    95574    95512    95229    95112    94972 
   94840    95054    95130    94612    94111    93989    93827    93822 
   94413    94884    94701    94649    94987    95126    95103    95324 
   95895    96444    96412    96260    96664    96817    96126    95590 
   95778    96102    96310    96673    97038    97056    96921    96898 
   96813    96618    96610    96650    96385    96148    96344    96700 
   96789    96645    96583    96769    96965    96616    96033    96103 
   96313    95949    95585    95632    96041    96450    96433    96430 
   96688    96510    95820    95720    96519    96905    96591    96560 
   96414    95910    96057    96468    96294    96236    96712    96924 
   96541    96157    95951    95790    95895    95985    95716    95658 
   95841    95539    95223    95631    96083    96003    95497    94751 
   94487    94865    95069    95007    95056    95364    96001    96314 
   95914    95647    95654    95349    95319    95940    96288    96147 
   96172    96407    96639    96688    96151    95617    95944    96275 
   95987    95921    96147    96218    96346    96572    96862    97132 
   96998    96773    96792    96514    95964    95827    95987    95897 
