Origin Time       2019/03/11 15:37:00
Lat.              33.2
Long.             132.7
Depth. (km)       40
Mag.              4.5
Station Code      EHMH11
Station Lat.      33.5807
Station Long.     132.6011
Station Height(m) 110
Record Time       2019/03/11 15:38:00
Sampling Freq(Hz) 100Hz
Duration Time(s)  120
Dir.              3
Scale Factor      2942(gal)/8224139
Max. Acc. (gal)   1.441
Last Correction   2019/03/11 15:37:45
Memo.             
[...]
   73468    73467    73467    73467    73468    73468    73468    73468 
   73465    73469    73472    73469    73468    73469    73467    73467 
   73469    73467    73467    73471    73469    73464    73468    73471 
   73468    73468    73471    73469    73467    73464    73465    73471 
   73472    73468    73468    73468    73469    73468    73468    73471 
   73471    73468    73469    73469    73469    73468    73467    73468 
   73469    73467    73468    73468    73468    73468    73468    73468 
   73468    73467    73467    73467    73467    73469    73469    73468 
   73468    73469    73468    73468    73468    73469    73469    73469 
   73469    73468    73468    73467    73465    73464    73467    73468 
   73465    73464    73465    73467    73467    73469    73471    73468 
   73467    73468    73465    73465    73468    73467    73464    73465 
   73468    73468    73467    73468    73468    73464    73467    73469 
   73467    73467    73467    73467    73467    73468    73468    73468 
   73468    73467    73464    73465    73467    73467    73468    73467 
   73467    73468    73464    73462    73467    73468    73469    73468 
   73467    73468    73469    73468    73467    73468    73468    73467 
   73468    73471    73472    73469    73469    73468    73465    73468 
   73468    73464    73468    73471    73469    73465    73465    73467 
   73467    73467    73467    73469    73468    73465    73467    73468 
   73467    73468    73469    73468    73469    73471    73465    73465 
   73469    73469    73467    73467    73467    73465    73467    73468 
   73468    73469    73468    73465    73464    73467    73467    73467 
   73468    73467    73465    73467    73469    73468    73467    73464 
   73465    73467    73467    73467    73469    73469    73467    73467 
   73469    73468    73467    73467    73465    73465    73467    73468 
   73467    73465    73467    73468    73468    73467    73468    73468 
   73468    73467    73467    73468    73471    73471    73467    73467 
   73468    73468    73467    73467    73468    73468    73465    73467 
   73468    73468    73469    73471    73468    73467    73468    73468 
   73468    73469    73469    73467    73467    73468    73468    73468 
   73465    73465    73469    73471    73469    73469    73468    73467 
   73469    73468    73467    73467    73467    73467    73468    73468 
   73468    73468    73465    73467    73469    73468    73467    73468 
   73468    73469    73469    73468    73467    73467    73467    73467 
   73468    73467    73467    73468    73468    73465    73467    73468 
   73468    73464    73464    73469    73469    73467    73465    73467 
   73469    73468    73465    73467    73465    73465    73467    73467 
   73465    73464    73464    73467    73467    73465    73467    73467 
   73465    73467    73469    73468    73465    73465    73467    73468 
   73469    73468    73468    73468    73467    73468    73467    73467 
   73469    73467    73465    73468    73469    73468    73468    73468 
   73468    73469    73468    73465    73467    73467    73465    73469 
   73469    73468    73468    73467    73464    73467    73468    73468 
   73465    73465    73468    73469    73468    73467    73467    73468 
   73468    73468    73468    73467    73467    73469    73468    73468 
   73472    73471    73467    73467    73467    73467    73465    73464 
   73465    73467    73469    73468    73465    73465    73468    73465 
   73465    73468    73468    73467    73465    73464    73467    73469 
   73468    73467    73467    73468    73469    73469    73465    73464 
   73468    73469    73467    73465    73467    73467    73464    73464 
   73467    73467    73468    73467    73465    73465    73465    73468 
   73468    73465    73465    73468    73468    73469    73471    73468 
   73467    73468    73467    73465    73465    73467    73469    73469 
   73467    73465    73465    73468    73467    73467    73467    73467 
   73467    73467    73465    73468    73469    73467    73465    73468 
   73468    73468    73469    73468    73465    73465    73468    73468 
   73469    73469    73469    73469    73468    73468    73471    73469 
   73467    73465    73468    73469    73471    73467    73465    73468 
   73471    73468    73465    73465    73467    73465    73464    73467 
   73469    73468    73465    73467    73467    73467    73468    73469 
   73469    73468    73468    73468    73467    73467    73467    73467 
   73468    73469    73468    73468    73468    73467    73467    73468 
   73469    73468    73468    73469    73469    73471    73469    73468 
   73469    73468    73467    73468    73469    73468    73468    73469 
   73468    73468    73468    73467    73467    73467    73468    73468 
   73465    73468    73469    73467    73467    73468    73467    73467 
   73468    73468    73468    73469    73468    73468    73469    73469 
   73468    73467    73468    73468    73468    73469    73471    73471 
   73467    73467    73471    73469    73467    73467    73469    73471 
   73471    73467    73465    73468    73468    73467    73467    73469 
   73471    73469    73465    73464    73467    73468    73467    73469 
   73469    73467    73465    73465    73468    73467    73465    73467 
   73469    73467    73468    73469    73468    73468    73468    73468 
   73468    73468    73468    73469    73468    73468    73471    73469 
   73467    73468    73469    73468    73468    73467    73468    73468 
   73468    73468    73469    73469    73468    73468    73469    73471 
   73469    73467    73469    73471    73468    73467    73467    73467 
   73468    73469    73468    73469    73469    73465    73467    73471 
   73468    73468    73471    73468    73469    73472    73469    73468 
   73469    73469    73468    73468    73469    73468    73468    73468 
   73468    73469    73471    73469    73468    73468    73468    73467 
   73467    73468    73468    73469    73471    73468    73467    73467 
   73468    73471    73471    73468    73468    73468    73467    73468 
   73468    73467    73467    73468    73468    73468    73468    73468 
   73467    73467    73468    73468    73467    73467    73467    73468 
   73468    73467    73467    73469    73468    73465    73468    73471 
   73469    73469    73469    73467    73467    73467    73467    73467 
   73467    73468    73469    73469    73469    73471    73469    73467 
   73467    73468    73468    73468    73469    73468    73467    73468 
   73468    73465    73467    73468    73468    73469    73468    73467 
   73467    73465    73467    73469    73467    73465    73465    73467 
   73467    73465    73465    73467    73468    73469    73468    73468 
   73471    73469    73468    73467    73467    73465    73468    73468 
   73467    73467    73467    73465    73465    73458    73446    73423 
   73381    73325    73261    73209    73176    73180    73233    73294 
   73317    73319    73263    73076    72974    73199    73462    73417 
   73284    73233    72989    72733    73036    73473    73419    73608 
   74090    73583    72900    73557    74102    73646    73820    74270 
   73637    73579    74754    74163    71732    71604    73882    74547 
   73789    74376    74771    73340    72516    73121    73811    74804 
   75311    74020    72986    73558    73267    72083    73167    75011 
   74052    72593    73128    73616    73608    74193    74476    73893 
   73271    73326    73183    72411    73522    75007    73109    72416 
   74533    73529    71925    73329    73479    72628    73747    74676 
   74374    74594    74413    72775    72376    73827    73892    73170 
   74289    74858    73144    71811    71953    72651    73080    73128 
   73874    74721    74167    72932    72122    72291    73364    73616 
   72940    73408    74135    73560    73527    74123    73313    72432 
   72867    73394    73643    73526    73026    73414    74158    73418 
   72742    73716    74228    73792    73942    74201    73896    73263 
   72561    72396    72750    72805    72873    73507    73884    73714 
   73684    73602    73072    72905    73761    74430    74011    73291 
   72620    72301    72655    73079    73666    74186    74042    74245 
   74382    73264    72746    73626    73944    73896    74618    74602 
   73307    72860    73506    73813    73759    73623    73287    73133 
   73542    73831    73638    73849    73997    73678    74016    74105 
   73021    72438    72917    73278    73120    73075    73487    73602 
   73224    73345    73758    73473    73126    73593    73915    73255 
   72843    73376    73477    72964    73030    73334    73380    73791 
   74151    73508    72901    73372    73467    73013    73541    73859 
   73209    73437    74191    73899    73333    73211    72927    72928 
   73630    73710    73037    73170    73932    73882    73137    72858 
   73197    73673    74194    74510    74371    73693    72678    72755 
   73809    73525    73006    74218    74717    73780    73554    73538 
   73411    73897    74061    73670    73369    73041    72652    72438 
   72667    73288    73552    73264    73230    73415    73183    72887 
   72728    72511    72856    73685    73820    73264    72910    73026 
   73419    73602    73433    73504    73816    73801    73484    73174 
   73049    73188    73569    74163    74475    74281    74179    73943 
   73352    73353    73819    73966    73859    73650    73701    73905 
   73707    73468    73182    72601    72640    73399    73643    73318 
   73300    73407    73207    73074    73360    74019    74478    73926 
   73016    72999    73399    73257    72981    73538    74290    73988 
   73624    73863    73680    73349    73373    73454    73564    73537 
   73695    74146    74063    73630    73359    73187    73300    73431 
   73408    73441    72978    72038    71766    72472    73477    74137 
   74110    73904    74058    73885    73275    73211    73630    73874 
   73669    72956    72401    72679    73284    73367    73244    73542 
   73797    73797    73851    73711    73318    73070    73322    73681 
   73361    73329    74109    73822    72936    73589    74479    74164 
   73842    74007    74034    73954    74017    73924    73670    73822 
   73874    73060    72431    72690    72970    73167    73242    72814 
   72731    73095    73071    73288    74046    74241    73751    73338 
   73319    73538    73429    73018    72875    72841    72921    73326 
   73372    73012    73226    73696    73519    73461    74146    74449 
   74090    74174    74174    73020    72218    72854    73199    72852 
   73198    73791    73568    73136    73403    73932    74120    74277 
   74337    74194    74220    74137    73842    73633    73379    73199 
   73120    72983    73222    73747    73413    72269    72153    73244 
   73758    73387    73221    73388    73352    73456    73916    74042 
   73630    73002    72628    72991    73741    74324    74453    73804 
   73026    73008    73241    73372    73874    74256    73830    73209 
   72816    72611    72841    73134    73503    74229    74204    73514 
   73476    73364    72897    73537    74375    73921    73399    73118 
   72823    73300    73446    73016    73533    73931    73157    72620 
   72804    73067    73388    73479    73249    73384    73421    73080 
   73534    74255    74017    73461    73109    73325    74092    73934 
   73380    73801    73773    73471    74286    74231    73199    73539 
   73764    73062    73375    73543    72837    73118    73688    73383 
   72912    72558    72721    73666    74229    73692    73292    73845 
   74205    73930    73792    73689    73548    73680    73566    73213 
   73462    74032    74164    73881    73345    72971    73290    73786 
   73827    73839    73985    73560    72646    72536    73419    73700 
   72960    72520    72721    72985    73348    73819    74059    74061 
   73766    73269    73237    73641    73820    73743    73693    73796 
   73660    72901    72685    73562    73785    73225    73404    73738 
   73371    72929    72501    72037    72227    72874    73325    73981 
   74432    73758    73313    73907    74065    73784    73923    73853 
   73272    72850    72833    73044    73337    73529    73722    73904 
   73602    73264    73668    74167    74120    73985    74078    74069 
   73494    72828    73083    73676    73491    73138    73352    73735 
   74016    74293    74401    73913    73241    73386    73670    73091 
   72720    73174    73114    72419    72612    73375    73391    73218 
   73234    72978    73360    74297    73939    72958    72868    72808 
   72739    73396    73815    73649    73650    73734    73822    74169 
   74341    73930    73302    73030    73500    74333    74487    73971 
   73522    73178    73165    73673    74020    73649    72743    72524 
   73560    73989    73051    72744    73570    73800    73168    73020 
   73710    74262    73745    72895    73454    74467    73851    73246 
   74163    74556    74065    74279    74366    73318    72531    73039 
   73758    73421    72868    73111    72959    72465    72986    73296 
   72588    72422    72854    72620    72233    72445    72594    72963 
   73531    72750    71853    72825    74260    74999    75127    74845 
   75223    75489    74223    73452    74515    75216    74421    73707 
   74150    74650    74189    73523    73248    73084    72917    72393 
   70984    69473    69439    70175    70038    70224    71824    73481 
   74385    74444    74031    74533    75729    75656    74065    72732 
   72566    72832    73692    75681    77016    76249    74868    74236 
   74316    75123    75601    74372    72870    72935    73543    73606 
   73696    73973    74098    74483    74717    73665    72349    72027 
   72343    73488    74819    74680    73340    71869    71005    71327 
   72434    73886    74879    74034    72277    71614    71892    72203 
   72574    73327    73770    73390    73471    74159    74380    74439 
   74197    73727    74002    74108    73241    72438    72040    71937 
   72558    73276    72978    72615    73197    73506    73570    74475 
   74790    74164    74399    74657    74023    73915    74189    74221 
   74155    73276    72659    73661    74178    73435    73511    73981 
   73597    73573    74079    73998    73526    72828    71979    71537 
   71485    71767    72199    72478    72874    73368    73939    74236 
   73467    72501    72288    72546    73256    73446    72561    72396 
   73620    75309    76640    76435    75424    75505    75762    75055 
   74332    74017    73657    73059    72677    72893    73117    73089 
   73165    73487    73823    73261    72090    71720    71679    71309 
   70946    70317    70167    71332    72318    72534    73377    74794 
   75685    76048    76248    76297    75724    74283    73558    74337 
   74414    73260    72870    73265    73656    74440    75236    75262 
   75053    75004    74509    73719    73194    72732    72241    71903 
   72069    72968    73846    74008    73516    72902    73330    74575 
   74399    72782    72384    73325    73357    72669    72675    72746 
   72279    72026    71976    71965    72544    72921    72597    73055 
   74135    74547    74757    74911    74717    74690    74537    73819 
   73021    72384    71918    71668    71586    71965    72719    73089 
   73136    73387    73772    74193    74290    73894    73649    73431 
   73111    73515    74331    74582    74389    74129    74071    74360 
   74768    75192    75200    74409    73700    73546    73267    72921 
   72743    72640    73006    73508    73604    73735    73565    72796 
   72594    73025    73053    72916    73124    73403    73415    73244 
   73145    73183    73457    73723    73597    73573    73757    73765 
   73996    74058    73363    72852    72955    73075    72889    72559 
   72735    73461    73786    73570    73664    73746    73272    73442 
   74360    74422    73808    73545    73450    73187    72755    72462 
   72674    73045    73037    72809    72878    73294    73734    74032 
   74233    74471    74453    74143    74503    75062    74455    73596 
   73508    73499    73156    72837    72856    73111    73269    73234 
   73152    73145    73160    73122    73153    73300    73315    73113 
   73140    73597    73757    73434    73525    73892    73900    74092 
   74547    74557    74213    73938    74004    74313    74069    73327 
   73130    73441    73402    72871    72414    72480    72740    72501 
   72088    72327    72701    72523    72520    73089    73371    73082 
   72873    72883    73070    73761    74407    74410    74613    74992 
   74483    73822    73953    74077    73715    73404    73354    73149 
   72800    73084    73699    73669    73503    73769    74063    74070 
   73583    73083    73279    73434    73028    72832    72944    72978 
   73071    73203    73188    73205    73615    74028    73797    73611 
   74000    74164    73851    73534    73354    73431    73781    73876 
   73633    73776    74124    73909    73618    73799    73878    73622 
   73390    73210    73022    72839    72670    72786    73095    73238 
   73488    73884    73924    73676    73518    73468    73442    73462 
   73348    73040    72793    72674    72901    73514    73697    73376 
   73477    73788    73630    73496    73734    73892    73712    73483 
   73735    74187    74000    73554    73657    73846    73557    73381 
   73812    73849    72951    72623    73086    72901    72573    72878 
   73039    72967    72958    72873    73001    73394    73656    73764 
   73681    73309    73138    73531    73971    73827    73361    73353 
   73619    73491    73408    73858    74150    73745    73209    73264 
   73708    73957    73973    73885    73769    73622    73503    73753 
   73970    73704    73569    73433    73016    73140    73356    73013 
   73153    73604    73433    73363    73847    74294    74278    73859 
   73633    73734    73758    73583    73161    72666    72454    72621 
   72931    73001    73029    73361    73562    73425    73471    73796 
   73992    73950    73812    73822    74001    73769    73140    73074 
   73485    73368    72895    72920    73311    73438    73249    73111 
   73114    73144    73230    73292    73321    73499    73629    73426 
   73128    73151    73417    73417    73263    73477    73692    73558 
   73489    73449    73511    73857    73793    73525    73701    73600 
   73379    73797    73857    73314    73345    73596    73325    73125 
   73299    73413    73407    73623    73854    73693    73664    74004 
   73981    73714    73764    73788    73626    73572    73407    73151 
   73346    73649    73422    73238    73565    73784    73592    73457 
   73646    73842    73889    74089    74232    73996    73727    73494 
   73233    73201    73122    72805    72717    72913    73052    73045 
   73002    73170    73450    73375    73186    73434    73668    73631 
   73850    73876    73359    73225    73494    73499    73494    73600 
   73512    73342    73379    73673    73890    73707    73418    73364 
   73365    73174    72954    72986    73017    72821    72642    72516 
   72550    72932    73234    73186    73107    73259    73568    73629 
