Origin Time       2019/03/11 15:37:00
Lat.              33.2
Long.             132.7
Depth. (km)       40
Mag.              4.5
Station Code      EHMH13
Station Lat.      33.3719
Station Long.     132.1157
Station Height(m) -212
Record Time       2019/03/11 15:38:03
Sampling Freq(Hz) 100Hz
Duration Time(s)  120
Dir.              3
Scale Factor      2940(gal)/6170270
Max. Acc. (gal)   2.098
Last Correction   2019/03/11 15:37:48
Memo.             
[...]
   10900    10901    10901    10899    10899    10900    10899    10898 
   10900    10900    10899    10899    10899    10899    10900    10901 
   10898    10898    10899    10899    10899    10898    10900    10901 
   10899    10898    10898    10899    10900    10901    10901    10900 
   10901    10901    10898    10898    10898    10899    10900    10899 
   10898    10899    10898    10898    10898    10898    10899    10900 
   10900    10900    10900    10900    10899    10898    10901    10901 
   10898    10898    10900    10899    10898    10900    10899    10897 
   10899    10899    10899    10900    10900    10900    10899    10897 
   10899    10901    10900    10899    10899    10899    10900    10899 
   10898    10899    10899    10898    10900    10900    10897    10897 
   10899    10900    10902    10901    10901    10902    10901    10899 
   10899    10901    10902    10902    10900    10901    10903    10902 
   10902    10901    10900    10900    10901    10901    10901    10900 
   10901    10900    10900    10900    10899    10899    10900    10900 
   10900    10900    10901    10901    10901    10899    10899    10900 
   10899    10900    10901    10900    10901    10902    10901    10900 
   10899    10899    10900    10898    10899    10902    10902    10898 
   10897    10899    10901    10901    10900    10900    10899    10898 
   10899    10899    10900    10901    10899    10898    10901    10901 
   10900    10899    10899    10899    10899    10899    10900    10901 
   10900    10900    10901    10899    10898    10900    10901    10900 
   10899    10897    10897    10901    10902    10900    10899    10901 
   10900    10900    10900    10899    10899    10901    10902    10901 
   10900    10900    10900    10899    10899    10901    10900    10898 
   10897    10898    10900    10899    10898    10899    10900    10899 
   10900    10900    10898    10898    10899    10900    10901    10900 
   10899    10899    10900    10899    10900    10900    10900    10900 
   10900    10900    10901    10900    10899    10899    10900    10899 
   10899    10900    10900    10900    10900    10901    10901    10900 
   10899    10899    10900    10900    10899    10898    10899    10900 
   10900    10900    10901    10900    10900    10900    10901    10900 
   10899    10900    10901    10900    10899    10899    10900    10899 
   10898    10899    10900    10899    10897    10899    10901    10900 
   10900    10901    10901    10899    10899    10899    10901    10901 
   10899    10899    10900    10897    10898    10900    10899    10898 
   10901    10901    10898    10897    10899    10899    10898    10900 
   10901    10900    10898    10899    10900    10900    10900    10901 
   10899    10898    10899    10901    10899    10899    10900    10899 
   10898    10899    10900    10900    10900    10899    10901    10899 
   10898    10900    10901    10900    10900    10899    10899    10901 
   10900    10900    10902    10900    10898    10900    10900    10900 
   10902    10902    10899    10900    10902    10901    10900    10899 
   10898    10899    10900    10899    10899    10899    10898    10900 
   10900    10897    10897    10900    10899    10898    10902    10903 
   10900    10899    10900    10900    10900    10900    10899    10898 
   10900    10903    10903    10899    10897    10899    10900    10899 
   10900    10902    10899    10898    10901    10901    10900    10901 
   10899    10899    10899    10899    10901    10900    10899    10900 
   10899    10898    10900    10899    10897    10898    10900    10900 
   10900    10899    10899    10901    10900    10897    10898    10899 
   10897    10899    10900    10900    10900    10899    10899    10900 
   10899    10899    10900    10900    10900    10900    10899    10899 
   10898    10899    10899    10897    10899    10901    10899    10899 
   10900    10899    10897    10897    10898    10900    10901    10900 
   10899    10901    10900    10898    10899    10900    10900    10900 
   10899    10897    10898    10900    10899    10898    10900    10901 
   10898    10897    10899    10900    10898    10899    10899    10898 
   10899    10898    10897    10899    10898    10898    10900    10899 
   10898    10899    10898    10898    10899    10900    10899    10898 
   10898    10898    10899    10899    10898    10898    10899    10900 
   10900    10899    10899    10898    10897    10900    10900    10898 
   10898    10899    10899    10898    10900    10901    10898    10897 
   10899    10900    10899    10898    10899    10900    10899    10898 
   10898    10899    10901    10900    10897    10897    10898    10899 
   10899    10898    10899    10899    10900    10899    10899    10899 
   10899    10899    10898    10900    10900    10900    10899    10900 
   10901    10900    10898    10898    10898    10897    10898    10899 
   10899    10898    10897    10900    10900    10898    10897    10899 
   10901    10900    10898    10899    10899    10899    10899    10899 
   10899    10900    10901    10900    10898    10897    10896    10898 
   10900    10899    10897    10898    10898    10898    10898    10898 
   10897    10900    10900    10899    10899    10899    10898    10898 
   10898    10899    10900    10899    10897    10897    10897    10897 
   10898    10900    10901    10900    10898    10897    10897    10899 
   10900    10898    10898    10899    10899    10898    10897    10898 
   10898    10898    10898    10897    10897    10899    10899    10898 
   10899    10898    10899    10901    10898    10896    10898    10900 
   10899    10900    10900    10899    10899    10901    10901    10899 
   10899    10900    10899    10898    10899    10900    10900    10899 
   10898    10898    10898    10899    10900    10900    10899    10897 
   10899    10900    10898    10896    10899    10901    10899    10900 
   10908    10920    10940    10971    11003    11026    11031    11022 
   11010    11004    11015    11051    11108    11167    11217    11244 
   11171    10978    10824    10806    10808    10871    11063    11073 
   10786    10631    10733    10761    10663    10640    10686    10604 
   10402    10376    10600    10833    10872    10653    10481    10677 
   10870    10718    10604    10664    10563    10412    10492    10707 
   10852    10922    11055    11151    10996    10820    10935    10974 
   10800    11200    11854    11493    10741    10851    11296    11347 
   11439    11775    11473    10644    10735    11167    10619    10351 
   11056    11213    10857    11234    11482    10693    10151    10512 
   10870    10885    10993    11059    10733    10531    10767    10963 
   10824    10607    10718    11004    11077    11115    11171    10819 
   10401    10625    10935    10806    10847    11102    11115    10937 
   10598    10418    10867    11289    11057    10839    10989    10941 
   10660    10685    10990    11083    10939    10900    10892    10829 
   11004    11150    10945    10839    10857    10776    10827    10944 
   10981    11010    11059    11187    11156    10792    10612    10814 
   10975    11029    11027    10918    10840    10790    10815    11087 
   11363    11192    10699    10579    10854    11004    11129    11233 
   11138    11032    10880    10889    11225    11317    11124    10978 
   10804    10734    10754    10631    10620    10848    11021    11051 
   10936    10713    10613    10560    10538    10806    10946    10707 
   10711    10821    10641    10627    10727    10681    10765    10866 
   10866    10927    10918    10906    11054    11047    10843    10811 
   10894    10942    11075    11203    11218    11100    10752    10515 
   10752    11044    10954    10701    10677    10915    11090    11067 
   11090    11122    10947    10731    10708    10907    11128    11119 
   11029    11114    11219    11160    11007    10741    10558    10745 
   10899    10751    10681    10752    10718    10617    10570    10610 
   10721    10770    10770    10861    11005    11138    11172    10986 
   10796    10879    11113    11281    11298    11194    11081    10930 
   10785    10871    10966    10821    10817    10923    10847    10910 
   11040    10974    10975    10955    10793    10716    10654    10686 
   10958    11171    11136    10791    10378    10493    10961    11097 
   10922    10852    10892    10853    10772    10717    10680    10684 
   10791    10915    10886    10901    11130    11146    10849    10833 
   11070    11101    11108    11131    10908    10661    10662    10848 
   11092    11288    11274    11009    10832    10855    10741    10658 
   10916    11138    11162    11171    11076    10901    10764    10779 
   10955    10892    10708    10914    11140    11079    11013    10853 
   10638    10676    10781    10731    10578    10531    10738    10842 
   10706    10748    10904    10801    10644    10836    11136    11090 
   10976    11065    10995    10910    11172    11280    10927    10719 
   10931    11029    10777    10602    10720    10965    11168    11205 
   11152    11128    11030    10886    10849    10812    10734    10865 
   11084    10952    10635    10570    10712    10843    10845    10779 
   10885    11035    10934    10881    11004    10917    10726    10774 
   10991    11117    10980    10796    10814    10837    10808    10956 
   11097    10897    10616    10719    11050    11096    10982    11041 
   11068    11059    11115    10994    10759    10718    10912    11072 
   10993    10864    10807    10756    10773    10823    10777    10732 
   10898    11125    11037    10774    10722    10858    10942    10964 
   11054    11032    10839    10865    10994    10826    10624    10695 
   10900    11068    11093    10935    10742    10741    10853    10751 
   10718    11064    11192    10930    10845    10900    10804    10801 
   10968    10948    10878    11011    11112    11134    11141    11080 
   10974    10823    10688    10639    10680    10771    10809    10797 
   10800    10843    10944    11032    11060    10967    10705    10592 
   10828    11010    10886    10801    10979    11133    11084    11058 
   11097    11014    10931    10984    10960    10786    10673    10753 
   10920    10959    10886    10852    10846    10892    10931    10784 
   10668    10792    10913    10941    10972    10927    10858    10948 
   11050    10899    10769    10933    10982    10714    10526    10710 
   11134    11358    11235    11086    11009    10894    10821    10821 
   10839    10845    10725    10658    10902    11108    10999    10921 
   11021    11047    10984    10954    10844    10653    10624    10804 
   10996    11070    11025    10965    10947    10855    10851    11060 
   11008    10698    10692    10840    10799    10737    10831    11082 
   11305    11251    11005    10869    10935    10957    10766    10692 
   10802    10731    10626    10692    10695    10651    10763    10940 
   10957    10929    11042    11036    10945    10981    10936    10928 
   11105    11123    11030    10999    10878    10798    10862    10879 
   10880    10915    10929    10962    10954    10936    10932    10744 
   10613    10762    10838    10875    11124    11290    11186    11045 
   10868    10644    10648    10818    10937    10983    10898    10801 
   10729    10571    10571    10779    10919    10984    10956    10765 
   10650    10815    11138    11291    11111    10907    10863    10730 
   10588    10753    11065    11217    11128    10877    10763    10841 
   10854    10873    10982    11026    10975    10868    10822    10928 
   11057    11050    10920    10767    10656    10698    10842    10987 
   11198    11216    10906    10692    10721    10876    11056    11072 
   10993    10914    10817    10891    11092    11147    11119    11134 
   11068    10827    10526    10390    10502    10681    10787    10846 
   10840    10831    10897    10935    10903    10807    10657    10684 
   10936    11084    11051    11046    11056    10958    10785    10706 
   10843    11037    11059    10965    10967    11048    10994    10937 
   11027    10992    10919    10957    10802    10690    10934    11079 
   10980    10955    11022    11088    11015    10718    10487    10586 
   10733    10624    10609    10975    11326    11331    11118    10878 
   10658    10522    10577    10749    10929    11143    11263    11219 
   11138    10972    10792    10827    10890    10808    10746    10691 
   10624    10728    10955    11119    11129    11030    11035    11081 
   10889    10644    10754    11117    11283    11168    11071    11023 
   10866    10789    10914    10940    10755    10587    10602    10747 
   10875    10939    11045    11249    11356    11219    11054    11005 
   10945    10886    10941    11051    11006    10707    10531    10802 
   11189    11340    11270    11012    10663    10470    10509    10570 
   10634    10897    11232    11319    11085    10735    10485    10323 
   10308    10601    11026    11313    11423    11334    10963    10440 
   10127    10029     9849     9644     9598     9644     9574     9383 
    9378     9436     9232     8912     8562     8426     8913     9780 
   10505    10847    10872    11010    11734    13015    14208    14504 
   13556    11902    10509     9771     9614    10208    11504    12556 
   12546    12076    12043    12421    12991    13485    13300    12127 
   10385     9015     8825    10002    12205    14414    15302    14686 
   13662    12977    12569    12274    11681    10373     8939     8464 
    9228    10623    11942    12815    13126    12953    12497    11840 
   10950    10080     9509     9120     8953     9242     9851    10441 
   10625    10297     9913     9743     9442     8998     9173    10101 
   10800    10873    10763    10673    10728    10959    11094    11084 
   10973    10490     9863     9951    10548    10595    10364    10671 
   11089    11072    10859    10702    10527    10255     9922     9649 
    9593     9771    10231    11053    11843    11963    11463    10971 
   10530    10033     9940    10438    11216    11761    11702    11387 
   11203    10977    10654    10465    10543    10794    10982    11142 
   11483    11797    11859    11888    11950    11795    11455    11201 
   11084    11004    10897    10756    10704    10863    11147    11360 
   11252    10801    10329    10132    10362    10859    11211    11376 
   11423    11212    10873    10613    10375    10195    10199    10291 
   10324    10401    10565    10630    10653    10882    11240    11471 
   11502    11351    10999    10510    10097     9962    10154    10584 
   10965    11083    11039    10901    10853    11164    11500    11546 
   11477    11231    10838    10708    10826    10890    10914    10887 
   10707    10541    10540    10594    10622    10695    10831    10913 
   10904    10947    11209    11559    11669    11610    11607    11580 
   11430    11119    10741    10390     9935     9731    10227    10904 
   11137    10967    10679    10517    10536    10567    10524    10547 
   10777    11247    11755    11949    11737    11434    11395    11371 
   10966    10553    10537    10698    10766    10683    10623    10745 
   10803    10748    10893    11090    10981    10761    10844    11223 
   11537    11536    11324    11162    11116    11014    10820    10650 
   10511    10473    10657    10948    11165    11303    11406    11529 
   11709    11698    11232    10585    10231    10284    10543    10789 
   10962    11098    11175    11145    11024    10885    10786    10683 
   10517    10452    10636    10826    10913    11096    11232    11088 
   10894    10902    10928    10690    10309    10211    10511    10817 
   10944    11088    11165    11090    11041    10965    10741    10442 
   10280    10442    10670    10725    10875    11048    10864    10630 
   10674    10682    10621    10675    10699    10703    10770    10820 
   10838    10742    10523    10399    10489    10660    10754    10822 
   10824    10595    10309    10260    10534    10950    11116    11031 
   11049    11159    11247    11424    11528    11335    11105    11059 
   11077    11127    11214    11216    11174    11211    11245    11268 
   11303    11221    11093    10969    10793    10741    10811    10851 
   10934    10994    10956    10993    11101    11123    11068    11088 
   11239    11243    10980    10786    10805    10909    10977    10944 
   10889    10874    10934    11070    11127    11094    11076    11112 
   11256    11364    11271    11131    11039    10948    10936    11060 
   11155    11068    10916    10827    10797    10873    10939    10827 
   10640    10492    10495    10708    10917    10969    10884    10670 
   10414    10331    10540    10749    10610    10316    10267    10410 
   10348    10094    10055    10266    10518    10739    10843    10888 
   10960    10908    10798    10799    10826    10879    11011    11181 
   11332    11401    11471    11559    11458    11257    11266    11377 
   11317    11239    11352    11393    11164    11001    11088    11105 
   10951    10906    11042    11143    11051    10932    11051    11172 
   10907    10523    10373    10355    10339    10218     9975     9906 
   10135    10401    10563    10660    10638    10538    10506    10561 
   10702    10876    10949    10958    10961    10923    10959    11117 
   11273    11387    11445    11481    11557    11608    11648    11708 
   11603    11318    11124    11057    11020    11053    11084    11009 
   10877    10740    10624    10567    10628    10809    10997    11097 
   10984    10737    10690    10755    10730    10765    10814    10723 
   10534    10365    10334    10447    10592    10653    10673    10769 
   10863    10853    10815    10843    10860    10788    10726    10726 
   10768    10943    11217    11311    11177    11066    11045    11008 
   10982    11037    11105    11061    10950    10942    10990    10968 
   10978    11098    11203    11117    10886    10728    10632    10552 
   10577    10705    10880    10994    10939    10782    10653    10600 
   10577    10574    10614    10605    10488    10471    10740    11049 
   11137    11219    11428    11485    11285    11101    11110    11222 
   11292    11299    11301    11292    11266    11287    11341    11316 
   11244    11248    11229    11122    11055    11036    11013    11032 
   11109    11095    10896    10711    10679    10728    10866    11060 
   11107    10919    10612    10351    10286    10364    10424    10513 
   10630    10641    10570    10509    10477    10509    10645    10755 
   10713    10598    10549    10691    10908    10942    10952    11049 
   11027    10979    11017    11032    11079    11187    11185    11063 
   10982    10964    10985    11065    11065    10906    10762    10733 
   10719    10647    10572    10578    10649    10726    10719    10646 
   10648    10701    10753    10934    11143    11072    10866    10880 
   11036    11113    11053    10890    10800    10905    11089    11160 
   11103    11078    11055    10929    10787    10668    10616    10734 
   10907    11014    11086    11112    11034    10895    10840    10852 
   10805    10762    10778    10832    11011    11247    11272    11075 
