Origin Time       2019/03/11 15:37:00
Lat.              33.2
Long.             132.7
Depth. (km)       40
Mag.              4.5
Station Code      EHMH05
Station Lat.      33.7112
Station Long.     132.8032
Station Height(m) 6
Record Time       2019/03/11 15:38:02
Sampling Freq(Hz) 100Hz
Duration Time(s)  120
Dir.              3
Scale Factor      2942(gal)/8224139
Max. Acc. (gal)   1.573
Last Correction   2019/03/11 15:37:47
Memo.             
[...]
 -520839  -520840  -520839  -520836  -520839  -520843  -520840  -520840 
 -520842  -520842  -520840  -520842  -520844  -520846  -520843  -520842 
 -520843  -520842  -520840  -520842  -520842  -520840  -520842  -520842 
 -520839  -520840  -520842  -520838  -520836  -520842  -520840  -520839 
 -520839  -520838  -520838  -520839  -520842  -520842  -520839  -520838 
 -520840  -520839  -520836  -520838  -520839  -520839  -520839  -520839 
 -520840  -520842  -520840  -520836  -520836  -520835  -520836  -520840 
 -520839  -520839  -520839  -520836  -520836  -520839  -520840  -520840 
 -520840  -520839  -520839  -520838  -520836  -520838  -520840  -520838 
 -520836  -520838  -520838  -520839  -520842  -520840  -520839  -520839 
 -520839  -520838  -520838  -520839  -520840  -520842  -520843  -520843 
 -520840  -520842  -520842  -520839  -520839  -520842  -520842  -520840 
 -520840  -520842  -520842  -520840  -520839  -520842  -520844  -520843 
 -520843  -520843  -520842  -520843  -520844  -520843  -520843  -520846 
 -520844  -520842  -520842  -520840  -520840  -520843  -520843  -520843 
 -520842  -520840  -520840  -520842  -520842  -520840  -520838  -520838 
 -520838  -520840  -520842  -520840  -520840  -520842  -520842  -520842 
 -520839  -520839  -520842  -520842  -520839  -520842  -520843  -520840 
 -520839  -520842  -520839  -520838  -520842  -520846  -520842  -520839 
 -520840  -520839  -520835  -520839  -520844  -520842  -520839  -520839 
 -520842  -520840  -520840  -520839  -520839  -520839  -520839  -520836 
 -520838  -520843  -520840  -520839  -520844  -520842  -520839  -520840 
 -520840  -520838  -520839  -520840  -520840  -520840  -520838  -520838 
 -520839  -520839  -520839  -520840  -520839  -520839  -520840  -520840 
 -520839  -520839  -520840  -520839  -520839  -520840  -520840  -520842 
 -520843  -520839  -520838  -520840  -520840  -520839  -520840  -520843 
 -520843  -520840  -520840  -520840  -520840  -520839  -520840  -520839 
 -520836  -520838  -520840  -520842  -520840  -520839  -520839  -520839 
 -520839  -520839  -520842  -520843  -520840  -520840  -520842  -520839 
 -520839  -520839  -520839  -520842  -520840  -520836  -520838  -520842 
 -520840  -520839  -520839  -520842  -520843  -520842  -520838  -520839 
 -520843  -520842  -520839  -520839  -520840  -520840  -520842  -520843 
 -520840  -520840  -520843  -520842  -520839  -520839  -520840  -520839 
 -520839  -520839  -520839  -520840  -520839  -520839  -520839  -520839 
 -520840  -520843  -520842  -520839  -520842  -520843  -520840  -520839 
 -520843  -520843  -520840  -520839  -520838  -520838  -520839  -520839 
 -520838  -520836  -520838  -520838  -520836  -520836  -520838  -520839 
 -520838  -520839  -520840  -520842  -520843  -520844  -520843  -520842 
 -520842  -520843  -520842  -520840  -520838  -520839  -520842  -520839 
 -520838  -520839  -520839  -520839  -520840  -520843  -520842  -520838 
 -520838  -520838  -520840  -520840  -520840  -520842  -520842  -520842 
 -520840  -520839  -520839  -520839  -520839  -520838  -520836  -520838 
 -520838  -520838  -520838  -520838  -520839  -520840  -520840  -520839 
 -520838  -520839  -520840  -520842  -520842  -520840  -520836  -520835 
 -520838  -520838  -520836  -520838  -520838  -520839  -520843  -520840 
 -520838  -520840  -520842  -520838  -520838  -520840  -520839  -520838 
 -520839  -520839  -520838  -520838  -520839  -520840  -520839  -520838 
 -520840  -520839  -520835  -520838  -520840  -520839  -520838  -520835 
 -520835  -520836  -520836  -520838  -520839  -520838  -520838  -520840 
 -520840  -520839  -520836  -520838  -520838  -520835  -520835  -520838 
 -520839  -520838  -520836  -520835  -520834  -520835  -520838  -520838 
 -520838  -520838  -520839  -520839  -520836  -520835  -520838  -520836 
 -520834  -520835  -520836  -520835  -520834  -520834  -520836  -520838 
 -520838  -520840  -520838  -520835  -520836  -520836  -520838  -520839 
 -520836  -520834  -520835  -520836  -520836  -520836  -520836  -520836 
 -520835  -520836  -520836  -520835  -520836  -520835  -520834  -520836 
 -520839  -520838  -520839  -520839  -520838  -520838  -520838  -520836 
 -520836  -520835  -520835  -520835  -520834  -520834  -520835  -520838 
 -520835  -520834  -520834  -520835  -520836  -520836  -520834  -520832 
 -520832  -520832  -520834  -520835  -520835  -520836  -520834  -520834 
 -520836  -520835  -520834  -520835  -520836  -520836  -520836  -520836 
 -520836  -520838  -520838  -520836  -520835  -520836  -520836  -520838 
 -520836  -520835  -520838  -520838  -520836  -520838  -520838  -520836 
 -520836  -520835  -520835  -520838  -520839  -520836  -520835  -520835 
 -520835  -520835  -520836  -520835  -520834  -520835  -520838  -520839 
 -520839  -520838  -520836  -520835  -520836  -520836  -520836  -520836 
 -520838  -520839  -520840  -520839  -520838  -520840  -520842  -520839 
 -520836  -520838  -520838  -520840  -520840  -520838  -520839  -520840 
 -520838  -520838  -520839  -520840  -520842  -520842  -520839  -520838 
 -520838  -520836  -520838  -520838  -520836  -520834  -520835  -520838 
 -520838  -520836  -520842  -520840  -520838  -520840  -520840  -520834 
 -520835  -520839  -520839  -520838  -520839  -520842  -520840  -520838 
 -520838  -520838  -520838  -520839  -520836  -520836  -520839  -520839 
 -520836  -520839  -520843  -520840  -520836  -520839  -520839  -520839 
 -520842  -520840  -520839  -520840  -520842  -520839  -520839  -520839 
 -520838  -520839  -520839  -520838  -520839  -520842  -520840  -520839 
 -520838  -520836  -520838  -520838  -520836  -520838  -520838  -520836 
 -520838  -520835  -520835  -520839  -520839  -520839  -520839  -520836 
 -520836  -520839  -520840  -520839  -520838  -520840  -520840  -520836 
 -520836  -520840  -520842  -520839  -520838  -520842  -520843  -520838 
 -520838  -520840  -520839  -520839  -520839  -520836  -520838  -520839 
 -520838  -520838  -520836  -520836  -520840  -520843  -520839  -520842 
 -520850  -520857  -520870  -520893  -520920  -520948  -520975  -521002 
 -521025  -521055  -521097  -521122  -521120  -521114  -521104  -521093 
 -521109  -521086  -520983  -520927  -520942  -520871  -520670  -520507 
 -520587  -520904  -521197  -521164  -520778  -520325  -519972  -519932 
 -520474  -521063  -521002  -520477  -519848  -519475  -519891  -521033 
 -522038  -522127  -521437  -520584  -520029  -520017  -520182  -520329 
 -520882  -521314  -521019  -521028  -521738  -521769  -520885  -520249 
 -520101  -520528  -521376  -520978  -519679  -519839  -520827  -521233 
 -521505  -521333  -520703  -520474  -520318  -520333  -521235  -521802 
 -520717  -519612  -520242  -521433  -521698  -521274  -521322  -521997 
 -521594  -520230  -519798  -520204  -521039  -521896  -521546  -520780 
 -520773  -520684  -520456  -520739  -521143  -521172  -520628  -520091 
 -520473  -521382  -521695  -520971  -520107  -520015  -520504  -521282 
 -521723  -521251  -520364  -520141  -520857  -521187  -520751  -520470 
 -520415  -520754  -521144  -520747  -520271  -520396  -520985  -521679 
 -521452  -520568  -520697  -521479  -521434  -520711  -520013  -519933 
 -520537  -520981  -521230  -521419  -521041  -520728  -520927  -520715 
 -520434  -520773  -521054  -521272  -521280  -520605  -520545  -521345 
 -521480  -520919  -520221  -519909  -520731  -521610  -521403  -520809 
 -520389  -520476  -520893  -520931  -520879  -520777  -520483  -520696 
 -521299  -521563  -521195  -520538  -520393  -520720  -520935  -520920 
 -520693  -520584  -520863  -520852  -520392  -520519  -521071  -521058 
 -520817  -520757  -520684  -520614  -520531  -520726  -521175  -521010 
 -520566  -520774  -520924  -520690  -520811  -520917  -520711  -520776 
 -520879  -520776  -520978  -521189  -520869  -520696  -521055  -521218 
 -520986  -520898  -520944  -520832  -520966  -521274  -520889  -520379 
 -520659  -520817  -520686  -521139  -521405  -521028  -520904  -520978 
 -520608  -520159  -520411  -520900  -521102  -521380  -521145  -520500 
 -520634  -520896  -520591  -520387  -520337  -520396  -520973  -521418 
 -521075  -520827  -520970  -520912  -520808  -520738  -520811  -521082 
 -520985  -520682  -520422  -520142  -520535  -521356  -521525  -521163 
 -520862  -520859  -520948  -520732  -520593  -520815  -520916  -520771 
 -520666  -520852  -521220  -521368  -521144  -520659  -520464  -520753 
 -520867  -520863  -520919  -520542  -520204  -520662  -521465  -521776 
 -521432  -520971  -520759  -520865  -521137  -521094  -520955  -521371 
 -522103  -522300  -521276  -519709  -519185  -519702  -520277  -520682 
 -520965  -521112  -520786  -519988  -519513  -519601  -520110  -520649 
 -520776  -521121  -521611  -521244  -520454  -520155  -520407  -521100 
 -521700  -521353  -520582  -520757  -521479  -521569  -521235  -520796 
 -520294  -520342  -520989  -521683  -522050  -521567  -520466  -519874 
 -520057  -520553  -520955  -520882  -520488  -520360  -520523  -520526 
 -520703  -521445  -521602  -520881  -520630  -520766  -520712  -520736 
 -520573  -520337  -520705  -521488  -522116  -522104  -521328  -520696 
 -520786  -520831  -520476  -520126  -520126  -520677  -520948  -520411 
 -520106  -520280  -520500  -520865  -521068  -521051  -521009  -520840 
 -521152  -522070  -522443  -521893  -521039  -520437  -520383  -520624 
 -520601  -520445  -520712  -520979  -520796  -520634  -520368  -520029 
 -520314  -520843  -521013  -520927  -520888  -521066  -520905  -520334 
 -520146  -520466  -521081  -521642  -521590  -521209  -521160  -521325 
 -521325  -521298  -521340  -521310  -521391  -521406  -520966  -520550 
 -520385  -520121  -520101  -520551  -520771  -520427  -520109  -520149 
 -520345  -520677  -520713  -520083  -519879  -520565  -520958  -520897 
 -521239  -521835  -521954  -521702  -521463  -521175  -521089  -521221 
 -520905  -520438  -520577  -520520  -519702  -519403  -519744  -519813 
 -520254  -520844  -520520  -520372  -520982  -521275  -521445  -521872 
 -521915  -521743  -521743  -521299  -520503  -520568  -521434  -521707 
 -521081  -520365  -520006  -520186  -520994  -521810  -521731  -521046 
 -521039  -521641  -521488  -520553  -519679  -519254  -519651  -520389 
 -520680  -520654  -520264  -519886  -520210  -520541  -520641  -520861 
 -520707  -520858  -521847  -522088  -521540  -521598  -521653  -521182 
 -521156  -521457  -521249  -520870  -520862  -520936  -520816  -520646 
 -520510  -520538  -520458  -519841  -519619  -520299  -520774  -520940 
 -521274  -521522  -521503  -520947  -520339  -520641  -521303  -521371 
 -521087  -521136  -521287  -520936  -520380  -520001  -520207  -521186 
 -521499  -520618  -520231  -520867  -521426  -521386  -521121  -520828 
 -520335  -520042  -520446  -521075  -521105  -520408  -519971  -520326 
 -520526  -520458  -520803  -521222  -521376  -521085  -520604  -520692 
 -520877  -520798  -520816  -520607  -520447  -520817  -521112  -520784 
 -520098  -520156  -521275  -522022  -521923  -521878  -521915  -521880 
 -521943  -521648  -521118  -521014  -520727  -519909  -519606  -520157 
 -520530  -520015  -519324  -519319  -519574  -519600  -520064  -521268 
 -522054  -521968  -522084  -522031  -520966  -520534  -521056  -520851 
 -520631  -520985  -520858  -520904  -521613  -521787  -521340  -521097 
 -521214  -521452  -521637  -521660  -521118  -520236  -519926  -519875 
 -519566  -519700  -520364  -520835  -520902  -520541  -520175  -520473 
 -520771  -520655  -521075  -521586  -521143  -520622  -520566  -520419 
 -520551  -521000  -520888  -520700  -521257  -521899  -521991  -521590 
 -520971  -520753  -520719  -520443  -520873  -521688  -521422  -520592 
 -520029  -520022  -520730  -520956  -520462  -520596  -521033  -520966 
 -520840  -520726  -520461  -520431  -520884  -521283  -520927  -520300 
 -520107  -520366  -521135  -521629  -521239  -520982  -521063  -520812 
 -520623  -520674  -520793  -521110  -521075  -520615  -520654  -520982 
 -520844  -520604  -520740  -521047  -521338  -521417  -521017  -520788 
 -521122  -521128  -520719  -520487  -520180  -519871  -520176  -520765 
 -520730  -520457  -520885  -521225  -520808  -520645  -521048  -521249 
 -521001  -520649  -520630  -521174  -521529  -521019  -520840  -521305 
 -520996  -520416  -520695  -521197  -521244  -520840  -520315  -520188 
 -520553  -520958  -520986  -520865  -521014  -520919  -520314  -520379 
 -521257  -521378  -520657  -520477  -520842  -520932  -520851  -520865 
 -520863  -520761  -520611  -520805  -521337  -521422  -521083  -520888 
 -520727  -520842  -521101  -520735  -520543  -521141  -521392  -520969 
 -520530  -520358  -520553  -520716  -520393  -520288  -520642  -520688 
 -520773  -521114  -520940  -520496  -520549  -521071  -521418  -521179 
 -520798  -520603  -520480  -520682  -521230  -521498  -521359  -521320 
 -521299  -521101  -520973  -520847  -520824  -521017  -520716  -520040 
 -520164  -520722  -520755  -520809  -520753  -520180  -520206  -520819 
 -521163  -521522  -521529  -520942  -520871  -521090  -520578  -520048 
 -520342  -520915  -521036  -520825  -520358  -519538  -519444  -520346 
 -520673  -520357  -520442  -520713  -520894  -521093  -521000  -520830 
 -521306  -522026  -522247  -522151  -521888  -521522  -521436  -521573 
 -521452  -520969  -520488  -520377  -520686  -521037  -521110  -520917 
 -520530  -520142  -520237  -520998  -521429  -520592  -519380  -518892 
 -518827  -518960  -519223  -519091  -519374  -520827  -521824  -521428 
 -520619  -520350  -520969  -521537  -521109  -520435  -520252  -520566 
 -521630  -523273  -524400  -524512  -524684  -525241  -524997  -524061 
 -523332  -522945  -522732  -521580  -519654  -519030  -519075  -518271 
 -518089  -519150  -520041  -520403  -520609  -520728  -520137  -518597 
 -517868  -518736  -519652  -520145  -520697  -520773  -520092  -519628 
 -519894  -520596  -521478  -521676  -521094  -520587  -519813  -518838 
 -518239  -518136  -519457  -521800  -523206  -523243  -522489  -521811 
 -521937  -522238  -522180  -522005  -521617  -520912  -520155  -519799 
 -519926  -520214  -520869  -521580  -521040  -519188  -517854  -518505 
 -519957  -520064  -519160  -518911  -519650  -520614  -521141  -521205 
 -521226  -521648  -522436  -523368  -523963  -523330  -522126  -521914 
 -522292  -522173  -521351  -520380  -520596  -521626  -521808  -521756 
 -522077  -521908  -521255  -520368  -519732  -519741  -519330  -518417 
 -518281  -518800  -518921  -518659  -519265  -520649  -520924  -520209 
 -519952  -519895  -519799  -520210  -521210  -522510  -523351  -523241 
 -522632  -522142  -522066  -522076  -522047  -522413  -522533  -521853 
 -521343  -521110  -520350  -519772  -520264  -520747  -520133  -519050 
 -518435  -519039  -521021  -522694  -522482  -521360  -521058  -521332 
 -521168  -520607  -520105  -520194  -520744  -520981  -520985  -521170 
 -521379  -521054  -520564  -521197  -521873  -520931  -520009  -520379 
 -520689  -520110  -519319  -519223  -519315  -518887  -519048  -519585 
 -519212  -519099  -519951  -520635  -520859  -520901  -521046  -521399 
 -521302  -520819  -521122  -522211  -522790  -522549  -522051  -521382 
 -521031  -521428  -521878  -522115  -522104  -521723  -521762  -522113 
 -521550  -520543  -520727  -521843  -522084  -521602  -521746  -521788 
 -521448  -522004  -522437  -521127  -519658  -520065  -521044  -520434 
 -519146  -518998  -519802  -520414  -520366  -520227  -520449  -520886 
 -520927  -520339  -520383  -521098  -520812  -519914  -519874  -520407 
 -520587  -520450  -520566  -520879  -520929  -520693  -520769  -521283 
 -521361  -521063  -520983  -520732  -520423  -520447  -520304  -520038 
 -520194  -520431  -520638  -521144  -521095  -520144  -519818  -520462 
 -520750  -520391  -520191  -520653  -521106  -520685  -520165  -520531 
 -521364  -521823  -521316  -520461  -520569  -521001  -520600  -520180 
 -520537  -521100  -521287  -521384  -522019  -522686  -522305  -521417 
 -521368  -522059  -522558  -522279  -521303  -520712  -520913  -520959 
 -520520  -519970  -519623  -519694  -520130  -520435  -520009  -519613 
 -520419  -521460  -521397  -520742  -520429  -520585  -520900  -521037 
 -520851  -520543  -520685  -521395  -521707  -521376  -521252  -521181 
 -521012  -521162  -521133  -521032  -521434  -521760  -521760  -521621 
 -521183  -520722  -520419  -520083  -519994  -520392  -520828  -520861 
 -520595  -520393  -520587  -521097  -521382  -521260  -521117  -520921 
 -520538  -520470  -520638  -520481  -520245  -520069  -519808  -519822 
 -520156  -520195  -519740  -519372  -519366  -519427  -519678  -520015 
 -520005  -520173  -520754  -520959  -520805  -521004  -521329  -521357 
 -521422  -521480  -521519  -521982  -522313  -522019  -521525  -521189 
 -521452  -521874  -521442  -520807  -520939  -521368  -521718  -521915 
 -521484  -520884  -520857  -520821  -520489  -520399  -520480  -520403 
 -520260  -520381  -520699  -520728  -520655  -520948  -521251  -521027 
 -520657  -520804  -521275  -521457  -521348  -521398  -521448  -521336 
 -521433  -521343  -521280  -521981  -521993  -520931  -520823  -521380 
 -521344  -521228  -521036  -520591  -520412  -520325  -520132  -520167 
 -520528  -520959  -521100  -520986  -520722  -520392  -520461  -520793 
 -520932  -521070  -521210  -521073  -520844  -520924  -521266  -521255 
 -520842  -520672  -520527  -520103  -519901  -519758  -519313  -519115 
 -519373  -519632  -519646  -519493  -519682  -520346  -520742  -520746 
 -520732  -520632  -520654  -520897  -520974  -520850  -520789  -520913 
 -521078  -521067  -520967  -520912  -520761  -520564  -520630  -520992 
 -521352  -521283  -520680  -520122  -520226  -520767  -521243  -521538 
 -521484  -521301  -521434  -521472  -521395  -521711  -521762  -521278 
 -521307  -521741  -521613  -521117  -520796  -520786  -521077  -521356 
 -521411  -521271  -521056  -521062  -521205  -521243  -521214  -521040 
 -520924  -521098  -521149  -521025  -520923  -520603  -520470  -520832 
 -520796  -520420  -520614  -520680  -520207  -520298  -520738  -520612 
 -520443  -520524  -520352  -520202  -520488  -520844  -520928  -520780 
 -520657  -520704  -520762  -520804  -520909  -520925  -520858  -520902 
 -520673  -520030  -519966  -520600  -521005  -521032  -520890  -520812 
 -521044  -521244  -521174  -521079  -520978  -520682  -520426  -520665 
 -521068  -520878  -520438  -520659  -521233  -521464  -521467  -521108 
 -520618  -520817  -521106  -520834  -520784  -521086  -521059  -521010 
 -521502  -521768  -521244  -520885  -521063  -521154  -520955  -520705 
 -520796  -520943  -520627  -520445  -520751  -520873  -520375  -519829 
 -520202  -520950  -520921  -520547  -520476  -520573  -520735  -520863 
 -520846  -520699  -520659  -520828  -520884  -520898  -520987  -520898 
 -520848  -520955  -520905  -520531  -520047  -520179  -520842  -521086 
 -520970  -520952  -521062  -521209  -521194  -521046  -520990  -521426 
 -522117  -522093  -521572  -521414  -521681  -521892  -521618  -521260 
 -521232  -521222  -521136  -521035  -520875  -520769  -520681  -520558 
 -520526  -520674  -520933  -520832  -520348  -520183  -520165  -519829 
 -519504  -519355  -519604  -520138  -520098  -519728  -520036  -520686 
 -520744  -520291  -519993  -520083  -520402  -520659  -520659  -520518 
 -520541  -520901  -521106  -520821  -520755  -521175  -521523  -521456 
 -520938  -520469  -520457  -520738  -521185  -521384  -521054  -520700 
