Origin Time       2019/01/21 23:17:00
Lat.              32.872
Long.             132.332
Depth. (km)       33
Mag.              4.4
Station Code      EHMH01
Station Lat.      33.0556
Station Long.     132.5552
Station Height(m) 275
Record Time       2019/01/21 23:17:22
Sampling Freq(Hz) 100Hz
Duration Time(s)  120
Dir.              3
Scale Factor      2942(gal)/8224139
Max. Acc. (gal)   2.996
Last Correction   2019/01/21 23:17:07
Memo.             
[...]
   78853    78854    78856    78860    78856    78842    78853    78857 
   78842    78860    78856    78838    78865    78877    78858    78850 
   78853    78860    78846    78841    78871    78867    78840    78857 
   78871    78849    78849    78861    78861    78864    78853    78835 
   78853    78872    78852    78841    78865    78873    78858    78852 
   78849    78846    78849    78852    78853    78849    78846    78852 
   78853    78856    78853    78838    78846    78862    78844    78827 
   78854    78876    78852    78845    78865    78857    78842    78854 
   78867    78871    78881    78864    78838    78853    78876    78869 
   78858    78860    78860    78858    78861    78879    78895    78867 
   78835    78853    78860    78860    78883    78872    78848    78856 
   78858    78857    78857    78845    78842    78865    78876    78853 
   78856    78858    78830    78841    78857    78846    78841    78833 
   78837    78841    78840    78856    78864    78837    78813    78840 
   78864    78840    78830    78841    78831    78842    78853    78831 
   78834    78869    78862    78846    78869    78879    78865    78849 
   78842    78862    78857    78850    78875    78861    78846    78862 
   78861    78857    78842    78840    78875    78871    78845    78850 
   78856    78856    78852    78846    78837    78834    78850    78846 
   78837    78850    78850    78841    78852    78867    78856    78833 
   78835    78862    78864    78830    78821    78852    78868    78837 
   78818    78841    78846    78856    78873    78846    78835    78858 
   78831    78807    78835    78856    78831    78821    78856    78864 
   78838    78840    78848    78852    78846    78830    78835    78841 
   78831    78834    78848    78862    78853    78821    78826    78862 
   78865    78834    78819    78841    78856    78821    78817    78849 
   78833    78822    78842    78841    78845    78849    78821    78810 
   78852    78868    78826    78827    78854    78837    78842    78854 
   78830    78825    78840    78846    78844    78826    78835    78864 
   78856    78833    78822    78842    78852    78835    78834    78840 
   78842    78826    78818    78849    78853    78830    78833    78861 
   78871    78837    78827    78849    78841    78838    78849    78846 
   78849    78856    78845    78840    78850    78849    78837    78849 
   78864    78840    78827    78853    78852    78833    78846    78857 
   78846    78854    78860    78842    78853    78871    78835    78818 
   78869    78891    78854    78831    78844    78862    78849    78834 
   78848    78848    78841    78848    78845    78830    78834    78858 
   78861    78856    78850    78815    78827    78880    78861    78834 
   78846    78838    78862    78894    78856    78833    78853    78858 
   78850    78857    78880    78885    78858    78844    78856    78844 
   78825    78841    78846    78841    78862    78871    78857    78850 
   78844    78846    78854    78849    78852    78860    78853    78846 
   78841    78826    78829    78849    78846    78834    78842    78860 
   78864    78856    78853    78840    78818    78837    78857    78840 
   78846    78868    78852    78818    78819    78848    78842    78845 
   78860    78823    78819    78852    78837    78822    78831    78842 
   78840    78837    78852    78845    78833    78850    78852    78838 
   78844    78848    78846    78856    78858    78842    78831    78848 
   78862    78852    78845    78848    78846    78842    78826    78821 
   78846    78852    78830    78825    78835    78854    78872    78853 
   78822    78826    78835    78835    78846    78850    78844    78844 
   78834    78835    78852    78838    78829    78849    78862    78864 
   78842    78818    78835    78844    78840    78856    78858    78860 
   78845    78823    78845    78856    78852    78862    78849    78813 
   78814    78853    78869    78848    78822    78827    78864    78865 
   78826    78822    78835    78826    78833    78852    78846    78846 
   78849    78834    78835    78845    78842    78842    78830    78821 
   78838    78848    78850    78865    78858    78834    78840    78844 
   78823    78827    78840    78823    78817    78844    78871    78850 
   78826    78837    78830    78807    78821    78850    78838    78811 
   78815    78827    78833    78841    78850    78848    78829    78818 
   78819    78844    78858    78834    78826    78837    78842    78853 
   78834    78814    78848    78868    78846    78823    78823    78848 
   78853    78826    78826    78853    78849    78838    78846    78845 
   78842    78848    78850    78845    78853    78871    78849    78831 
   78827    78831    78864    78865    78854    78860    78846    78852 
   78853    78841    78858    78860    78849    78861    78852    78840 
   78849    78848    78833    78827    78846    78867    78853    78841 
   78854    78862    78857    78849    78857    78864    78845    78842 
   78846    78830    78826    78849    78861    78833    78822    78857 
   78852    78825    78838    78838    78814    78818    78834    78826 
   78831    78848    78840    78845    78850    78830    78835    78857 
   78850    78826    78825    78840    78819    78821    78860    78856 
   78831    78831    78840    78837    78831    78840    78844    78845 
   78848    78835    78838    78849    78822    78798    78829    78858 
   78841    78834    78848    78840    78829    78821    78818    78837 
   78853    78854    78854    78846    78848    78853    78825    78823 
   78853    78837    78830    78862    78869    78860    78848    78838 
   78862    78876    78856    78835    78844    78867    78853    78830 
   78852    78871    78865    78868    78857    78842    78848    78846 
   78844    78846    78844    78845    78838    78835    78852    78841 
   78819    78848    78875    78852    78848    78873    78857    78829 
   78848    78854    78831    78834    78854    78861    78856    78849 
   78864    78880    78850    78826    78853    78849    78825    78846 
   78862    78862    78873    78858    78846    78865    78862    78853 
   78857    78854    78864    78858    78837    78841    78845    78846 
   78869    78873    78850    78846    78861    78857    78848    78853 
   78844    78827    78846    78854    78833    78841    78864    78861 
   78854    78857    78854    78845    78856    78872    78850    78852 
   78887    78862    78842    78862    78850    78844    78854    78846 
   78853    78854    78823    78835    78873    78857    78838    78852 
   78857    78857    78857    78849    78844    78852    78865    78861 
   78850    78860    78877    78869    78846    78858    78873    78854 
   78856    78867    78853    78854    78865    78867    78865    78860 
   78862    78869    78860    78846    78845    78852    78849    78862 
   78875    78849    78838    78848    78842    78845    78858    78869 
   78865    78860    78853    78853    78858    78834    78823    78837 
   78834    78852    78869    78845    78834    78838    78842    78860 
   78849    78823    78838    78848    78826    78830    78844    78844 
   78842    78837    78834    78826    78830    78858    78864    78854 
   78852    78848    78850    78857    78846    78827    78838    78868 
   78854    78834    78861    78880    78860    78844    78840    78848 
   78865    78852    78844    78861    78849    78838    78845    78827 
   78827    78852    78852    78846    78841    78815    78823    78854 
   78849    78850    78858    78845    78852    78854    78838    78841 
   78850    78846    78835    78845    78861    78841    78835    78865 
   78867    78850    78837    78829    78844    78858    78840    78808 
   78821    78862    78845    78814    78841    78852    78834    78841 
   78837    78823    78845    78841    78806    78821    78844    78827 
   78831    78833    78822    78838    78842    78817    78811    78831 
   78848    78835    78823    78841    78834    78819    78842    78848 
   78849    78849    78823    78834    78860    78846    78829    78830 
   78841    78845    78842    78841    78833    78826    78837    78846 
   78850    78856    78844    78838    78853    78834    78826    78845 
   78830    78829    78857    78849    78840    78854    78852    78841 
   78840    78834    78840    78867    78862    78835    78837    78834 
   78822    78837    78848    78848    78834    78823    78838    78842 
   78830    78827    78833    78823    78806    78822    78837    78829 
   78844    78842    78822    78841    78850    78829    78833    78848 
   78840    78852    78927    78996    79030    79056    79066    79060 
   78952    78748    78814    79188    79404    79470    79354    78524 
   78047    79401    80123    77870    76350    78111    79266    78032 
   77715    78810    78401    77481    78655    79867    79429    79132 
   79087    78883    79906    80592    78871    77946    78939    78570 
   78106    79587    79609    77765    78294    80061    79155    77724 
   78466    79204    78757    78394    78448    79107    79631    78707 
   78335    79293    78891    78371    79613    79577    78167    78976 
   80061    78619    77915    78985    79093    78598    78695    78538 
   78165    78740    79321    78688    78344    79089    79334    79127 
   79513    79396    78667    78525    78625    78424    78413    78733 
   78579    78459    78921    78767    78733    79839    79261    77268 
   78445    80318    78979    78160    79216    79112    78374    79294 
   79694    78048    78133    79509    79351    79180    79261    78591 
   78178    79199    79643    78220    78260    79444    79118    78840 
   79362    79348    78467    78109    78799    78929    78641    78840 
   78673    78086    78305    79420    79720    78429    77843    78931 
   79105    78397    79266    79940    78302    77824    79832    79918 
   78085    78447    79471    78418    78106    79527    79412    77920 
   78320    79960    79771    78486    78241    78772    78985    78852 
   78819    78561    78386    78887    79126    78646    78476    79074 
   79446    78792    78506    79501    79791    79014    78740    78588 
   78325    78673    78952    78443    78250    78949    79249    78894 
   79068    79351    78826    78768    79099    78133    77754    79353 
   79654    77699    77423    79415    79648    78543    79224    79968 
   78912    78173    79141    79925    78802    77645    78416    79238 
   78722    78807    79559    78892    78128    78931    79222    78491 
   78949    79720    78776    78005    78862    79162    78421    78430 
   78490    78078    79069    79974    78636    78032    79281    79240 
   78273    78653    78811    78023    78464    79327    79078    79236 
   79479    78628    78791    79785    79049    78374    79369    79533 
   78749    79212    79401    77816    77595    79296    79145    77761 
   78206    79542    80203    79632    78048    77984    79408    79290 
   78027    77773    78834    80073    79822    78607    78281    78930 
   79675    79323    77766    77186    78421    79554    79516    79234 
   79232    78875    78517    79035    79510    79089    78144    77533 
   78386    79963    80148    78584    77604    78884    79627    78375 
   78034    78629    78860    79481    79713    78966    78549    78684 
   78767    79273    79745    78298    76898    78744    80816    79628 
   77568    77656    79153    79733    78895    78268    78521    79050 
   79591    79203    78327    78695    79157    78525    78426    79351 
   79350    78287    78229    79087    79417    79201    78834    78511 
   78494    78718    78759    79018    79563    78799    77812    78808 
   79614    78837    78632    79134    78799    78255    78838    79729 
   79459    78421    78054    78698    79166    78656    78139    78387 
   78605    78663    79018    79018    78633    78692    79386    79833 
   78991    78252    78975    79492    78964    78383    78534    79240 
   78868    77892    78545    79338    78692    78414    78602    78306 
   78579    79505    79906    79409    78497    78511    79596    79435 
   78116    78459    79307    78745    78868    79708    79207    78525 
   78942    79088    78490    78287    78698    78826    78325    78185 
   78646    78945    79007    78756    78615    79307    79843    79107 
   78055    78314    79469    79382    77903    77340    78644    80049 
   79575    78088    77957    78933    79728    79880    78780    77908 
   78868    79605    78894    78418    78637    78958    79404    79209 
   78372    78756    79674    78810    77746    78617    79689    79111 
   78090    78517    79431    78823    77762    78383    79656    79397 
   78659    78979    79084    78543    78723    79261    78799    78232 
   78777    79311    79209    79170    78961    78536    78385    78244 
   78470    79261    79070    78262    78953    80167    79659    78227 
   78294    79748    80049    78680    78073    78921    79097    78884 
   79375    78883    77994    78563    79081    78414    78094    79137 
   79717    78885    79000    80067    79315    77606    77796    79026 
   79188    78601    78549    79222    79154    78769    79948    80167 
   77502    76800    80094    81233    78970    79089    80206    78804 
   78098    78062    76326    75902    77508    77548    76576    76257 
   76258    78268    80249    77888    74337    73819    76694    82888 
   87210    84461    81938    84180    81584    73719    72897    80320 
   85207    82448    77035    74611    76235    80114    83343    83131 
   79060    75654    77112    79486    77471    75240    77965    80457 
   79609    80333    81607    80109    78250    77795    78894    80815 
   81117    78844    76507    76879    77900    77271    77784    79209 
   77832    76337    78043    79847    79882    79783    79994    79355 
   77656    76782    77689    79070    78962    76813    76133    79097 
   80736    78435    76935    77603    77706    77876    79169    80395 
   80577    80094    80609    82243    82780    81297    79381    78723 
   79331    80288    80697    80242    79315    78497    78611    79269 
   78599    76670    75784    76624    77391    76621    75423    76293 
   78501    78865    77932    78187    79093    79004    78263    78514 
   79281    78552    77541    78406    79689    79893    79824    79469 
   78700    78733    79051    78595    78910    80231    80433    79938 
   80451    81492    81880    81094    79598    78792    79625    81048 
   81167    80352    79979    79535    78235    77033    77133    77766 
   77222    75753    75487    77025    78259    77535    75990    75697 
   76762    77666    77646    77394    77475    77742    78661    79888 
   80131    80046    80379    80624    80825    80712    80353    80450 
   80311    79883    79941    79591    79154    79698    79764    79255 
   79479    79826    79693    78891    77869    77822    78159    77691 
   76902    77009    77996    78063    76846    76654    77992    78727 
   78737    79419    79964    80013    80662    80433    78877    78896 
   79859    79516    79269    79797    79775    79046    78514    78286 
   77552    77091    77799    78233    77912    77572    77481    78564 
   79805    79050    78181    79146    80050    79686    78910    78522 
   78684    78808    78772    78903    79180    79694    79901    79474 
   79516    80225    80370    79659    79130    78926    78420    78116 
   78057    77988    78390    78267    77275    77449    78672    78399 
   77191    77620    78706    78912    79289    79699    79355    79031 
   79317    79674    79323    78846    79195    79524    79423    79628 
   79770    79577    79440    79110    78950    79596    79801    78553 
   77490    77931    78231    77294    77206    78572    79083    78544 
   78271    78214    78309    78520    78437    78408    79131    80092 
   80268    80104    80073    79728    79596    79833    79564    79284 
   79301    78884    78416    78541    78883    78740    78124    77680 
   77419    77191    77454    78036    78232    78187    78291    78466 
   78883    79818    80326    79524    78830    79303    79402    78529 
   78424    79394    79677    79022    78844    79432    79745    79224 
   78684    78930    79270    78825    78152    78097    78402    78588 
   78588    78335    77895    77791    78084    78069    77988    78387 
   78595    78575    78952    79288    79272    79334    79528    79338 
   78819    78880    79447    79483    78970    78883    79311    79297 
   79037    79099    78915    78753    79235    79659    79720    79751 
   79573    79209    78938    78840    78895    78906    78919    79033 
   79114    79169    79043    78810    78714    78478    78155    77988 
   77988    78146    78030    77797    77981    78158    78270    78753 
   79224    79066    78462    78254    78717    79037    78835    78857 
   79215    79239    78875    78549    78696    79139    79155    78715 
   78625    79031    79246    79427    79606    79124    78856    79428 
   79438    78640    78254    78576    79216    79496    79056    78532 
   78447    78798    79122    78826    78665    79226    79149    78414 
   78700    79191    78629    78371    78850    78921    78592    78410 
   78390    78410    78405    78312    78273    78548    78750    78441 
   78363    78902    79222    79161    79169    79087    78850    78918 
   79147    78829    78483    78902    79143    78856    78875    78900 
   78594    78583    79072    79392    79120    78869    79038    79165 
   79019    78732    78498    78526    78835    79186    79057    78571 
   78613    79091    79186    78953    78869    78961    79070    79173 
   79235    79153    79087    79157    79176    79192    79158    79033 
   79041    78879    78567    78702    78915    78638    78332    78331 
   78198    78090    78518    78771    78453    78521    78922    78767 
   78457    78690    79008    78945    78844    78860    78848    78795 
   78680    78668    78730    78803    79165    79288    78821    78615 
   78802    78988    79123    78939    78579    78436    78672    79105 
   79083    79018    79429    79396    78983    78818    78614    78549 
   78700    78700    78579    78625    78807    78688    78540    78730 
   78787    78760    79019    79123    78875    78825    78976    78906 
   78772    78845    79095    79186    78788    78490    78826    79181 
   79122    78868    78579    78526    78719    78709    78597    78761 
   78981    78958    78840    78892    78984    78783    78514    78599 
   78741    78698    78906    79344    79375    79045    78949    78949 
   78845    79077    79409    79294    78946    78613    78657    79154 
   79116    78622    78721    78872    78521    78318    78386    78398 
   78440    78669    78776    78599    78603    78703    78513    78517 
   78973    79181    78950    78907    79161    79303    79087    78649 
   78579    78966    79185    79026    78796    78799    78929    78879 
   78706    78680    78861    79039    79137    79033    78644    78651 
   79254    79450    79002    78691    78788    78991    79119    79054 
   78734    78499    78632    78846    78819    78537    78246    78436 
   78916    78779    78370    78567    78787    78636    78732    79004 
