Origin Time       2019/03/09 01:08:00
Lat.              35.4
Long.             136.7
Depth. (km)       40
Mag.              4.5
Station Code      AICH07
Station Lat.      35.2194
Station Long.     137.4039
Station Height(m) 420.43
Record Time       2019/03/09 01:08:24
Sampling Freq(Hz) 100Hz
Duration Time(s)  120
Dir.              3
Scale Factor      2942(gal)/8224139
Max. Acc. (gal)   1.941
Last Correction   2019/03/09 01:08:09
Memo.             
[...]
 -311172  -311172  -311173  -311173  -311173  -311175  -311173  -311173 
 -311173  -311172  -311172  -311173  -311175  -311176  -311173  -311175 
 -311176  -311172  -311173  -311175  -311172  -311175  -311176  -311170 
 -311170  -311177  -311175  -311172  -311173  -311173  -311175  -311175 
 -311175  -311172  -311172  -311175  -311175  -311173  -311172  -311173 
 -311172  -311173  -311175  -311175  -311176  -311176  -311175  -311172 
 -311170  -311170  -311173  -311176  -311175  -311173  -311176  -311175 
 -311170  -311172  -311175  -311176  -311173  -311172  -311173  -311176 
 -311175  -311172  -311173  -311173  -311170  -311173  -311175  -311173 
 -311172  -311173  -311175  -311172  -311172  -311175  -311173  -311172 
 -311173  -311173  -311172  -311173  -311173  -311173  -311172  -311170 
 -311172  -311173  -311170  -311169  -311173  -311173  -311172  -311175 
 -311172  -311169  -311172  -311172  -311172  -311173  -311173  -311172 
 -311172  -311172  -311172  -311173  -311175  -311172  -311172  -311172 
 -311170  -311169  -311170  -311170  -311172  -311173  -311173  -311172 
 -311175  -311175  -311170  -311170  -311173  -311172  -311169  -311172 
 -311172  -311166  -311168  -311170  -311173  -311173  -311170  -311172 
 -311170  -311169  -311172  -311175  -311175  -311175  -311173  -311172 
 -311172  -311175  -311175  -311173  -311173  -311173  -311173  -311173 
 -311172  -311172  -311170  -311172  -311175  -311176  -311175  -311175 
 -311175  -311172  -311172  -311173  -311175  -311175  -311175  -311172 
 -311169  -311170  -311172  -311170  -311170  -311170  -311169  -311169 
 -311173  -311175  -311170  -311170  -311172  -311172  -311173  -311173 
 -311170  -311170  -311170  -311173  -311176  -311176  -311172  -311169 
 -311170  -311172  -311172  -311172  -311172  -311170  -311170  -311172 
 -311172  -311169  -311169  -311170  -311170  -311169  -311170  -311169 
 -311169  -311170  -311170  -311170  -311170  -311169  -311168  -311170 
 -311170  -311170  -311172  -311175  -311175  -311170  -311168  -311168 
 -311169  -311170  -311169  -311166  -311166  -311170  -311173  -311169 
 -311169  -311173  -311170  -311170  -311175  -311170  -311170  -311173 
 -311170  -311169  -311170  -311169  -311170  -311173  -311173  -311170 
 -311170  -311170  -311169  -311170  -311173  -311170  -311168  -311168 
 -311170  -311170  -311170  -311172  -311173  -311175  -311172  -311169 
 -311169  -311168  -311168  -311169  -311169  -311169  -311169  -311169 
 -311170  -311170  -311170  -311172  -311170  -311169  -311170  -311170 
 -311170  -311170  -311173  -311172  -311172  -311172  -311172  -311173 
 -311173  -311172  -311170  -311169  -311170  -311172  -311170  -311168 
 -311169  -311172  -311172  -311169  -311168  -311170  -311172  -311170 
 -311172  -311173  -311172  -311172  -311172  -311170  -311170  -311173 
 -311172  -311172  -311172  -311170  -311172  -311170  -311169  -311172 
 -311173  -311169  -311170  -311173  -311173  -311172  -311169  -311169 
 -311170  -311169  -311169  -311170  -311170  -311169  -311168  -311169 
 -311170  -311172  -311173  -311172  -311169  -311169  -311170  -311172 
 -311172  -311173  -311173  -311170  -311168  -311169  -311172  -311170 
 -311170  -311172  -311172  -311169  -311170  -311170  -311169  -311169 
 -311170  -311172  -311173  -311173  -311172  -311173  -311173  -311173 
 -311173  -311173  -311170  -311170  -311173  -311170  -311172  -311176 
 -311175  -311170  -311172  -311173  -311170  -311170  -311172  -311172 
 -311169  -311169  -311170  -311169  -311168  -311169  -311172  -311172 
 -311172  -311170  -311170  -311172  -311170  -311169  -311172  -311172 
 -311170  -311172  -311170  -311169  -311170  -311169  -311168  -311169 
 -311170  -311170  -311169  -311166  -311166  -311169  -311172  -311169 
 -311168  -311169  -311170  -311168  -311166  -311169  -311170  -311169 
 -311168  -311169  -311169  -311168  -311169  -311170  -311168  -311166 
 -311169  -311170  -311169  -311168  -311169  -311169  -311168  -311169 
 -311170  -311172  -311169  -311170  -311172  -311170  -311170  -311170 
 -311172  -311173  -311172  -311172  -311173  -311170  -311169  -311170 
 -311170  -311168  -311168  -311172  -311170  -311169  -311170  -311170 
 -311169  -311169  -311170  -311169  -311169  -311169  -311169  -311169 
 -311170  -311173  -311173  -311169  -311169  -311169  -311168  -311168 
 -311168  -311166  -311166  -311164  -311158  -311153  -311141  -311127 
 -311115  -311099  -311079  -311058  -311044  -311045  -311060  -311075 
 -311092  -311131  -311179  -311179  -311133  -311149  -311291  -311476 
 -311604  -311646  -311585  -311454  -311407  -311503  -311612  -311616 
 -311416  -310990  -310456  -310055  -310259  -311052  -311706  -311936 
 -311759  -311331  -310917  -310265  -309791  -310122  -310845  -311685 
 -311875  -311169  -311125  -311596  -311365  -311013  -311077  -311175 
 -311269  -311440  -311265  -311320  -311902  -311531  -310799  -311088 
 -311602  -311403  -310439  -310277  -311381  -312164  -312003  -310825 
 -310132  -310618  -310427  -310389  -311574  -312184  -311656  -310841 
 -310309  -310842  -312186  -312082  -310462  -310556  -312169  -311989 
 -310670  -310747  -311175  -310683  -310915  -311985  -312029  -311299 
 -310687  -310302  -310948  -311870  -311187  -310439  -311081  -311519 
 -311547  -311432  -310817  -310794  -311287  -311135  -310886  -311170 
 -311692  -311779  -310929  -310366  -311102  -311817  -311493  -310879 
 -311189  -312206  -311705  -309908  -310263  -311982  -311759  -311050 
 -311463  -311508  -310829  -310464  -310799  -311017  -310902  -311413 
 -311735  -310981  -310305  -310257  -310886  -311810  -311756  -310973 
 -310714  -311211  -311701  -311083  -310231  -311216  -312724  -312229 
 -310761  -310366  -311053  -311731  -311362  -310637  -311094  -311546 
 -311114  -311150  -311045  -311019  -311940  -311617  -310551  -310671 
 -310872  -311054  -311152  -310911  -311814  -312754  -311501  -309711 
 -309839  -311196  -311740  -311701  -311902  -311335  -310300  -310069 
 -310636  -311751  -312476  -311944  -310629  -309783  -310730  -312138 
 -311346  -310207  -311219  -311858  -311220  -311447  -311477  -310590 
 -310684  -311389  -311582  -311682  -311489  -310802  -310487  -311311 
 -312117  -311264  -310618  -311466  -311382  -310501  -310676  -311342 
 -311945  -311821  -310632  -310396  -311204  -311075  -310744  -310998 
 -311311  -311812  -311384  -310239  -310738  -311679  -311138  -310837 
 -311620  -311866  -310964  -310093  -310423  -311493  -311968  -312026 
 -311952  -310855  -310162  -311245  -311586  -310738  -311391  -312394 
 -311075  -309676  -310587  -311890  -312113  -311569  -311272  -311544 
 -310770  -309945  -310470  -310726  -311187  -312071  -311656  -311073 
 -311407  -311588  -311270  -310701  -310479  -311013  -311355  -311172 
 -311392  -311589  -310965  -310603  -310938  -311246  -311596  -311580 
 -310956  -311071  -311683  -311218  -310684  -311169  -311499  -311153 
 -310811  -311045  -311278  -310895  -310971  -311656  -311750  -311045 
 -310441  -311364  -312419  -310780  -309262  -311068  -312448  -311299 
 -311011  -311611  -311129  -310956  -311057  -310386  -310730  -311794 
 -311391  -311038  -311543  -311160  -311010  -311644  -311497  -311229 
 -311161  -310782  -310894  -311493  -311461  -310641  -310562  -311391 
 -311369  -311099  -311411  -311123  -310711  -311029  -311207  -311019 
 -311084  -311208  -311125  -311341  -311536  -311161  -311033  -311465 
 -311647  -311278  -310940  -310923  -310890  -311345  -312183  -311677 
 -310455  -310728  -311391  -310837  -310657  -311474  -311488  -310659 
 -310489  -311080  -311532  -311385  -311091  -311224  -311494  -311589 
 -311411  -310981  -310756  -310755  -311199  -311701  -311013  -310525 
 -311326  -311671  -311517  -311447  -311030  -310776  -311110  -311681 
 -311357  -310155  -310238  -311504  -311949  -311415  -310825  -310915 
 -311678  -311945  -311310  -311191  -311532  -310882  -310022  -310234 
 -310921  -311160  -311377  -312102  -312292  -311089  -309861  -310540 
 -311810  -311617  -311497  -311879  -311219  -310684  -310818  -310393 
 -310401  -311362  -311686  -311068  -310597  -311018  -311844  -312155 
 -312032  -311457  -310587  -310313  -310416  -311075  -312392  -312064 
 -310571  -310586  -311115  -311179  -311102  -310659  -310875  -311781 
 -311866  -311273  -310938  -311004  -311188  -311193  -311187  -311370 
 -311385  -311200  -311115  -311169  -311148  -310784  -310659  -310950 
 -311211  -311574  -311686  -311359  -310998  -310952  -311118  -310842 
 -310853  -311253  -311103  -311466  -311567  -310510  -310925  -311867 
 -310981  -310483  -311355  -311674  -311233  -311284  -311332  -310872 
 -311103  -311481  -311206  -311423  -311786  -311133  -310560  -311218 
 -311563  -310707  -310620  -311431  -311364  -310729  -310671  -311337 
 -311785  -311148  -310664  -311472  -311597  -310443  -310448  -311297 
 -311608  -311800  -311685  -311056  -310288  -310495  -311550  -311613 
 -311521  -311939  -311385  -310751  -310968  -310755  -310626  -311382 
 -311187  -310844  -312053  -311781  -309960  -310373  -311597  -311358 
 -311285  -311480  -311152  -311133  -311133  -310846  -311485  -312233 
 -311203  -310420  -311553  -311878  -310718  -310408  -311278  -311959 
 -311477  -310339  -310173  -311112  -311667  -311562  -311089  -310516 
 -310871  -311527  -311415  -311311  -311247  -310996  -311214  -311467 
 -311126  -310682  -310778  -311149  -311121  -311380  -311818  -311058 
 -310660  -311528  -311463  -310942  -311316  -311636  -311381  -310809 
 -310687  -311054  -311153  -311196  -311258  -311189  -310763  -310570 
 -311628  -312084  -310868  -310246  -310999  -311806  -311659  -310963 
 -311195  -311979  -311632  -310879  -310859  -310801  -310797  -311080 
 -311238  -311960  -312322  -311200  -310477  -310594  -310386  -310452 
 -311312  -312161  -311877  -310891  -310956  -311257  -310325  -310267 
 -311696  -311895  -311148  -311172  -311342  -311092  -310814  -311046 
 -311628  -311812  -311419  -310949  -310959  -310975  -310849  -311102 
 -311156  -311214  -311719  -311499  -311034  -311272  -310836  -310153 
 -310953  -311818  -311368  -311002  -311238  -311189  -311127  -310918 
 -310339  -310913  -312005  -311612  -310964  -311189  -311278  -311025 
 -311211  -311613  -311231  -310749  -311131  -311500  -311258  -311015 
 -311175  -311243  -311242  -311439  -311125  -310770  -310879  -310802 
 -311212  -312014  -311902  -311269  -310795  -310624  -310829  -311196 
 -311755  -311966  -311381  -310894  -310965  -310938  -310501  -310829 
 -312161  -312176  -310813  -310343  -310554  -310628  -310992  -311463 
 -311567  -311386  -310949  -310591  -311108  -311646  -310892  -310612 
 -311774  -311941  -311238  -311261  -310861  -310525  -311099  -311175 
 -311208  -311748  -311706  -310878  -310405  -311297  -311987  -311327 
 -310764  -310922  -311511  -311380  -310589  -311046  -311424  -310886 
 -311138  -311365  -311283  -311550  -311320  -311106  -311208  -310697 
 -310594  -311419  -311562  -311280  -311343  -311037  -310865  -311289 
 -311473  -311372  -311164  -310938  -311118  -311264  -310945  -310902 
 -311362  -311427  -310875  -310751  -311577  -312003  -310972  -310212 
 -310944  -311467  -311324  -311451  -311092  -310630  -311278  -311609 
 -311133  -311131  -311258  -311382  -311600  -311184  -310797  -310925 
 -310822  -310778  -311168  -311305  -311122  -311278  -311567  -311361 
 -311050  -311307  -311440  -310965  -310790  -310984  -311184  -311542 
 -311598  -311065  -310701  -311467  -312168  -310971  -309974  -310960 
 -311716  -311377  -310836  -310765  -311497  -311401  -310633  -311212 
 -311467  -310610  -311137  -311962  -311226  -310759  -311081  -311323 
 -311427  -311200  -311264  -311376  -310653  -310436  -311280  -311693 
 -311625  -311561  -310914  -310494  -311035  -311222  -310969  -311262 
 -311615  -311111  -310373  -310724  -311625  -311916  -311727  -311249 
 -310836  -311160  -311554  -311029  -310579  -311177  -311585  -310927 
 -310567  -311477  -312047  -311341  -310994  -311358  -311326  -310795 
 -310147  -310294  -311280  -311696  -311723  -311793  -311239  -310549 
 -310231  -310706  -312130  -312372  -311061  -310574  -310706  -310574 
 -311397  -312472  -311917  -310868  -310810  -310888  -310662  -311131 
 -312122  -312217  -311577  -311084  -310740  -310794  -310878  -310404 
 -310598  -311674  -311635  -310910  -311241  -311307  -310716  -310899 
 -310833  -310686  -311844  -312115  -310926  -310387  -310144  -310518 
 -311879  -311751  -310603  -311123  -311959  -311161  -310675  -311794 
 -311831  -310425  -310532  -311567  -312020  -312322  -312107  -311742 
 -311473  -310709  -310554  -311214  -311285  -311127  -311663  -312430 
 -312372  -311235  -310721  -311323  -310849  -309618  -309584  -310007 
 -310073  -310227  -310606  -311497  -312357  -311628  -309972  -309386 
 -309679  -310470  -311975  -312411  -311115  -310602  -311472  -311484 
 -310657  -311125  -312279  -312419  -312556  -312504  -311261  -311103 
 -312111  -311893  -311030  -310300  -310020  -310868  -311362  -311058 
 -311701  -312203  -311069  -310543  -311682  -311584  -309541  -308847 
 -309829  -310300  -311087  -312704  -313006  -311523  -310104  -310250 
 -312113  -313420  -311770  -309885  -310923  -311620  -309978  -309744 
 -311359  -311829  -310917  -309110  -307632  -309012  -311832  -312938 
 -313359  -314815  -315162  -312211  -309438  -310144  -310743  -309737 
 -310061  -310659  -309830  -309140  -310667  -314531  -316595  -314690 
 -313009  -313264  -311720  -307503  -305754  -309141  -312346  -311585 
 -310568  -312002  -312938  -311651  -310763  -309906  -307642  -307643 
 -310138  -311463  -312137  -312807  -312245  -310466  -309681  -311719 
 -313394  -312396  -311866  -312788  -312747  -311546  -311561  -312472 
 -310971  -308745  -309829  -311850  -312118  -312245  -311754  -309808 
 -309160  -310090  -309573  -308745  -310819  -313749  -314038  -312913 
 -312165  -310914  -309082  -308028  -309310  -312021  -312175  -310714 
 -311438  -311442  -309256  -309864  -312595  -312358  -310474  -310001 
 -310655  -312124  -313268  -312618  -311157  -311004  -312331  -312307 
 -310575  -310062  -310441  -311022  -312831  -313795  -312210  -309989 
 -309052  -309825  -310771  -310479  -310402  -310797  -310516  -311257 
 -312889  -312430  -310828  -310001  -309276  -309140  -310126  -311102 
 -311447  -311466  -311787  -312195  -311845  -311609  -312352  -312627 
 -311485  -310049  -309702  -310899  -312504  -313028  -312695  -311778 
 -310086  -309205  -310292  -311659  -311760  -311288  -311121  -311007 
 -310980  -310986  -310468  -310308  -311143  -311467  -310699  -310201 
 -310886  -312372  -313102  -311639  -309494  -309403  -310990  -312126 
 -312574  -313229  -312591  -309977  -309216  -311164  -312067  -311477 
 -311512  -311728  -310698  -309475  -309438  -309984  -310992  -312449 
 -312358  -310610  -310266  -311215  -311353  -311808  -312217  -310895 
 -310014  -310779  -311716  -312286  -312157  -311544  -311292  -311493 
 -311854  -311944  -311922  -311793  -310558  -309114  -309746  -311385 
 -311744  -311432  -311142  -310682  -310393  -310078  -310452  -312080 
 -312322  -310501  -309892  -310564  -310301  -310404  -311735  -312296 
 -311897  -311339  -310852  -311461  -311994  -310873  -310510  -311536 
 -311224  -310167  -310663  -311782  -311764  -311260  -311242  -311301 
 -311534  -311891  -311424  -310890  -311546  -312489  -312205  -310825 
 -310216  -310911  -311449  -311683  -311669  -310867  -310342  -310517 
 -310923  -311704  -311810  -310612  -309536  -309891  -310896  -310869 
 -310567  -311283  -311948  -311628  -310755  -310452  -311231  -312016 
 -312188  -311926  -311291  -310869  -310882  -311056  -311670  -312511 
 -312464  -311442  -310574  -310312  -310632  -311223  -311372  -311123 
 -310751  -310423  -310483  -310887  -311034  -310555  -310402  -310878 
 -310865  -310576  -310815  -311461  -311863  -311540  -311172  -311303 
 -311393  -311154  -311197  -311690  -311744  -311409  -311377  -311449 
 -311499  -311688  -311825  -311528  -310911  -310797  -311365  -311554 
 -311084  -311153  -311725  -311625  -311319  -311430  -311003  -310358 
 -310925  -312014  -312268  -311558  -310319  -309407  -309648  -311169 
 -312499  -311941  -310803  -310788  -310829  -310317  -310248  -310822 
 -311814  -312446  -311562  -310586  -311108  -311621  -311239  -311071 
 -311189  -310836  -310635  -311091  -310948  -310293  -310717  -311588 
 -311283  -310390  -310161  -310377  -310710  -311154  -311323  -311395 
 -311740  -311782  -311562  -311787  -311683  -310972  -310930  -311285 
 -311384  -311648  -311505  -310853  -310861  -311405  -311663  -311686 
 -311945  -312333  -311891  -310774  -310362  -310709  -310996  -310983 
 -310707  -310571  -310891  -311331  -311412  -311220  -311330  -311736 
 -311586  -310782  -310421  -311000  -311704  -311540  -311025  -311239 
 -311374  -311017  -311296  -311809  -311449  -310558  -310243  -310747 
 -310911  -310329  -309908  -310313  -311415  -312021  -311318  -310558 
 -310903  -311395  -311318  -311419  -311589  -311257  -311181  -311701 
 -311970  -311979  -311953  -311160  -310173  -310522  -311407  -311530 
 -311484  -311499  -311224  -311054  -311010  -310879  -310886  -310963 
 -311094  -311277  -311327  -311528  -311476  -311076  -311723  -312711 
 -312288  -311493  -311554  -311528  -310663  -310035  -310286  -310567 
 -310624  -310840  -311311  -311617  -311185  -310782  -310950  -310504 
 -309908  -310647  -311364  -310996  -310788  -310961  -311193  -311570 
 -311544  -311211  -311229  -311284  -310767  -310375  -311015  -311503 
 -311364  -311809  -312037  -311308  -310775  -310825  -311368  -311966 
 -311609  -310887  -311185  -311736  -311311  -310797  -310944  -311142 
 -311218  -311268  -311322  -311516  -311420  -311127  -311277  -311362 
 -311075  -311042  -311247  -311104  -310633  -310571  -310918  -311083 
 -311088  -310799  -310522  -310938  -311438  -311442  -311139  -310844 
 -310952  -311269  -311401  -311418  -311485  -311539  -311269  -311015 
 -311152  -311216  -311353  -311440  -310876  -310633  -310980  -310980 
 -311152  -311535  -311365  -311170  -311056  -310749  -310905  -311160 
 -310944  -311031  -311493  -311715  -311598  -311260  -311141  -311334 
 -311220  -310871  -310802  -310899  -311029  -311258  -311438  -311524 
 -311455  -311211  -311139  -311287  -311246  -310934  -310981  -311696 
 -312093  -311611  -311084  -310961  -310856  -310838  -311431  -312066 
 -311820  -311319  -311127  -310792  -310406  -310400  -310567  -310579 
 -310945  -311681  -311411  -310671  -311176  -311554  -310716  -310612 
 -311451  -311486  -311045  -311183  -311432  -311303  -311061  -311060 
 -311351  -311428  -311215  -311291  -311416  -311268  -311278  -311226 
 -310856  -310918  -311272  -311029  -310799  -311122  -311065  -310755 
 -311156  -311565  -311296  -311202  -311338  -311138  -311079  -311053 
 -310695  -310940  -311720  -311771  -311372  -311157  -310867  -310826 
 -311266  -311511  -311447  -311454  -311231  -310737  -310653  -311068 
 -311600  -311697  -311173  -310913  -311165  -311424  -311528  -311307 
 -310976  -310852  -310923  -311207  -311517  -311627  -311424  -311038 
 -310721  -310450  -310514  -310954  -311031  -310865  -311162  -311513 
