Origin Time       2019/03/09 01:08:00
Lat.              35.4
Long.             136.7
Depth. (km)       40
Mag.              4.5
Station Code      AICH16
Station Lat.      35.1543
Station Long.     137.535
Station Height(m) 554
Record Time       2019/03/09 01:08:17
Sampling Freq(Hz) 100Hz
Duration Time(s)  120
Dir.              3
Scale Factor      2942(gal)/8224139
Max. Acc. (gal)   1.511
Last Correction   2019/03/09 01:08:02
Memo.             
[...]
  -24715   -24719   -24718   -24717   -24719   -24717   -24714   -24717 
  -24717   -24717   -24718   -24718   -24718   -24718   -24718   -24717 
  -24715   -24717   -24718   -24717   -24715   -24717   -24717   -24715 
  -24714   -24715   -24714   -24715   -24717   -24715   -24715   -24717 
  -24717   -24715   -24715   -24713   -24713   -24715   -24717   -24715 
  -24715   -24714   -24714   -24715   -24715   -24715   -24714   -24714 
  -24715   -24717   -24714   -24713   -24717   -24717   -24717   -24718 
  -24715   -24714   -24717   -24718   -24717   -24717   -24715   -24715 
  -24715   -24713   -24717   -24718   -24711   -24713   -24718   -24715 
  -24713   -24715   -24714   -24715   -24715   -24714   -24715   -24715 
  -24713   -24715   -24718   -24715   -24713   -24715   -24717   -24715 
  -24715   -24717   -24715   -24717   -24719   -24718   -24714   -24714 
  -24717   -24714   -24711   -24713   -24714   -24718   -24719   -24717 
  -24718   -24719   -24717   -24717   -24717   -24717   -24717   -24719 
  -24718   -24715   -24715   -24718   -24717   -24717   -24718   -24715 
  -24715   -24718   -24715   -24714   -24717   -24717   -24714   -24711 
  -24714   -24718   -24718   -24717   -24715   -24714   -24717   -24714 
  -24713   -24715   -24714   -24713   -24717   -24718   -24715   -24713 
  -24715   -24715   -24715   -24715   -24715   -24714   -24713   -24713 
  -24714   -24714   -24714   -24715   -24715   -24714   -24713   -24711 
  -24713   -24717   -24715   -24714   -24717   -24717   -24715   -24717 
  -24715   -24714   -24715   -24715   -24715   -24717   -24715   -24714 
  -24717   -24717   -24715   -24714   -24713   -24714   -24715   -24714 
  -24714   -24711   -24713   -24717   -24715   -24713   -24714   -24717 
  -24717   -24717   -24717   -24717   -24715   -24714   -24714   -24714 
  -24715   -24717   -24717   -24717   -24714   -24714   -24717   -24717 
  -24717   -24717   -24715   -24718   -24719   -24717   -24717   -24717 
  -24717   -24718   -24718   -24717   -24715   -24714   -24715   -24717 
  -24715   -24715   -24714   -24714   -24714   -24714   -24715   -24717 
  -24715   -24715   -24714   -24713   -24715   -24719   -24718   -24715 
  -24714   -24717   -24715   -24714   -24717   -24718   -24717   -24714 
  -24714   -24715   -24717   -24715   -24714   -24715   -24715   -24714 
  -24714   -24717   -24717   -24717   -24718   -24717   -24715   -24715 
  -24715   -24715   -24715   -24715   -24714   -24715   -24715   -24713 
  -24713   -24714   -24715   -24715   -24715   -24715   -24714   -24713 
  -24711   -24714   -24717   -24713   -24713   -24715   -24715   -24715 
  -24715   -24715   -24715   -24714   -24714   -24715   -24717   -24718 
  -24715   -24711   -24714   -24714   -24714   -24715   -24717   -24717 
  -24715   -24717   -24717   -24717   -24717   -24718   -24718   -24717 
  -24715   -24715   -24717   -24718   -24717   -24717   -24718   -24717 
  -24714   -24714   -24715   -24714   -24714   -24714   -24714   -24715 
  -24714   -24714   -24715   -24717   -24717   -24715   -24715   -24717 
  -24715   -24715   -24715   -24717   -24717   -24714   -24717   -24719 
  -24717   -24715   -24715   -24714   -24715   -24717   -24715   -24715 
  -24715   -24717   -24718   -24715   -24715   -24718   -24717   -24714 
  -24717   -24718   -24717   -24715   -24715   -24715   -24715   -24714 
  -24717   -24717   -24714   -24717   -24719   -24715   -24714   -24717 
  -24715   -24715   -24714   -24713   -24711   -24706   -24698   -24687 
  -24671   -24648   -24624   -24606   -24595   -24607   -24642   -24683 
  -24715   -24759   -24833   -24915   -24949   -24937   -24923   -24908 
  -24864   -24803   -24726   -24611   -24544   -24588   -24684   -24792 
  -24889   -24864   -24719   -24619   -24607   -24555   -24482   -24592 
  -24794   -24827   -24775   -24734   -24614   -24505   -24502   -24489 
  -24457   -24536   -24622   -24606   -24680   -24871   -24968   -25012 
  -25104   -25029   -24817   -24767   -24713   -24590   -24723   -24807 
  -24622   -24764   -24999   -24661   -24356   -24630   -25004   -25091 
  -24996   -24907   -24688   -24277   -24210   -24533   -24691   -24906 
  -25088   -24471   -24027   -24560   -24551   -24004   -24398   -24862 
  -24641   -24794   -25107   -25018   -25105   -25002   -24632   -24987 
  -25361   -25045   -24921   -24872   -24493   -24501   -24922   -24949 
  -24672   -24727   -24830   -24509   -24027   -23853   -24113   -24144 
  -24065   -24927   -25645   -25261   -25092   -24996   -24368   -24313 
  -24730   -24764   -24912   -25177   -24911   -24575   -24560   -24510 
  -24692   -24988   -24699   -24630   -25003   -24606   -24310   -24889 
  -24961   -24733   -24906   -24626   -24360   -24835   -24918   -24518 
  -24673   -24989   -25022   -24933   -24516   -24250   -24565   -24922 
  -25126   -24975   -24390   -24039   -23913   -24030   -24637   -24844 
  -24768   -25212   -25135   -24343   -24306   -24910   -25060   -25019 
  -25240   -25242   -24985   -25043   -25219   -24899   -24417   -24444 
  -24696   -24742   -24587   -24291   -24138   -24227   -24344   -24570 
  -24798   -24587   -24358   -24641   -24891   -24914   -25131   -25290 
  -24995   -24669   -24580   -24448   -24679   -25182   -25099   -24862 
  -24844   -24644   -24494   -24526   -24583   -24634   -24497   -24382 
  -24582   -24665   -24591   -24733   -24713   -24559   -24830   -25031 
  -24745   -24533   -24460   -24455   -24925   -25142   -24694   -24825 
  -25112   -24534   -24479   -25201   -25112   -24651   -24771   -24497 
  -24034   -24807   -25573   -25018   -24516   -24524   -24518   -24753 
  -24910   -24838   -24907   -24709   -24171   -24079   -24628   -25038 
  -24722   -24324   -24516   -24649   -24471   -24696   -25074   -24850 
  -24474   -24656   -24992   -24956   -24754   -24829   -25039   -24891 
  -24926   -25111   -24356   -23974   -25051   -25374   -24634   -24691 
  -24698   -24144   -24657   -25228   -24501   -24309   -24842   -24661 
  -24493   -24749   -24719   -24502   -24468   -24629   -24753   -24781 
  -24835   -25010   -25208   -24983   -24374   -24086   -24534   -25031 
  -24867   -24873   -24960   -24198   -24127   -25131   -25170   -24777 
  -25014   -24764   -24385   -24655   -24547   -24417   -25023   -25020 
  -24324   -24448   -24996   -24815   -24582   -24819   -24663   -24424 
  -24908   -25350   -25285   -25000   -24653   -24628   -24613   -24197 
  -24170   -24606   -24597   -24410   -24595   -24663   -24667   -24952 
  -24744   -24310   -24806   -25181   -24825   -25050   -25076   -24202 
  -24331   -25056   -24719   -24653   -25254   -25018   -24555   -24667 
  -24630   -24556   -24680   -24641   -24729   -24729   -24274   -24348 
  -24894   -24814   -24727   -25073   -24738   -24112   -24497   -24865 
  -24421   -24687   -25597   -25450   -24709   -24553   -24521   -24443 
  -24880   -25201   -24763   -24460   -24552   -24343   -24417   -25085 
  -25003   -24321   -24405   -24626   -24533   -24988   -25249   -24586 
  -24314   -24764   -24981   -25184   -25375   -24769   -24046   -24278 
  -24865   -24931   -24791   -24837   -24684   -24455   -24763   -25046 
  -24530   -24106   -24556   -24858   -24732   -24983   -24759   -23857 
  -24136   -25172   -25115   -24802   -25134   -24799   -24019   -24564 
  -25309   -24792   -24521   -24856   -24769   -24752   -25010   -24910 
  -24489   -24626   -25232   -24907   -24371   -24679   -24580   -24324 
  -24761   -24930   -24721   -24672   -24651   -24529   -24430   -24738 
  -24957   -24564   -24410   -24516   -24516   -24779   -24754   -24680 
  -25359   -25324   -24267   -24286   -25014   -24923   -24840   -25141 
  -24964   -24556   -24445   -24678   -24970   -24719   -24376   -24595 
  -24761   -24742   -24834   -24676   -24456   -24637   -24970   -24814 
  -24502   -24833   -24686   -24003   -24561   -25184   -24794   -24706 
  -24784   -24684   -24680   -24534   -24506   -24551   -24532   -24829 
  -24907   -24560   -24773   -25107   -24680   -24521   -24891   -24923 
  -24862   -24861   -24883   -25114   -25006   -24605   -24671   -24660 
  -24175   -24418   -25193   -25002   -24460   -24295   -23970   -24085 
  -24879   -25145   -24725   -24669   -25010   -24683   -24401   -25296 
  -25378   -24204   -24412   -25261   -24872   -24713   -25149   -24668 
  -24063   -24474   -24808   -24831   -25247   -25139   -24429   -24352 
  -24494   -24490   -24914   -25080   -24575   -24374   -24645   -24834 
  -24923   -24862   -24633   -24548   -24565   -24556   -24715   -24898 
  -24723   -24505   -24668   -24740   -24584   -24804   -24902   -24462 
  -24418   -24779   -24987   -25224   -25119   -24467   -24177   -24507 
  -24883   -25123   -25151   -24752   -24244   -24163   -24409   -24619 
  -24783   -24964   -24908   -24633   -24606   -24825   -24898   -24718 
  -24733   -25027   -24748   -24356   -24891   -25095   -24509   -24754 
  -25343   -24916   -24510   -24780   -24783   -24459   -24494   -24857 
  -24884   -24505   -24362   -24543   -24368   -24007   -24559   -25119 
  -24611   -24673   -25100   -24263   -24071   -25328   -25404   -24768 
  -25212   -25034   -24097   -24597   -25467   -24991   -24451   -24757 
  -24945   -24556   -24287   -24443   -24663   -24906   -24946   -24574 
  -24301   -24305   -24402   -24652   -24845   -24688   -24495   -24709 
  -24814   -24667   -25031   -25358   -25203   -25273   -25039   -24264 
  -24206   -24945   -25304   -24991   -24745   -24691   -24213   -24032 
  -24911   -25218   -24413   -24305   -24737   -24426   -24165   -24592 
  -24783   -24775   -24972   -24761   -24646   -24968   -24653   -24312 
  -24837   -25169   -24842   -24660   -24741   -24576   -24482   -24857 
  -25060   -24776   -24709   -24927   -24692   -24368   -24602   -24927 
  -25061   -24918   -24574   -24475   -24410   -24313   -24636   -24923 
  -24644   -24468   -24567   -24363   -24463   -25124   -25224   -24970 
  -25184   -24977   -24409   -24723   -25097   -24953   -24908   -24472 
  -24187   -24711   -24952   -25066   -25088   -24291   -23994   -24371 
  -24205   -24632   -25442   -24765   -24193   -24834   -24582   -24100 
  -25057   -25312   -24418   -24606   -24953   -24561   -24819   -25220 
  -24972   -24885   -24900   -24594   -24588   -24964   -24815   -24344 
  -24672   -25107   -24538   -24290   -24968   -25043   -24606   -24769 
  -24856   -24300   -24169   -24617   -24698   -24637   -24772   -24781 
  -24729   -24556   -24343   -24715   -25122   -24717   -24671   -25324 
  -24962   -24155   -24667   -25200   -24741   -24780   -24912   -24332 
  -24601   -25150   -24482   -24282   -24996   -24742   -24273   -24854 
  -24943   -24466   -24992   -25308   -24605   -24452   -24525   -24090 
  -24294   -25138   -25380   -24908   -24645   -24656   -24289   -24255 
  -24916   -25024   -24773   -24950   -24745   -24250   -24514   -24984 
  -24827   -24590   -24799   -24879   -24495   -24520   -24900   -24661 
  -24398   -24706   -25018   -25223   -25084   -24700   -24807   -24772 
  -24617   -25161   -25027   -24327   -24725   -24692   -23895   -24441 
  -25091   -24435   -24291   -25024   -25003   -24159   -23897   -24538 
  -24760   -24667   -25431   -25578   -24413   -24449   -25285   -24719 
  -24549   -25490   -25103   -24354   -24903   -25006   -24484   -24574 
  -24495   -24225   -24570   -24861   -24852   -24727   -24277   -24293 
  -24765   -24683   -24771   -25112   -24695   -24382   -24502   -24501 
  -24906   -25101   -24574   -24617   -25003   -24630   -24439   -25097 
  -25219   -24532   -24498   -24826   -24723   -24973   -25061   -24479 
  -24645   -25100   -24741   -24594   -24619   -24197   -24329   -24817 
  -24649   -24590   -24790   -24398   -24227   -24773   -25022   -25177 
  -25582   -25216   -24385   -24385   -24945   -25108   -24763   -24559 
  -24850   -24903   -24617   -24980   -25150   -24155   -23924   -24888 
  -24910   -24517   -24895   -24579   -23718   -24156   -24957   -24956 
  -25145   -25218   -24483   -24309   -25010   -25278   -25146   -25046 
  -24575   -24136   -24439   -25015   -25228   -24970   -24499   -24212 
  -24209   -24397   -24676   -24983   -24980   -24443   -24200   -24468 
  -24310   -24202   -24795   -24972   -24570   -24601   -24840   -24691 
  -24474   -24686   -25051   -24915   -24555   -24788   -25371   -25181 
  -24498   -24860   -25469   -24800   -24441   -25172   -25058   -24344 
  -24563   -24884   -24734   -24767   -24555   -24171   -24493   -24910 
  -24887   -24871   -24781   -24625   -24707   -24952   -25039   -24615 
  -24214   -24484   -24757   -24634   -24609   -24624   -24300   -23988 
  -24413   -25261   -25200   -24428   -24641   -25381   -25159   -24931 
  -25362   -25168   -24314   -24169   -24591   -24447   -24420   -25014 
  -24934   -24482   -24663   -24803   -24614   -24732   -25243   -25416 
  -24929   -24429   -24258   -24208   -24295   -24800   -25177   -24761 
  -24417   -24451   -24382   -24715   -25178   -24916   -24391   -24286 
  -24579   -24791   -24690   -24625   -24707   -24788   -24825   -24957 
  -25297   -25168   -24489   -24543   -25033   -24891   -24977   -25285 
  -24844   -24563   -24817   -24714   -24224   -23399   -22844   -23415 
  -24278   -25084   -26061   -25986   -24960   -24637   -24772   -24405 
  -24067   -24636   -25740   -25702   -24387   -23676   -23386   -22590 
  -22968   -24915   -25864   -25605   -26125   -26597   -26153   -26331 
  -26396   -24302   -21687   -21443   -23053   -24784   -26608   -27745 
  -27083   -25513   -24109   -23269   -23002   -22543   -21828   -22261 
  -24133   -25821   -27321   -28939   -28551   -26248   -24354   -23279 
  -22987   -22893   -22281   -22667   -24179   -24860   -25270   -26509 
  -27167   -26383   -25362   -24840   -24642   -24977   -25409   -24977 
  -24216   -24183   -24675   -24989   -24830   -24283   -23718   -23498 
  -23723   -24340   -25112   -25471   -25050   -24067   -23758   -25203 
  -26380   -25431   -24449   -24695   -24757   -24143   -24177   -25577 
  -26488   -25844   -25134   -25072   -25165   -24864   -23770   -22507 
  -22219   -22599   -22474   -22585   -24174   -25851   -26451   -26990 
  -27201   -26586   -26265   -25718   -24499   -24347   -24435   -22640 
  -21078   -22142   -24063   -24889   -24956   -24969   -24983   -24822 
  -24775   -25064   -25362   -25578   -25820   -26037   -26176   -26038 
  -25795   -25802   -25693   -25436   -25038   -24057   -22958   -22102 
  -22065   -23666   -25131   -25006   -24502   -24021   -23542   -23371 
  -22840   -22956   -24638   -25386   -24989   -25794   -26982   -27286 
  -27294   -26935   -26045   -25170   -24169   -23183   -23407   -24256 
  -23977   -23814   -25348   -26177   -24877   -24106   -24691   -24965 
  -25056   -25003   -24061   -23584   -24329   -24212   -23070   -23280 
  -24279   -24538   -25272   -26015   -25074   -24409   -25517   -26009 
  -25407   -25609   -25367   -23859   -23773   -24929   -24765   -24378 
  -25293   -25390   -23885   -23548   -24773   -25141   -24455   -24229 
  -24592   -24290   -23587   -24294   -25500   -25373   -25108   -25266 
  -24948   -24950   -25006   -23572   -22655   -24005   -24629   -24003 
  -25130   -26676   -26304   -25384   -24952   -25267   -26091   -25701 
  -24568   -24533   -24540   -23788   -23862   -24502   -24039   -23396 
  -23903   -24266   -23719   -23680   -24236   -24086   -23826   -24540 
  -25361   -25316   -24915   -25014   -25475   -25937   -26663   -26937 
  -25728   -24711   -25563   -26087   -24948   -24598   -25255   -24786 
  -24271   -25119   -25096   -23329   -22932   -24443   -24657   -23890 
  -24621   -24817   -22800   -22283   -24291   -25122   -24948   -25589 
  -25605   -25147   -25705   -25961   -24889   -24214   -24732   -25230 
  -25313   -25151   -24779   -24243   -23603   -23953   -25238   -25377 
  -24194   -23326   -23541   -24437   -24876   -24709   -24742   -24439 
  -23666   -23827   -24749   -25240   -25380   -25340   -25045   -24745 
  -24498   -24471   -24717   -24717   -24759   -25532   -25899   -24725 
  -23803   -24464   -24906   -24397   -24651   -25818   -25837   -24490 
  -24120   -24941   -24983   -24549   -24660   -24356   -23857   -24773 
  -25961   -25678   -25262   -25478   -25231   -24713   -24366   -24138 
  -24422   -24603   -24115   -24017   -24362   -24178   -24005   -24424 
  -24580   -24187   -24124   -24433   -24491   -24629   -24977   -24634 
  -24042   -24524   -25111   -24869   -25010   -25454   -25435   -25479 
  -25380   -25232   -25740   -25505   -24193   -24046   -24965   -25204 
  -24861   -24607   -24783   -25324   -25354   -25065   -25447   -25348 
  -24093   -23901   -24829   -24521   -23834   -24194   -23882   -23009 
  -23585   -24430   -24302   -24362   -24586   -24336   -24316   -24618 
  -24486   -24426   -25132   -25540   -25068   -24837   -24996   -24853 
  -24788   -25084   -25092   -24634   -24497   -24799   -24846   -24867 
  -24880   -24568   -24864   -25475   -25153   -24841   -25186   -25073 
  -24565   -24563   -24977   -25161   -24676   -24359   -24980   -25170 
  -24505   -24598   -25099   -24698   -24182   -24414   -24679   -24306 
  -24169   -24934   -25243   -24752   -24788   -24966   -24682   -24764 
  -25122   -24849   -24025   -23699   -24036   -24101   -24206   -24628 
  -24398   -24020   -24275   -24441   -24463   -24648   -24718   -24711 
  -24796   -25207   -25586   -25068   -24598   -25010   -24989   -24719 
  -25461   -26134   -25577   -24719   -24703   -25035   -24860   -24823 
  -25118   -24875   -24475   -24480   -24474   -24544   -24964   -24966 
  -24308   -24169   -24543   -24352   -24061   -24480   -24954   -24723 
  -24362   -24538   -24808   -24815   -24652   -24518   -25046   -25597 
  -24958   -24345   -24760   -25031   -24925   -25061   -24992   -24482 
  -24147   -24212   -24587   -24892   -24587   -24201   -24302   -24387 
  -24436   -24799   -24943   -24503   -24247   -24887   -25807   -25794 
  -24891   -24393   -24530   -24417   -24333   -24557   -24325   -24142 
  -24422   -24223   -24135   -24821   -24888   -24408   -24648   -24845 
  -24408   -24305   -24730   -25165   -25392   -25498   -25605   -25386 
  -25019   -25103   -25216   -25035   -24858   -24709   -24683   -24684 
  -24684   -24972   -25027   -24709   -24637   -24552   -24471   -24590 
  -24243   -23996   -24525   -24661   -24333   -24551   -24838   -24799 
  -24754   -24587   -24526   -24709   -24609   -24594   -25047   -25119 
  -24673   -24526   -24907   -25425   -25328   -24637   -24405   -24588 
  -24420   -24256   -24401   -24448   -24486   -24718   -24981   -25116 
  -24733   -24102   -24305   -25026   -25054   -24765   -24915   -24834 
  -24295   -24362   -24941   -24939   -24848   -25145   -25045   -24871 
  -24964   -24773   -24848   -25245   -25041   -24694   -24574   -24368 
  -24601   -24881   -24688   -24972   -25103   -24235   -23992   -24557 
  -24507   -24398   -24718   -24440   -23836   -23934   -24359   -24745 
  -25057   -24800   -24452   -24722   -24907   -24808   -25281   -25708 
  -24989   -24381   -24881   -25137   -24877   -24916   -24660   -24267 
  -24640   -24884   -24626   -24807   -24957   -24698   -24807   -25054 
  -24815   -24337   -24163   -24526   -24845   -24663   -24510   -24459 
  -24240   -24456   -25049   -25150   -24961   -24861   -24597   -24408 
  -24532   -24482   -24341   -24622   -24813   -24625   -24656   -24835 
  -24945   -25218   -25451   -25344   -25065   -24930   -25012   -24973 
