Origin Time       2019/03/09 01:08:00
Lat.              35.4
Long.             136.7
Depth. (km)       40
Mag.              4.5
Station Code      AICH11
Station Lat.      35.3059
Station Long.     137.057
Station Height(m) 62.48
Record Time       2019/03/09 01:08:12
Sampling Freq(Hz) 100Hz
Duration Time(s)  120
Dir.              3
Scale Factor      2942(gal)/8224139
Max. Acc. (gal)   7.993
Last Correction   2019/03/09 01:07:57
Memo.             
[...]
   88291    88298    88292    88283    88296    88294    88287    88299 
   88299    88299    88296    88288    88300    88302    88285    88288 
   88299    88302    88300    88296    88291    88291    88296    88296 
   88285    88285    88294    88294    88295    88299    88292    88294 
   88302    88303    88298    88292    88295    88300    88296    88291 
   88294    88300    88300    88290    88294    88310    88303    88295 
   88300    88300    88296    88295    88302    88307    88302    88299 
   88303    88302    88294    88291    88302    88302    88290    88300 
   88318    88306    88294    88299    88296    88294    88308    88307 
   88291    88294    88300    88298    88303    88302    88295    88302 
   88303    88291    88294    88302    88304    88302    88288    88287 
   88296    88298    88302    88307    88303    88300    88300    88300 
   88304    88304    88304    88306    88298    88294    88304    88312 
   88304    88296    88304    88319    88312    88291    88294    88299 
   88288    88299    88315    88304    88300    88304    88296    88288 
   88294    88303    88306    88303    88299    88295    88298    88310 
   88312    88310    88314    88310    88303    88300    88296    88294 
   88298    88308    88308    88292    88290    88295    88298    88312 
   88317    88299    88306    88315    88291    88299    88326    88311 
   88300    88310    88303    88290    88291    88304    88308    88296 
   88299    88308    88291    88279    88292    88304    88312    88314 
   88300    88292    88306    88311    88302    88307    88306    88292 
   88298    88310    88306    88298    88295    88298    88299    88303 
   88302    88298    88306    88312    88311    88307    88302    88306 
   88312    88303    88292    88298    88302    88300    88304    88307 
   88302    88300    88310    88304    88294    88296    88295    88292 
   88302    88299    88296    88307    88308    88307    88308    88302 
   88298    88303    88304    88303    88298    88298    88300    88292 
   88291    88304    88307    88300    88298    88300    88300    88294 
   88292    88298    88295    88296    88302    88300    88298    88299 
   88303    88304    88298    88298    88304    88300    88296    88306 
   88317    88311    88299    88296    88298    88291    88292    88299 
   88303    88303    88294    88291    88298    88298    88295    88292 
   88295    88303    88296    88291    88294    88294    88299    88295 
   88292    88302    88295    88288    88298    88299    88291    88294 
   88298    88290    88290    88298    88294    88294    88299    88295 
   88285    88285    88303    88303    88273    88279    88298    88287 
   88288    88288    88277    88288    88288    88281    88296    88292 
   88272    88284    88294    88276    88281    88298    88287    88283 
   88290    88285    88287    88283    88280    88291    88287    88284 
   88288    88281    88280    88285    88283    88280    88287    88298 
   88291    88279    88290    88294    88279    88280    88287    88281 
   88285    88294    88287    88283    88292    88292    88284    88292 
   88296    88283    88283    88291    88290    88292    88298    88290 
   88279    88283    88291    88291    88288    88292    88285    88277 
   88285    88287    88287    88292    88281    88281    88298    88291 
   88273    88275    88285    88290    88285    88280    88279    88277 
   88280    88295    88298    88284    88280    88283    88283    88281 
   88283    88291    88284    88273    88280    88284    88283    88280 
   88276    88283    88291    88283    88277    88288    88295    88281 
   88273    88287    88290    88283    88284    88280    88273    88279 
   88283    88279    88280    88288    88281    88272    88291    88299 
   88284    88285    88288    88284    88288    88285    88280    88283 
   88281    88273    88267    88269    88277    88284    88285    88275 
   88265    88276    88285    88275    88271    88280    88276    88277 
   88288    88280    88273    88280    88284    88275    88261    88261 
   88265    88272    88283    88281    88273    88287    88300    88283 
   88268    88281    88285    88276    88280    88287    88287    88290 
   88283    88279    88292    88287    88272    88277    88288    88290 
   88281    88276    88285    88290    88281    88283    88291    88290 
   88288    88295    88292    88279    88283    88298    88295    88276 
   88268    88280    88288    88291    88288    88283    88284    88281 
   88279    88285    88283    88279    88283    88281    88277    88283 
   88281    88277    88283    88284    88285    88290    88280    88269 
   88271    88279    88290    88288    88281    88283    88281    88272 
   88271    88279    88277    88276    88287    88283    88271    88284 
   88298    88284    88276    88283    88287    88281    88279    88283 
   88288    88287    88273    88269    88287    88292    88288    88284 
   88277    88280    88283    88279    88277    88275    88279    88284 
   88281    88281    88283    88277    88276    88280    88273    88271 
   88290    88292    88273    88279    88294    88283    88275    88283 
   88281    88272    88272    88280    88283    88277    88280    88285 
   88280    88277    88277    88281    88287    88280    88284    88292 
   88280    88276    88283    88277    88279    88287    88284    88280 
   88277    88276    88279    88284    88288    88281    88276    88281 
   88280    88276    88280    88280    88290    88299    88283    88276 
   88283    88279    88283    88292    88287    88277    88276    88283 
   88295    88302    88288    88280    88294    88290    88276    88284 
   88285    88280    88281    88281    88276    88275    88280    88281 
   88281    88279    88275    88279    88279    88271    88267    88271 
   88269    88265    88268    88272    88279    88284    88285    88276 
   88263    88271    88279    88268    88271    88276    88269    88273 
   88279    88273    88269    88272    88271    88267    88265    88267 
   88275    88277    88268    88264    88261    88260    88273    88273 
   88261    88269    88269    88263    88273    88273    88264    88265 
   88269    88267    88264    88269    88275    88261    88260    88275 
   88268    88260    88271    88265    88258    88271    88271    88261 
   88265    88268    88271    88279    88264    88249    88265    88271 
   88253    88265    88283    88267    88257    88265    88261    88261 
   88272    88271    88268    88275    88268    88261    88273    88275 
   88263    88264    88277    88283    88271    88258    88269    88272 
   88253    88257    88276    88265    88257    88276    88276    88257 
   88261    88267    88264    88276    88279    88263    88263    88277 
   88277    88264    88256    88267    88281    88272    88257    88264 
   88269    88271    88277    88269    88263    88271    88269    88268 
   88276    88268    88268    88279    88265    88265    88285    88281 
   88267    88264    88265    88271    88275    88263    88253    88264 
   88265    88252    88256    88263    88268    88276    88269    88258 
   88261    88260    88261    88271    88267    88254    88260    88263 
   88254    88256    88267    88267    88256    88252    88258    88265 
   88279    88280    88267    88269    88271    88256    88252    88256 
   88261    88269    88272    88276    88277    88271    88263    88267 
   88273    88261    88260    88271    88258    88252    88269    88276 
   88267    88261    88263    88265    88269    88271    88269    88261 
   88264    88269    88258    88273    88345    88468    88636    88792 
   88805    88668    88541    88454    88125    87652    87822    88722 
   89174    88180    85869    84321    86509    90697    91045    87982 
   87478    89136    88493    86350    86138    88778    91439    89683 
   85372    86800    93266    92699    84439    82578    89976    93376 
   87546    83131    86525    92400    93051    85752    81406    87940 
   92299    87377    85324    91165    92522    85079    84942    94113 
   92592    81108    81445    93453    96091    87120    83322    87434 
   89397    88897    89012    87768    87153    88113    88813    89471 
   88118    87363    89735    88828    84701    85257    91146    93032 
   87035    84370    89321    90741    86076    85635    91336    92816 
   87520    84767    87405    88843    88119    88618    87485    85941 
   89387    90914    86721    86503    89523    88890    87905    87913 
   88082    89603    89476    87918    88493    90103    89295    86135 
   86486    90178    89347    85966    87180    90100    89637    87598 
   86923    87385    87477    88075    90104    89608    86620    86135 
   87797    89452    88952    86595    87496    89949    89318    87617 
   87307    88904    90146    88924    87388    86539    87284    90749 
   91889    87114    84260    88470    90826    87513    86181    88518 
   89911    88346    86123    86950    89792    90761    88924    86481 
   87021    89032    88750    89233    90088    87480    85560    87276 
   89679    89514    87523    86837    86668    87812    90385    89525 
   86749    87461    90251    89829    86452    86590    90289    90032 
   86463    86902    89156    87970    87400    89469    89536    87477 
   86734    87913    89321    89298    87993    87571    88905    89357 
   87947    87631    88584    87847    87012    88389    89002    88495 
   88487    87562    86491    87743    90067    89407    87411    87724 
   88465    89876    90024    86281    85608    89473    90355    87497 
   86175    88252    89928    88307    86674    88717    90593    88078 
   86221    87755    88402    88885    89947    88234    86703    88734 
   89962    88361    87249    87983    88087    87038    88383    89854 
   87717    86803    88924    89275    87011    86937    89631    89091 
   87447    88715    88256    87785    89762    89021    86772    87511 
   90255    90243    86391    86011    89060    88642    87474    87871 
   87601    88335    89554    88246    86621    88578    91536    89611 
   85240    85897    89653    89985    88128    87590    88449    89367 
   87963    86413    88269    89159    87579    87991    89175    88520 
   87766    88156    88053    87119    87593    89715    90412    87519 
   85342    87758    90143    89359    88042    87458    87435    88670 
   90082    89210    87917    88555    88564    87582    87354    87631 
   88925    89750    87551    85459    87939    90890    89055    86806 
   87285    88026    88638    88744    88685    88674    87204    87828 
   90526    88638    85746    87913    90081    88676    87118    87309 
   88318    88616    87997    88037    88461    88615    89001    88596 
   87454    87535    89376    90027    87662    86590    88520    88902 
   86795    86537    88830    89937    89475    88658    87146    86418 
   88109    90146    89181    86617    86563    89221    90645    88520 
   87274    89379    89924    87886    86791    86998    87794    88792 
   88265    86699    87241    89676    89945    87372    86698    88857 
   88996    87006    87180    89437    90444    89259    87723    87493 
   88916    89733    87482    86275    88464    88582    87227    88533 
   89565    87975    86024    86950    89839    89856    87929    88001 
   89359    89442    87264    86296    89070    90147    87173    85799 
   87490    89243    89275    88173    88110    88210    87853    87929 
   88150    89251    89679    88103    87729    89094    88727    87502 
   88793    89183    86811    87249    89514    88570    86977    88146 
   89186    87309    86391    88344    89552    89910    89081    86563 
   86946    89509    89322    87716    87636    88788    88715    87737 
   88879    89159    86336    86188    89961    90853    87145    85540 
   88163    89849    89244    87951    86617    87011    89241    90645 
   88962    86845    88122    89166    88021    88287    88738    88188 
   87856    87066    87318    88732    88886    88086    87781    88404 
   88952    89039    88152    86782    87662    89298    89010    87413 
   87454    90100    89750    86278    86252    89147    90116    88875 
   88263    87575    86884    88214    88851    88734    88766    86861 
   86208    88283    90211    90130    87084    85973    88539    89194 
   88271    87862    88013    89249    89536    88322    87637    89116 
   89781    86354    86112    90926    90355    85487    86067    90352 
   90586    87181    86753    89452    89306    87060    87046    88967 
   90244    87470    84393    87390    90394    88820    87323    87083 
   87808    89194    89374    88777    88304    88776    89595    88898 
   87924    87939    88753    88852    86969    86710    89583    90713 
   87778    85703    88426    89672    86316    87035    90571    88547 
   85398    86552    90510    92689    89438    85962    86302    87656 
   88059    87322    88443    90717    88755    85271    86320    90360 
   91341    87372    84723    87755    90498    89853    89897    89380 
   86467    84546    87091    92403    92252    85911    83057    87130 
   91065    89777    87525    86719    86260    89279    93267    90979 
   86919    89093    91701    88125    84743    85769    85908    83570 
   83442    88191    96132   102635   102136    92919    82255    82383 
   93287    96634    82038    69358    77958    87772    79590    78775 
   94857    96029    82921    84028    91277    84307    80142    96129 
  102942    82798    73828    94873   110647   101574    89019    85789 
   84449    83262    83427    85448    88599    87197    87033    92904 
   92998    86391    83500    87285    91814    90004    86062    80099 
   69797    73577    94432   103530    93414    85275    87806    93818 
   97532    96504    92979    90132    87033    85995    89920    93987 
   92007    84933    80408    83633    88408    87200    84051    83632 
   86147    90373    90972    87975    85090    84433    88857    91646 
   87615    85827    88971    88959    85641    86644    90641    90861 
   88807    87454    86471    85972    87874    91725    90655    86713 
   87563    88921    89402    92245    92109    88329    87358    89249 
   91565    92056    88766    85727    86634    90234    91723    87883 
   86432    89650    86873    82769    88264    93487    89946    84612 
   83438    86732    87660    82182    79834    84025    87197    87224 
   87134    88948    91739    93710    92053    87793    90416    96662 
   93401    87254    87358    87002    84581    85820    87829    86070 
   86243    89689    89230    87659    90319    93137    92885    91119 
   89941    88277    85548    85106    86020    85637    85118    84908 
   85758    87826    88547    87882    88302    89631    89862    88746 
   88861    90201    89511    89392    91146    89232    86271    87650 
   88712    87216    86516    86042    85590    87610    89455    87687 
   86424    88642    91601    92284    89883    88612    90375    90085 
   88631    90063    89479    86362    86702    86668    84439    85653 
   87528    86663    86139    87058    87968    88281    89546    90543 
   89916    91465    92635    89222    87934    89761    87693    85243 
   86447    86778    87462    90801    91039    87922    86339    85860 
   86435    87972    88449    88277    87528    87774    89733    89086 
   87129    88067    88570    87226    87242    86556    83755    83664 
   86996    89090    88398    87428    88582    90520    90710    90576 
   90902    88888    86825    89162    92738    93259    91308    89995 
   90154    89289    88223    88441    87913    86062    84703    84481 
   84337    85361    87446    86783    85328    87563    89152    86707 
   86209    89020    89691    88650    88842    90200    91786    91339 
   89379    88925    89133    89264    90405    91019    89703    87470 
   86071    86235    87025    88411    89997    89947    88836    87929 
   87524    88210    87899    85962    86572    88624    88392    87623 
   86333    84869    86371    88230    87615    87072    87331    87157 
   87814    89527    89391    88437    89085    88361    87176    89284 
   90366    88110    87400    88184    87951    88456    89715    90147 
   90093    89141    88053    88538    89198    89117    88939    88716 
   88507    87716    86965    88258    90053    89101    87056    86814 
   87137    87421    88346    88200    86705    86725    88558    89264 
   88142    86489    85684    87674    90518    89808    87358    87328 
   88758    89302    88994    89182    90088    89683    87902    87806 
   88948    88283    87428    88474    89055    88614    88834    88002 
   86220    87246    89418    89000    87447    86575    86032    86065 
   86850    86790    86292    87814    89548    89348    89445    89926 
   88719    87678    88673    89868    90552    90923    89826    88720 
   88915    88381    88006    89384    89152    86135    85216    87320 
   88369    88460    88441    87434    86795    87188    88083    88636 
   87758    86941    87543    87446    86748    88700    90328    88180 
   87520    89766    90100    88381    87158    87565    89019    89576 
   88383    87605    88622    88626    87385    87681    88865    89622 
   89694    88744    88125    88366    88002    87691    88339    88322 
   87739    88156    88317    87574    88045    88983    88778    88877 
   88753    87741    88029    88886    88171    87724    88717    88157 
   86406    87135    88572    88045    87567    88295    88580    87505 
   87112    88218    88711    89214    89513    87893    87615    89409 
   89680    88785    88240    87844    87673    88160    88824    88669 
   88457    88391    87716    87697    88450    88045    87058    87467 
   88360    88528    88892    88607    87041    86672    88091    89448 
   89475    88203    87546    88172    88180    87845    88445    88724 
   88554    88785    88901    88959    88942    88292    87548    87922 
   88307    87307    87636    89332    88916    87972    88219    88365 
   88935    88897    87203    87219    88842    88665    88029    87944 
   87181    87300    88523    88570    88155    88576    88365    87679 
   88013    88192    87814    88307    88967    88535    88032    88647 
   89267    88441    87764    88960    89530    87903    87089    88403 
   89351    88372    87106    87804    89202    89001    88488    88588 
   88071    87416    87778    88461    88258    87899    87812    87508 
   88450    89676    88468    87107    87955    88992    88701    87920 
   87778    87986    87752    87822    88383    88435    88221    88272 
   88161    87555    87423    88578    89386    88348    87158    87617 
   88364    88125    88173    88936    88784    87677    87970    89127 
   88735    88601    89380    88736    88026    88551    88827    88381 
   88126    88881    89063    87775    87408    87922    87764    87663 
   87743    87891    88473    88492    88033    88221    88087    87578 
   88236    88951    88379    87871    88217    88484    88611    88994 
   88569    87575    88068    89017    88163    87075    87579    88426 
   88388    87860    87696    87922    88361    89067    89275    88915 
   88433    87986    88306    88672    88433    88504    88484    88219 
   88084    87748    87798    88242    88344    88101    87779    88194 
