Origin Time       2019/03/09 01:08:00
Lat.              35.4
Long.             136.7
Depth. (km)       40
Mag.              4.5
Station Code      AICH15
Station Lat.      35.1392
Station Long.     137.3359
Station Height(m) 30.3
Record Time       2019/03/09 01:08:15
Sampling Freq(Hz) 100Hz
Duration Time(s)  120
Dir.              3
Scale Factor      2942(gal)/8224139
Max. Acc. (gal)   3.568
Last Correction   2019/03/09 01:08:00
Memo.             
[...]
 -195565  -195566  -195569  -195566  -195563  -195567  -195569  -195566 
 -195566  -195569  -195567  -195567  -195570  -195569  -195569  -195567 
 -195566  -195569  -195569  -195566  -195567  -195569  -195566  -195567 
 -195570  -195570  -195567  -195566  -195567  -195569  -195567  -195566 
 -195567  -195567  -195569  -195569  -195566  -195566  -195567  -195567 
 -195565  -195567  -195569  -195566  -195567  -195570  -195569  -195566 
 -195565  -195563  -195565  -195569  -195567  -195565  -195565  -195567 
 -195566  -195565  -195561  -195565  -195569  -195566  -195566  -195569 
 -195567  -195567  -195570  -195569  -195570  -195570  -195566  -195566 
 -195570  -195569  -195566  -195566  -195569  -195567  -195567  -195569 
 -195566  -195566  -195567  -195566  -195567  -195569  -195569  -195566 
 -195566  -195567  -195567  -195567  -195569  -195566  -195567  -195570 
 -195565  -195562  -195567  -195569  -195566  -195567  -195567  -195565 
 -195569  -195567  -195565  -195565  -195565  -195566  -195569  -195567 
 -195566  -195566  -195566  -195566  -195565  -195565  -195567  -195567 
 -195566  -195566  -195566  -195565  -195566  -195569  -195569  -195566 
 -195567  -195569  -195569  -195569  -195567  -195567  -195567  -195566 
 -195565  -195565  -195566  -195567  -195566  -195566  -195567  -195566 
 -195567  -195565  -195563  -195566  -195567  -195566  -195567  -195569 
 -195565  -195565  -195569  -195570  -195569  -195567  -195565  -195565 
 -195569  -195570  -195570  -195569  -195567  -195569  -195569  -195569 
 -195569  -195569  -195570  -195570  -195567  -195567  -195569  -195569 
 -195569  -195570  -195569  -195567  -195566  -195566  -195567  -195567 
 -195565  -195563  -195566  -195569  -195569  -195567  -195567  -195566 
 -195563  -195566  -195567  -195566  -195567  -195566  -195563  -195566 
 -195567  -195567  -195567  -195567  -195566  -195566  -195567  -195567 
 -195566  -195566  -195567  -195565  -195563  -195566  -195567  -195566 
 -195566  -195566  -195563  -195563  -195566  -195567  -195567  -195566 
 -195565  -195565  -195566  -195569  -195567  -195566  -195567  -195569 
 -195567  -195567  -195567  -195566  -195567  -195567  -195567  -195567 
 -195567  -195566  -195567  -195566  -195566  -195567  -195566  -195566 
 -195567  -195566  -195565  -195566  -195567  -195566  -195567  -195567 
 -195565  -195566  -195566  -195566  -195570  -195571  -195567  -195567 
 -195567  -195566  -195566  -195567  -195567  -195567  -195567  -195566 
 -195567  -195571  -195570  -195567  -195566  -195565  -195563  -195565 
 -195566  -195566  -195567  -195570  -195569  -195566  -195565  -195567 
 -195569  -195566  -195566  -195567  -195567  -195567  -195566  -195565 
 -195567  -195567  -195566  -195569  -195570  -195569  -195569  -195566 
 -195566  -195569  -195569  -195567  -195566  -195565  -195569  -195571 
 -195569  -195569  -195570  -195567  -195567  -195569  -195569  -195569 
 -195567  -195567  -195570  -195570  -195567  -195570  -195571  -195569 
 -195567  -195569  -195569  -195567  -195567  -195567  -195569  -195569 
 -195567  -195567  -195567  -195569  -195566  -195565  -195566  -195567 
 -195569  -195566  -195566  -195569  -195569  -195566  -195566  -195567 
 -195567  -195567  -195566  -195565  -195567  -195569  -195569  -195569 
 -195567  -195567  -195567  -195566  -195569  -195570  -195569  -195567 
 -195567  -195570  -195571  -195573  -195573  -195569  -195567  -195569 
 -195570  -195569  -195569  -195569  -195567  -195567  -195569  -195570 
 -195571  -195567  -195566  -195566  -195565  -195567  -195570  -195569 
 -195565  -195565  -195565  -195565  -195566  -195567  -195566  -195566 
 -195567  -195569  -195567  -195566  -195567  -195566  -195565  -195567 
 -195570  -195569  -195567  -195567  -195567  -195567  -195566  -195566 
 -195565  -195565  -195569  -195567  -195565  -195567  -195567  -195565 
 -195565  -195567  -195567  -195566  -195566  -195567  -195567  -195566 
 -195567  -195569  -195570  -195570  -195567  -195566  -195567  -195567 
 -195567  -195569  -195569  -195567  -195567  -195567  -195567  -195567 
 -195567  -195569  -195569  -195567  -195567  -195569  -195569  -195566 
 -195566  -195569  -195569  -195567  -195569  -195570  -195569  -195567 
 -195569  -195569  -195569  -195569  -195569  -195569  -195569  -195567 
 -195569  -195570  -195570  -195569  -195569  -195570  -195569  -195567 
 -195566  -195566  -195569  -195571  -195567  -195567  -195573  -195571 
 -195567  -195569  -195569  -195569  -195569  -195567  -195567  -195567 
 -195566  -195566  -195569  -195569  -195566  -195569  -195567  -195565 
 -195567  -195569  -195567  -195566  -195566  -195567  -195566  -195565 
 -195566  -195567  -195567  -195569  -195567  -195567  -195570  -195569 
 -195567  -195569  -195567  -195565  -195566  -195569  -195569  -195567 
 -195571  -195571  -195569  -195566  -195566  -195567  -195569  -195570 
 -195569  -195567  -195567  -195570  -195567  -195563  -195562  -195556 
 -195542  -195519  -195485  -195439  -195381  -195312  -195251  -195228 
 -195277  -195400  -195588  -195848  -196180  -196526  -196823  -197033 
 -197036  -196654  -195891  -195070  -194512  -194152  -193803  -193762 
 -194472  -195616  -196442  -196480  -195844  -195332  -195335  -195296 
 -195027  -194833  -194805  -195126  -195710  -195960  -195964  -196406 
 -196830  -196334  -195893  -196538  -196834  -195863  -195238  -195621 
 -194652  -192221  -192966  -196558  -197197  -195154  -194270  -195438 
 -197256  -197170  -196094  -195902  -195127  -195347  -197545  -196767 
 -193564  -194074  -196825  -196240  -193156  -192827  -195793  -196835 
 -195474  -195916  -197075  -196144  -194740  -194842  -195444  -195139 
 -194737  -195216  -196126  -196902  -196987  -195875  -195004  -195894 
 -196427  -195424  -194921  -195494  -196296  -195779  -193584  -193035 
 -195012  -196051  -195818  -196160  -196420  -195856  -195191  -196017 
 -197560  -196861  -195214  -195073  -195432  -195505  -195019  -194931 
 -196420  -196053  -193405  -193661  -196156  -197136  -196446  -195517 
 -195748  -195532  -194301  -195021  -196500  -195562  -194266  -195361 
 -196619  -196176  -195669  -195151  -194491  -195208  -196334  -195994 
 -195528  -196241  -195856  -194270  -194687  -196543  -196982  -195351 
 -194286  -195976  -196650  -194996  -195091  -195998  -195721  -195513 
 -195565  -196091  -196014  -194783  -194806  -195243  -194822  -195685 
 -196906  -195972  -194350  -194621  -196643  -197931  -196649  -194433 
 -194121  -195386  -196103  -195436  -194949  -196240  -196819  -194989 
 -193783  -194555  -195563  -195897  -195565  -195154  -195700  -196238 
 -195349  -195195  -196747  -196596  -194845  -194976  -196620  -197104 
 -195565  -194317  -195161  -195926  -195362  -195278  -196215  -196294 
 -195092  -194431  -194952  -195716  -195396  -194638  -195523  -197163 
 -197428  -195694  -193506  -193823  -196059  -197301  -196632  -194709 
 -193954  -195386  -196402  -196083  -195548  -194904  -194698  -195227 
 -196233  -196971  -195952  -195045  -195740  -195446  -194907  -195999 
 -196495  -195498  -194846  -195462  -196198  -195756  -195224  -195812 
 -195832  -194568  -194729  -196303  -196190  -195124  -195490  -195847 
 -194859  -194526  -195552  -196111  -195816  -195693  -195910  -196006 
 -195953  -195705  -194962  -195025  -196333  -196635  -195866  -195061 
 -194382  -194786  -195512  -195818  -196534  -196469  -194798  -194088 
 -195438  -196094  -195737  -196014  -195442  -194809  -196300  -196773 
 -195007  -194630  -195567  -195880  -196114  -195806  -194911  -195170 
 -196160  -196406  -195516  -194397  -195042  -196381  -196068  -195424 
 -195297  -195288  -195720  -195463  -194908  -195752  -196765  -196215 
 -194702  -194278  -195266  -196083  -195961  -195285  -195461  -196261 
 -195832  -194691  -194579  -195940  -196892  -196080  -195384  -195652 
 -195814  -195369  -195168  -195600  -195264  -195261  -195975  -195322 
 -195235  -196218  -195940  -195470  -195397  -195150  -195296  -195497 
 -195417  -195609  -196114  -196061  -195372  -195076  -195192  -195627 
 -195789  -195042  -195326  -196102  -195621  -195728  -195998  -195426 
 -195242  -195241  -195951  -196650  -195550  -195145  -196092  -195943 
 -195432  -195450  -195303  -195119  -195353  -195795  -195739  -195428 
 -195407  -194989  -194656  -196153  -197237  -195058  -193622  -195623 
 -197035  -196245  -195393  -195037  -195224  -196453  -196690  -194892 
 -194729  -196215  -195350  -194065  -195147  -196227  -196300  -196064 
 -195345  -194629  -194850  -196194  -197194  -196611  -195057  -194287 
 -195095  -195813  -195521  -195237  -195821  -196645  -195999  -194841 
 -195305  -195475  -194157  -194518  -196233  -196194  -195849  -196520 
 -196515  -195550  -194652  -194610  -195485  -196352  -196628  -196223 
 -194994  -194358  -195291  -195812  -195523  -195801  -195498  -194579 
 -195577  -196925  -195574  -194044  -195083  -196506  -196033  -195016 
 -195077  -196015  -197077  -196695  -195054  -194255  -194846  -196053 
 -196068  -195073  -195505  -196134  -195789  -196369  -196412  -194529 
 -193657  -194849  -196315  -196622  -195988  -195620  -195162  -194441 
 -194787  -196300  -196780  -195478  -195297  -196045  -194877  -194128 
 -195983  -197255  -196014  -194468  -194876  -196663  -196730  -194613 
 -194405  -196373  -196615  -195436  -195031  -194979  -194961  -195632 
 -196496  -196430  -195110  -194192  -195718  -197136  -195810  -194478 
 -194733  -195743  -196277  -195134  -194879  -196209  -196187  -195547 
 -195431  -195103  -195178  -196233  -196510  -195246  -194918  -195345 
 -195057  -195307  -195979  -196457  -196400  -194821  -193548  -195077 
 -197125  -196221  -194848  -195725  -195901  -195243  -196017  -196391 
 -195552  -195203  -195858  -196119  -195033  -194753  -195694  -195782 
 -195679  -195778  -195481  -195686  -195729  -194817  -194779  -195552 
 -195583  -195903  -196195  -195007  -194769  -196291  -196187  -194917 
 -195050  -195799  -196238  -195744  -194838  -195528  -196392  -196020 
 -195835  -195334  -194429  -194850  -196063  -196609  -196253  -195394 
 -194589  -194944  -196527  -196550  -195115  -195019  -195524  -195858 
 -196111  -195702  -195142  -194962  -195751  -196250  -195177  -194859 
 -195304  -195447  -196188  -196013  -194984  -195408  -196087  -195292 
 -194626  -195574  -196057  -195308  -195586  -196051  -195338  -195204 
 -196276  -197059  -195853  -193827  -194482  -196388  -196036  -195359 
 -195724  -195214  -194788  -195651  -195930  -195254  -195552  -196360 
 -195859  -195428  -196190  -196253  -195230  -194857  -195723  -196365 
 -195490  -194676  -195261  -195380  -195124  -196028  -196092  -195191 
 -195484  -195500  -194995  -195795  -196439  -195635  -194711  -195396 
 -196874  -196176  -194413  -194440  -195694  -196273  -195239  -195131 
 -196339  -195532  -194852  -195743  -195551  -195474  -196013  -195941 
 -195851  -195505  -195435  -196219  -196276  -195358  -194840  -195366 
 -196352  -196103  -194860  -194953  -195706  -195419  -195191  -195562 
 -195820  -195419  -194358  -194638  -196349  -196391  -195632  -196069 
 -195728  -195266  -196059  -195879  -195156  -195281  -195332  -195548 
 -196257  -196464  -195521  -194421  -194857  -196250  -196871  -196113 
 -194552  -194282  -195528  -196007  -195516  -195126  -195181  -195322 
 -195154  -195403  -195855  -196126  -196489  -195709  -194891  -196223 
 -196913  -195273  -194595  -195708  -195905  -195196  -195450  -195531 
 -194746  -195110  -195720  -195212  -195855  -196973  -195754  -194371 
 -195328  -196709  -196418  -194941  -194194  -195156  -196589  -196901 
 -195961  -194555  -194155  -195528  -196747  -196252  -195257  -195157 
 -195551  -195590  -195640  -195898  -195696  -195033  -194841  -195532 
 -195941  -195517  -195631  -196024  -195218  -194787  -195702  -195790 
 -195525  -196356  -196253  -194981  -195107  -196206  -196199  -195070 
 -194529  -195755  -196454  -195311  -195394  -196311  -195505  -195034 
 -195745  -195840  -195708  -195416  -194738  -194783  -194983  -195164 
 -196182  -196380  -195085  -194494  -195300  -196223  -196263  -195523 
 -195161  -196118  -197224  -196317  -194786  -195139  -195513  -194953 
 -195435  -196063  -195786  -195756  -195795  -195507  -194975  -194632 
 -195793  -196730  -195697  -194976  -195041  -195285  -195975  -196084 
 -195824  -195596  -195482  -195910  -195528  -194938  -195646  -195916 
 -195330  -195342  -195793  -195563  -194937  -195505  -196032  -194937 
 -194815  -195895  -195454  -195177  -196487  -196657  -195550  -195238 
 -195265  -195143  -195609  -196250  -196327  -195598  -194834  -195724 
 -196881  -195766  -194374  -195124  -195980  -195416  -195331  -195956 
 -195735  -194911  -194378  -194684  -195673  -196110  -195903  -195847 
 -195475  -195212  -196330  -197449  -196823  -195953  -196911  -197908 
 -196593  -195087  -195191  -195177  -193746  -192558  -193365  -193891 
 -192867  -192960  -194682  -196080  -196408  -196924  -197699  -197621 
 -198080  -198933  -198212  -196865  -195885  -195250  -195651  -195966 
 -195199  -194634  -193099  -191041  -192280  -193517  -191297  -191177 
 -193950  -194765  -195627  -198558  -199412  -196781  -194891  -196681 
 -198953  -198126  -196763  -196900  -195770  -193730  -194962  -197464 
 -195824  -193831  -196164  -197492  -195133  -192642  -191562  -193058 
 -195840  -197841  -200553  -201640  -199150  -198082  -199382  -198039 
 -194998  -194884  -194549  -190462  -187284  -187821  -189016  -189471 
 -191128  -194287  -197556  -200453  -201417  -201935  -205339  -205540 
 -198217  -192067  -191582  -193056  -195173  -195864  -194325  -194436 
 -195324  -193665  -193118  -195308  -194711  -191339  -190107  -191432 
 -194147  -196531  -196487  -195822  -197009  -199220  -200588  -200649 
 -199381  -196480  -194194  -194752  -196022  -196227  -196744  -196985 
 -195621  -196252  -198576  -195755  -191047  -192134  -194439  -194107 
 -195486  -196538  -192550  -188122  -189307  -195097  -200520  -201421 
 -198073  -195384  -195833  -196348  -196919  -199488  -199261  -194243 
 -191103  -192289  -194617  -197243  -198425  -196141  -195003  -197811 
 -199401  -197355  -194863  -193472  -191585  -190854  -193939  -197318 
 -197133  -192433  -188495  -192566  -197610  -197059  -196684  -196431 
 -193523  -192622  -195736  -197984  -197995  -199089  -199365  -197795 
 -199015  -200759  -197276  -192477  -192793  -195436  -195210  -193865 
 -193796  -193521  -193108  -194251  -195731  -196237  -197232  -197499 
 -196222  -196595  -196767  -194837  -194975  -195957  -194406  -194174 
 -196408  -195601  -192685  -193411  -195621  -196226  -196715  -196132 
 -194422  -193942  -194672  -196199  -197183  -196056  -195208  -194622 
 -192271  -192900  -197765  -199681  -197653  -196152  -195650  -196136 
 -198358  -199231  -196445  -194101  -194367  -194001  -193634  -194740 
 -194857  -193941  -193359  -193862  -195623  -196096  -195663  -196531 
 -196569  -196466  -198103  -197623  -195003  -194675  -196256  -197444 
 -197186  -195646  -194821  -194302  -193286  -194351  -196618  -196754 
 -195990  -195874  -195139  -194332  -195199  -196113  -195253  -194062 
 -194208  -195092  -194796  -193648  -192870  -192665  -194968  -197803 
 -196115  -193631  -195396  -197364  -196688  -197163  -199242  -198301 
 -195826  -196589  -197726  -197094  -197514  -197233  -195478  -195860 
 -196034  -193980  -193618  -194377  -195102  -197081  -196290  -193156 
 -194147  -196388  -194845  -193167  -194028  -194290  -193090  -193627 
 -194576  -193298  -193519  -195624  -196007  -196280  -196994  -196419 
 -196315  -197125  -197264  -197236  -197236  -196676  -196435  -196885 
 -196757  -195988  -196391  -197171  -195122  -193233  -195536  -197050 
 -195428  -194306  -193855  -194287  -195384  -195309  -195280  -195322 
 -194414  -194940  -196369  -195324  -194618  -196669  -196469  -193935 
 -194313  -195793  -195808  -195957  -195492  -194476  -195066  -196376 
 -197222  -198070  -197498  -196014  -196483  -196672  -195336  -195330 
 -195704  -195471  -195647  -195886  -196037  -195363  -194198  -194570 
 -195863  -195756  -194198  -193978  -195119  -194602  -194192  -195609 
 -195824  -195066  -195185  -195223  -195442  -195733  -195218  -195727 
 -196981  -196088  -194782  -195277  -194918  -194061  -195690  -197162 
 -196384  -195710  -195515  -195369  -195733  -195933  -195706  -195629 
 -195647  -195694  -196362  -196665  -195373  -194792  -196045  -196464 
 -195643  -195799  -196033  -194724  -194761  -196225  -195303  -194205 
 -195264  -195799  -195839  -196098  -195555  -195115  -195403  -196044 
 -196676  -196271  -195300  -195238  -196136  -196487  -195092  -194360 
 -196092  -196821  -195049  -194073  -194759  -195247  -195216  -194975 
 -195312  -196361  -196080  -195358  -195818  -195399  -194594  -195072 
 -195600  -195736  -195474  -195230  -195677  -195222  -194487  -195839 
 -196744  -195712  -195928  -196689  -195822  -195408  -195845  -196150 
 -196716  -196041  -194728  -195278  -196045  -195933  -195627  -194772 
 -194826  -195940  -196087  -195654  -194954  -194022  -194289  -195214 
 -195454  -195589  -196105  -196221  -195234  -194636  -195592  -195880 
 -195508  -196165  -195768  -194593  -195430  -196766  -196689  -195898 
 -195050  -194926  -195875  -196133  -195284  -195689  -196543  -195743 
 -195282  -195531  -194991  -195073  -195451  -195091  -195737  -196780 
 -195914  -194278  -194481  -195805  -196377  -196867  -196931  -195821 
 -195675  -196654  -196541  -195783  -195602  -195431  -194865  -194382 
 -194621  -195841  -197135  -196369  -193750  -193279  -195050  -195546 
 -195592  -196122  -195943  -195659  -195443  -194856  -194950  -196069 
 -196376  -195731  -196153  -196380  -195296  -195442  -196001  -194850 
 -194279  -195107  -195416  -195482  -195810  -195493  -194956  -194944 
 -195103  -195578  -196199  -196071  -195486  -195269  -195150  -194985 
 -195224  -195226  -194826  -195266  -196063  -196076  -195718  -195353 
 -195820  -197205  -197122  -195712  -195377  -195440  -195303  -196036 
 -196199  -195277  -195714  -196109  -194495  -194367  -196083  -196015 
 -195446  -195750  -195027  -194567  -195816  -196298  -195359  -195007 
 -195230  -195300  -195355  -195192  -195193  -195664  -195928  -195782 
 -195828  -196245  -196024  -195486  -196032  -196753  -196788  -196565 
 -195839  -195052  -195205  -195979  -196276  -195574  -194705  -194776 
 -195332  -195358  -195474  -195756  -194899  -194432  -195363  -195546 
 -195296  -195150  -194629  -195251  -196165  -195836  -195983  -196527 
 -196036  -195629  -196007  -195968  -195270  -195312  -196248  -196105 
 -194799  -194976  -196426  -196002  -194464  -194505  -195362  -195995 
 -196149  -195376  -194890  -195178  -195122  -195141  -195760  -195990 
 -195805  -196061  -196404  -196236  -195783  -195528  -195574  -195885 
 -196526  -196376  -195342  -195265  -195501  -195474  -196111  -195710 
 -194478  -194763  -195178  -194790  -194830  -194930  -194760  -194780 
 -194917  -195259  -195728  -195621  -194999  -194872  -195466  -196006 
 -196109  -195779  -195338  -195467  -195976  -196119  -196038  -196121 
 -195961  -195278  -194979  -195741  -196368  -195725  -194845  -195083 
 -195858  -195928  -195821  -196261  -196402  -196068  -195640  -195087 
 -195293  -196122  -195941  -195319  -195632  -195770  -195118  -195181 
