Origin Time       2019/01/26 17:23:00
Lat.              40.280
Long.             142.327
Depth. (km)       38
Mag.              5.6
Station Code      AKTH14
Station Lat.      40.0622
Station Long.     140.8084
Station Height(m) 211.6
Record Time       2019/01/26 17:23:22
Sampling Freq(Hz) 100Hz
Duration Time(s)  120
Dir.              3
Scale Factor      2942(gal)/8224139
Max. Acc. (gal)   2.272
Last Correction   2019/01/26 17:23:07
Memo.             
[...]
  160353   160015   159617   158579   157239   156851   157734   158958 
  159637   159467   158453   157018   155947   155745   156239   156961 
  157698   158220   158049   157462   157357   157682   157789   157831 
  158283   158850   158751   158035   157839   158593   159313   159510 
  159502   159090   158353   158130   158581   159098   159354   159402 
  159314   159115   158961   159027   159194   159225   159021   158674 
  158450   158436   158396   158349   158616   159070   159241   159054 
  158491   157624   157285   157989   158838   158834   158155   157659 
  157526   156991   156105   156068   157123   158271   158708   158511 
  158477   158870   158947   158564   158477   158691   158576   158140 
  157850   158093   158831   159366   159347   159198   158965   158491 
  158159   158201   158453   158768   158996   159043   158764   158083 
  157531   157763   158692   159543   159606   159063   158558   158126 
  157736   157636   157765   158101   158585   158687   158217   157478 
  156867   156946   157843   158853   159360   159351   159003   158490 
  158121   158247   158868   159494   159651   159538   159538   159258 
  158430   157819   157997   158562   159001   159290   159545   159599 
  159305   158872   158531   158252   158128   158442   158858   158738 
  158305   158024   157809   157505   157107   156884   157090   157384 
  157527   157621   157626   157750   158202   158541   158430   158272 
  158510   159124   159837   160128   159772   159313   159059   158834 
  158809   159058   159287   159347   159152   158832   158720   158664 
  158491   158511   158539   158085   157574   157707   158205   158242 
  157792   157674   158179   158681   158749   158581   158380   158160 
  158018   158028   158143   158337   158549   158688   158791   158966 
  159057   158841   158695   159000   159209   158949   158807   159021 
  159132   158951   158598   158228   157975   157860   157977   158284 
  158427   158344   158214   157906   157443   157214   157426   157959 
  158379   158433   158406   158275   157905   157851   158311   158639 
  158514   158326   158414   158701   159058   159267   159067   158774 
  158849   159097   159186   159177   159171   159123   158953   158662 
  158409   158314   158391   158649   158741   158130   157175   156806 
  157156   157665   158118   158527   158572   158063   157561   157601 
  157989   158315   158341   158159   158124   158276   158533   159025 
  159530   159417   158469   157441   157210   157675   158269   158701 
  158872   158811   158626   158525   158625   158573   158167   157885 
  158149   158508   158291   157983   158346   158733   158580   158572 
  158811   158643   158201   158099   158512   159142   159530   159567 
  159364   158834   158090   157700   157997   158656   159282   159802 
  159923   159374   158521   157846   157597   157769   158035   158302 
  158584   158603   158387   158168   157958   157887   158070   158348 
  158654   158931   158994   158853   158754   158892   159173   159246 
  159050   158868   158735   158606   158518   158303   157985   157906 
  158049   157986   157671   157694   158276   158754   158596   158016 
  157395   157018   157264   158167   159044   159312   159073   158730 
  158458   158128   157882   158305   159366   160270   160558   160197 
  159250   158194   157669   157754   158059   158427   159065   159860 
  160110   159378   158238   157438   157069   157173   157842   158652 
  159117   159109   158599   157858   157411   157443   157793   158089 
  157993   157689   157638   157923   158295   158693   159183   159452 
  159252   158917   158745   158801   159078   159175   158977   158935 
  159052   159084   159179   159286   159102   158616   158122   158047 
  158542   159221   159663   159746   159459   158773   157939   157520 
  157581   157634   157646   157802   157998   158140   157991   157536 
  157262   157221   157133   157153   157555   158267   158843   158985 
  158836   158395   157758   157566   158010   158541   158801   158903 
  159123   159310   158990   158526   158560   158789   158876   159020 
  159121   158824   158325   158310   158822   159016   158588   158313 
  158577   158703   158480   158614   158935   158467   157465   157053 
  157253   157441   157632   157894   157940   157767   157597   157549 
  157705   158218   159096   159776   159673   159140   158760   158468 
  158161   157917   157739   157832   158306   158722   158691   158292 
  157869   157786   158166   158892   159599   159714   159347   159148 
  159050   158819   158836   159009   158749   158214   158047   158411 
  158901   159097   159115   159208   159223   159125   159019   158572 
  157844   157612   157962   158259   158288   158206   158105   157921 
  157663   157789   158473   158996   158842   158386   158112   158016 
  157890   157825   157986   158238   158604   159274   159976   160319 
  160240   159730   158980   158340   157963   158018   158598   159349 
  159730   159480   158812   158113   157600   157254   157142   157657 
  158653   159243   159089   158386   157361   156698   156959   157821 
  158603   158965   158857   158313   157686   157426   157504   157750 
  158094   158581   159301   159696   159229   158514   158145   157971 
  158105   158785   159517   159651   159433   159420   159398   158998 
  158565   158637   159128   159397   159223   159071   159017   158693 
  158267   158267   158656   158646   158009   157623   157716   157670 
  157611   157978   158531   158711   158342   157855   157609   157638 
  157839   158017   158286   158657   158545   157924   157470   157522 
  157997   158552   158814   158618   158044   157675   157869   158291 
  158755   159127   159232   159285   159177   158653   158261   158433 
  158770   159125   159656   159906   159530   159070   158886   158703 
  158326   157954   158124   159035   159876   159813   158962   157962 
  157345   157212   157357   157638   157833   157666   157364   157300 
  157334   157293   157370   157769   158274   158302   157856   157721 
  158141   158568   158766   158876   158807   158639   158699   158772 
  158646   158666   158797   158768   158765   158893   159101   159455 
  159725   159692   159598   159506   159177   158657   158203   158043 
  158180   158153   157666   157258   157454   157916   158224   158523 
  158804   158699   158382   158371   158565   158762   159147   159413 
  159001   158225   157820   157970   158441   158939   159152   158992 
  158610   158176   157924   158013   158369   158700   158719   158641 
  158747   158676   158179   157746   157698   157708   157620   157786 
  158201   158341   158225   158440   159015   159325   159144   158865 
  158722   158569   158407   158573   159227   159880   159915   159448 
  159023   158658   158195   158122   158604   158920   158989   159417 
  159889   159634   158851   158286   158194   158209   157894   157491 
  157577   158035   158337   158419   158548   158676   158271   157268 
  156415   156062   155976   156131   156597   157237   157856   158476 
  159055   159275   159143   158953   158839   158950   159236   159522 
  159730   159597   159111   158719   158664   158855   159059   158962 
  158592   158342   158433   158673   158799   158869   158939   158765 
  158386   158215   158213   158022   157805   157859   157979   158008 
  158071   158218   158410   158453   158330   158391   158583   158722 
  159013   159162   158596   157666   157184   157410   158067   158669 
  158823   158537   158094   157939   158286   158533   158221   157918 
  158253   159069   159618   159471   159123   158930   158630   158399 
  158653   159039   159015   158747   158499   158251   158199   158367 
  158422   158322   158225   158179   158245   158591   159189   159572 
  159435   159084   158824   158575   158402   158611   158958   158862 
  158495   158387   158599   158980   159359   159501   159244   158616 
  158047   157866   157653   157254   157214   157426   157416   157405 
  157681   158063   158148   157835   157576   157692   158140   158742 
  159135   159283   159471   159553   159229   158642   158155   158009 
  158307   158834   159175   159198   158846   158187   157829   158110 
  158581   158839   158923   159089   159262   159020   158487   158168 
  158072   157920   157620   157277   157254   157920   158900   159399 
  159316   158934   158373   157860   157655   157828   158160   158441 
  158901   159564   159844   159467   158857   158396   158013   157558 
  157161   157075   157419   158089   158656   158739   158550   158571 
  158890   159243   159382   159217   158807   158205   157527   157081 
  157083   157511   158080   158332   158265   158220   158141   157945 
  157967   158438   159015   159201   158857   158268   158009   158278 
  158535   158458   158440   158784   159170   159111   158793   158788 
  158992   159093   159274   159578   159696   159449   158982   158731 
  158851   159040   159173   159333   159383   159051   158380   157921 
  157995   158160   158085   157985   157923   157808   157782   157904 
  157877   157495   157138   157302   157702   157779   157704   157851 
  157990   157810   157620   157900   158353   158359   158126   158145 
  158259   158380   158996   160061   160651   160386   159906   159722 
  159680   159624   159750   159927   159625   158924   158484   158580 
  158869   158920   158761   158657   158502   158136   157851   157869 
  158093   158529   158947   158816   158322   158051   157908   157654 
  157603   157994   158430   158344   157798   157477   157732   158141 
  158383   158525   158322   157751   157559   157987   158377   158382 
  158241   158056   157468   156554   156342   157202   158207   158691 
  158722   158521   158368   158460   158781   159279   159759   159914 
  159790   159599   159389   159360   159687   160042   160076   159891 
  159722   159632   159560   159421   159239   159061   158838   158541 
  158153   157796   157662   157585   157277   156905   156766   156671 
  156276   155783   155667   156041   156706   157376   157802   157891 
  157759   157705   157874   158107   158418   159025   159794   160186 
  159979   159638   159507   159201   158595   158220   158355   158819 
  159290   159436   159115   158490   157967   157854   158031   158198 
  158095   157666   157233   157098   157395   158147   158998   159578 
  159823   159686   159282   159007   159213   159856   160203   159794 
  159308   159214   159097   158845   158676   158500   158136   157589 
  157249   157497   158067   158546   158889   159031   158772   158171 
  157578   157127   156840   157026   157628   158099   158279   158176 
  157724   157257   157177   157410   157543   157377   157289   157689 
  158392   159071   159734   160242   160107   159246   158259   157829 
  158166   159028   160137   161204   161816   161739   161057   160029 
  159008   158238   157731   157573   158082   159240   160288   160400 
  159444   157898   156462   155642   155521   155812   156168   156546 
  156930   157191   157673   158552   159271   159495   159309   158876 
  158507   158298   158025   157693   157655   158079   158769   159358 
  159351   158670   157974   157839   158396   159363   160087   160332 
  160273   159698   158588   157547   156767   156053   155764   156150 
  156643   156768   156675   156566   156493   156685   157222   157678 
  157821   158013   158518   159166   159707   160128   160466   160434 
  159749   158715   157904   157636   157998   158815   159628   160029 
  160038   160011   160150   160328   160203   159584   158753   158090 
  157804   157971   158313   158345   157906   157221   156766   157022 
  157908   158734   158938   158546   158018   157705   157530   157337 
  157162   157130   157478   158353   159553   160830   161812   161838 
  160785   159374   158353   158167   158985   160402   161671   162170 
  161538   159989   158124   156440   155351   154912   154876   155331 
  156411   157762   158814   159254   159228   158950   158492   158214 
  158436   158819   158953   158935   158922   158749   158404   158342 
  158743   159183   159590   160486   161978   163360   163810   163048 
  161345   159241   157438   156462   156276   156358   156190   155872 
  155846   156149   156647   157418   158282   158668   158286   157534 
  156909   156447   156082   156078   156709   157773   158938   160105 
  160926   160906   160259   159719   159691   160188   161014   161589 
  161347   160389   159073   157601   156373   155731   155664   156188 
  157123   158076   158957   159649   159880   159722   159421   158955 
  158201   157400   157135   157713   158827   159900   160411   160081 
  159065   157894   157162   157123   157700   158706   159771   160350 
  160066   159148   158348   158116   158102   157779   157342   157211 
  157044   156473   155976   156166   156944   157603   157739   157511 
  157050   156598   156497   156651   156892   157330   157954   158565 
  159085   159618   160074   160288   160421   160519   160303   159831 
  159511   159517   159575   159313   158814   158368   158036   157962 
  158195   158379   158542   159119   159899   160165   159710   158943 
  158035   156716   155182   154240   154321   155075   155929   156540 
  156818   156875   156864   156925   157177   157581   157962   158055 
  157765   157477   157700   158596   159903   160974   161256   160861 
  160482   160717   161607   162866   164141   164818   164528   163606 
  162306   160671   159105   157851   156822   156151   155692   155058 
  154649   154940   155622   156454   157408   158237   158853   159229 
  159286   159202   159059   158634   157842   156802   155812   155286 
  155393   156159   157449   158599   159102   159317   159703   160196 
  160741   161298   161381   160602   159136   157546   156604   156579 
  156979   157534   158283   159012   159591   160065   160297   160182 
  159871   159651   159641   159679   159645   159497   159237   158980 
  158583   157794   156789   155934   155444   155545   156330   157342 
  157918   157800   157258   156955   157357   158089   158492   158437 
  158036   157342   156608   156227   156487   157323   158295   159219 
  160355   161639   162495   162498   161790   160812   159814   158905 
  158318   158333   158978   159818   160365   160598   160575   160250 
  159845   159522   159251   159062   158928   158873   158865   158491 
  157518   156254   155129   154469   154353   154696   155375   156091 
  156744   157500   158171   158337   157987   157547   157289   157111 
  156986   156969   156965   157007   157299   157779   158055   157851 
  157399   157210   157520   158141   158826   159487   160037   160219 
  159999   159853   160176   160759   161053   160794   160371   160188 
  160189   160488   161168   161781   162054   162025   161570   160755 
  159931   159295   158753   158109   157360   156668   156108   155723 
  155515   155429   155505   155730   156105   156658   157081   157141 
  157002   156838   156814   156895   156705   156392   156683   157577 
  158390   158824   158924   158730   158379   158151   158287   158670 
  158976   159154   159227   159016   158652   158494   158562   158777 
  159031   159151   159352   159803   160196   160425   160640   160775 
  160702   160439   160273   160528   160969   161130   160979   160699 
  160392   160074   159629   158981   158229   157441   156678   156146 
  155953   155993   156145   156251   156213   156142   156190   156443 
  156868   157372   157879   158152   158093   158016   157989   157731 
  157230   156695   156411   156702   157443   158132   158666   159298 
  160007   160544   160783   160764   160585   160149   159340   158583 
  158437   158707   158878   159086   159636   160208   160392   160257 
  160033   159783   159525   159320   159128   158750   158124   157549 
  157285   157114   156878   156910   157218   157261   157121   157539 
  158552   159355   159462   159082   158611   158132   157565   157009 
  156564   156285   156417   156996   157603   158064   158564   159074 
  159305   159019   158367   157831   157684   157924   158568   159416 
  159961   159962   159707   159552   159553   159594   159637   159615 
  159395   159005   158626   158375   158264   158183   158114   158310 
  158753   158973   158781   158480   158352   158395   158417   158287 
  158109   157997   157952   158012   158264   158669   159031   159266 
  159467   159672   159841   159880   159632   159109   158517   158064 
  157935   158068   158170   158178   158066   157659   157269   157341 
  157653   157923   158157   158170   157900   157690   157700   157729 
  157647   157576   157586   157527   157387   157446   157912   158647 
  159310   159641   159551   159302   159328   159543   159595   159507 
  159511   159698   159781   159466   159019   158723   158427   158209 
  158380   158832   159146   159167   159038   158707   158001   157307 
  157277   157792   158148   158102   157916   157738   157501   157253 
  157106   156979   156857   157022   157504   157874   157933   157982 
  158202   158449   158653   158841   159009   159112   158981   158661 
  158429   158342   158442   158888   159479   159827   159811   159538 
  159150   158731   158402   158238   158093   157921   157962   158198 
  158315   158251   158187   158116   158013   158116   158496   158966 
  159359   159474   159337   159229   159074   158638   158085   157715 
  157640   157750   157886   158093   158382   158577   158599   158552 
  158519   158480   158526   158927   159655   160178   160270   160213 
  160045   159609   159001   158396   157939   157693   157612   157630 
  157653   157686   157829   158039   158202   158290   158229   157982 
  157667   157426   157350   157449   157607   157735   157827   157909 
  158001   158072   158064   157916   157603   157223   157056   157273 
  157653   158018   158549   159221   159649   159559   159135   158905 
  159039   159147   159111   159156   159321   159475   159484   159349 
  159219   159090   158895   158719   158703   158890   159213   159574 
  159899   160065   160054   160010   159885   159510   159031   158719 
  158619   158604   158500   158456   158742   159047   158989   158765 
  158589   158423   158305   158332   158441   158369   157918   157221 
  156644   156492   156775   157164   157312   157287   157277   157138 
  156901   156922   157177   157376   157464   157408   157283   157296 
  157318   157195   157129   157212   157411   157751   158198   158772 
  159456   160062   160489   160675   160456   159973   159656   159606 
  159657   159792   159960   159976   159738   159368   159127   159070 
  159065   159113   159144   158861   158352   158053   158076   158291 
  158487   158444   158309   158251   158095   157860   157713   157624 
  157605   157708   157875   158107   158426   158668   158657   158438 
  158188   158074   158083   158021   157902   157927   158120   158410 
  158670   158728   158699   158764   158858   158934   158946   158750 
  158373   158005   157767   157758   158045   158463   158728   158874 
  159089   159336   159478   159432   159162   158681   158140   157874 
  158093   158557   158901   159027   159032   158996   158850   158441 
