Origin Time       2019/01/26 17:23:00
Lat.              40.280
Long.             142.327
Depth. (km)       38
Mag.              5.6
Station Code      AOMH12
Station Lat.      40.5846
Station Long.     141.1547
Station Height(m) -15
Record Time       2019/01/26 17:23:19
Sampling Freq(Hz) 100Hz
Duration Time(s)  178
Dir.              3
Scale Factor      2940(gal)/6170270
Max. Acc. (gal)   7.460
Last Correction   2019/01/26 17:23:04
Memo.             
[...]
  -14222   -14220   -14218   -14220   -14226   -14231   -14230   -14229 
  -14226   -14218   -14212   -14217   -14226   -14228   -14227   -14228 
  -14224   -14219   -14216   -14214   -14217   -14222   -14226   -14227 
  -14224   -14219   -14216   -14216   -14220   -14222   -14222   -14222 
  -14221   -14218   -14217   -14218   -14219   -14220   -14222   -14221 
  -14220   -14220   -14219   -14217   -14217   -14217   -14217   -14220 
  -14222   -14223   -14222   -14220   -14217   -14216   -14220   -14223 
  -14223   -14223   -14223   -14224   -14223   -14217   -14215   -14218 
  -14221   -14222   -14224   -14221   -14218   -14219   -14220   -14222 
  -14227   -14228   -14225   -14223   -14221   -14219   -14219   -14222 
  -14224   -14224   -14225   -14225   -14223   -14222   -14226   -14227 
  -14224   -14223   -14223   -14224   -14226   -14228   -14228   -14224 
  -14221   -14221   -14221   -14222   -14225   -14227   -14227   -14227 
  -14226   -14226   -14225   -14225   -14226   -14226   -14225   -14222 
  -14220   -14221   -14225   -14227   -14228   -14228   -14226   -14223 
  -14220   -14220   -14225   -14229   -14229   -14227   -14226   -14224 
  -14221   -14220   -14223   -14226   -14228   -14227   -14224   -14221 
  -14220   -14218   -14220   -14223   -14225   -14224   -14223   -14221 
  -14222   -14222   -14221   -14221   -14222   -14221   -14221   -14220 
  -14223   -14226   -14224   -14224   -14225   -14225   -14224   -14223 
  -14222   -14223   -14226   -14228   -14226   -14225   -14225   -14221 
  -14220   -14222   -14223   -14227   -14229   -14224   -14222   -14223 
  -14224   -14225   -14227   -14228   -14229   -14230   -14230   -14226 
  -14222   -14223   -14225   -14226   -14226   -14226   -14225   -14224 
  -14225   -14224   -14222   -14224   -14226   -14227   -14225   -14223 
  -14223   -14223   -14221   -14223   -14227   -14228   -14227   -14226 
  -14224   -14221   -14223   -14226   -14225   -14223   -14221   -14220 
  -14220   -14222   -14223   -14224   -14226   -14226   -14224   -14221 
  -14220   -14220   -14222   -14225   -14225   -14224   -14222   -14220 
  -14218   -14219   -14221   -14222   -14225   -14224   -14221   -14219 
  -14219   -14218   -14219   -14221   -14223   -14221   -14221   -14223 
  -14221   -14218   -14218   -14220   -14221   -14222   -14222   -14221 
  -14220   -14221   -14219   -14217   -14219   -14222   -14222   -14220 
  -14221   -14223   -14223   -14222   -14221   -14222   -14222   -14223 
  -14223   -14222   -14222   -14222   -14221   -14221   -14221   -14221 
  -14222   -14222   -14222   -14223   -14223   -14222   -14222   -14220 
  -14220   -14223   -14223   -14222   -14223   -14223   -14223   -14224 
  -14222   -14220   -14222   -14223   -14222   -14222   -14223   -14224 
  -14226   -14226   -14226   -14227   -14227   -14225   -14225   -14225 
  -14222   -14222   -14224   -14226   -14225   -14223   -14225   -14225 
  -14224   -14225   -14226   -14228   -14228   -14226   -14224   -14223 
  -14224   -14224   -14225   -14227   -14227   -14225   -14224   -14225 
  -14226   -14226   -14226   -14228   -14227   -14224   -14224   -14226 
  -14226   -14225   -14225   -14227   -14227   -14225   -14225   -14225 
  -14224   -14225   -14227   -14227   -14225   -14224   -14223   -14225 
  -14225   -14224   -14225   -14225   -14224   -14224   -14224   -14223 
  -14223   -14222   -14222   -14224   -14224   -14224   -14223   -14223 
  -14221   -14220   -14223   -14226   -14224   -14223   -14223   -14223 
  -14223   -14223   -14222   -14221   -14221   -14221   -14222   -14225 
  -14225   -14222   -14223   -14223   -14222   -14222   -14222   -14222 
  -14221   -14220   -14220   -14221   -14222   -14223   -14223   -14223 
  -14222   -14220   -14220   -14222   -14221   -14221   -14222   -14221 
  -14219   -14221   -14221   -14219   -14222   -14226   -14224   -14221 
  -14222   -14222   -14219   -14220   -14222   -14223   -14223   -14223 
  -14222   -14220   -14219   -14220   -14221   -14220   -14220   -14219 
  -14219   -14221   -14222   -14222   -14222   -14223   -14223   -14221 
  -14220   -14220   -14221   -14220   -14220   -14223   -14226   -14223 
  -14220   -14220   -14222   -14221   -14223   -14227   -14226   -14223 
  -14220   -14220   -14222   -14224   -14223   -14223   -14224   -14226 
  -14226   -14225   -14223   -14222   -14224   -14225   -14223   -14224 
  -14226   -14226   -14225   -14223   -14223   -14225   -14225   -14224 
  -14226   -14225   -14226   -14228   -14224   -14223   -14224   -14224 
  -14226   -14228   -14227   -14225   -14224   -14223   -14223   -14223 
  -14222   -14224   -14225   -14224   -14226   -14227   -14227   -14227 
  -14226   -14226   -14226   -14226   -14225   -14224   -14224   -14224 
  -14223   -14224   -14223   -14222   -14224   -14224   -14223   -14223 
  -14224   -14225   -14225   -14226   -14226   -14224   -14224   -14225 
  -14225   -14223   -14222   -14223   -14224   -14223   -14222   -14224 
  -14225   -14224   -14221   -14219   -14220   -14222   -14222   -14223 
  -14222   -14219   -14220   -14222   -14221   -14221   -14222   -14221 
  -14222   -14224   -14223   -14221   -14221   -14222   -14223   -14222 
  -14222   -14222   -14221   -14218   -14219   -14223   -14222   -14222 
  -14224   -14221   -14218   -14218   -14218   -14220   -14223   -14222 
  -14223   -14224   -14222   -14221   -14223   -14223   -14222   -14222 
  -14221   -14219   -14220   -14222   -14223   -14223   -14224   -14224 
  -14224   -14223   -14221   -14221   -14221   -14221   -14222   -14223 
  -14224   -14223   -14221   -14221   -14222   -14222   -14222   -14224 
  -14226   -14226   -14224   -14224   -14223   -14222   -14223   -14222 
  -14220   -14222   -14223   -14220   -14221   -14222   -14222   -14225 
  -14225   -14224   -14224   -14224   -14223   -14224   -14226   -14227 
  -14227   -14224   -14223   -14224   -14223   -14223   -14226   -14227 
  -14227   -14224   -14221   -14220   -14223   -14227   -14227   -14226 
  -14224   -14225   -14226   -14224   -14224   -14224   -14225   -14227 
  -14228   -14225   -14222   -14221   -14221   -14222   -14226   -14226 
  -14224   -14223   -14225   -14226   -14225   -14223   -14224   -14226 
  -14227   -14224   -14221   -14220   -14221   -14221   -14220   -14222 
  -14224   -14224   -14223   -14222   -14223   -14225   -14224   -14223 
  -14224   -14223   -14223   -14224   -14222   -14220   -14222   -14224 
  -14224   -14221   -14219   -14221   -14222   -14222   -14223   -14223 
  -14223   -14222   -14221   -14221   -14223   -14221   -14220   -14222 
  -14222   -14221   -14220   -14221   -14222   -14223   -14223   -14222 
  -14223   -14223   -14220   -14221   -14226   -14227   -14225   -14224 
  -14223   -14222   -14222   -14220   -14221   -14223   -14224   -14226 
  -14224   -14219   -14220   -14222   -14221   -14224   -14230   -14231 
  -14228   -14223   -14220   -14223   -14224   -14224   -14226   -14225 
  -14223   -14224   -14221   -14219   -14225   -14227   -14225   -14227 
  -14228   -14226   -14222   -14220   -14220   -14221   -14225   -14228 
  -14225   -14222   -14226   -14226   -14222   -14221   -14222   -14221 
  -14222   -14222   -14221   -14222   -14222   -14220   -14222   -14223 
  -14220   -14217   -14220   -14224   -14222   -14218   -14220   -14222 
  -14218   -14214   -14216   -14219   -14223   -14224   -14222   -14220 
  -14219   -14218   -14217   -14217   -14219   -14220   -14221   -14222 
  -14221   -14220   -14220   -14219   -14218   -14218   -14218   -14219 
  -14221   -14224   -14225   -14223   -14222   -14223   -14222   -14220 
  -14220   -14222   -14226   -14227   -14224   -14222   -14224   -14226 
  -14225   -14221   -14218   -14219   -14223   -14226   -14229   -14228 
  -14225   -14224   -14223   -14224   -14224   -14223   -14225   -14227 
  -14228   -14230   -14227   -14222   -14221   -14219   -14222   -14226 
  -14226   -14224   -14226   -14227   -14226   -14225   -14224   -14223 
  -14223   -14224   -14225   -14225   -14224   -14225   -14225   -14224 
  -14222   -14221   -14223   -14225   -14226   -14223   -14220   -14221 
  -14220   -14218   -14220   -14222   -14222   -14224   -14224   -14222 
  -14220   -14220   -14222   -14224   -14224   -14223   -14226   -14227 
  -14224   -14223   -14220   -14220   -14223   -14226   -14227   -14228 
  -14227   -14223   -14222   -14222   -14222   -14223   -14224   -14224 
  -14224   -14225   -14226   -14228   -14226   -14222   -14221   -14223 
  -14225   -14228   -14227   -14223   -14220   -14220   -14223   -14225 
  -14225   -14224   -14225   -14224   -14222   -14223   -14225   -14225 
  -14227   -14228   -14224   -14222   -14225   -14222   -14219   -14223 
  -14225   -14223   -14224   -14225   -14225   -14223   -14219   -14218 
  -14221   -14224   -14227   -14227   -14225   -14226   -14226   -14222 
  -14219   -14219   -14219   -14219   -14220   -14222   -14223   -14222 
  -14220   -14218   -14219   -14220   -14222   -14224   -14225   -14222 
  -14221   -14220   -14219   -14220   -14220   -14221   -14222   -14221 
  -14220   -14220   -14221   -14223   -14224   -14222   -14221   -14221 
  -14220   -14221   -14222   -14222   -14221   -14220   -14219   -14221 
  -14221   -14219   -14219   -14221   -14221   -14223   -14225   -14224 
  -14223   -14223   -14223   -14222   -14222   -14224   -14226   -14225 
  -14225   -14226   -14224   -14222   -14223   -14224   -14223   -14222 
  -14224   -14226   -14225   -14222   -14220   -14220   -14221   -14224 
  -14226   -14226   -14225   -14224   -14222   -14220   -14218   -14220 
  -14224   -14227   -14227   -14226   -14224   -14223   -14221   -14222 
  -14225   -14226   -14224   -14221   -14221   -14223   -14223   -14222 
  -14221   -14221   -14221   -14224   -14226   -14224   -14222   -14222 
  -14224   -14224   -14223   -14222   -14221   -14220   -14221   -14224 
  -14227   -14224   -14220   -14221   -14225   -14224   -14223   -14221 
  -14218   -14217   -14221   -14223   -14224   -14225   -14222   -14220 
  -14222   -14223   -14223   -14225   -14225   -14222   -14222   -14225 
  -14224   -14223   -14223   -14224   -14225   -14225   -14223   -14222 
  -14222   -14222   -14224   -14227   -14228   -14222   -14216   -14216 
  -14221   -14224   -14227   -14229   -14226   -14223   -14224   -14223 
  -14222   -14224   -14225   -14225   -14221   -14219   -14221   -14222 
  -14221   -14222   -14224   -14225   -14225   -14223   -14221   -14221 
  -14222   -14224   -14225   -14225   -14225   -14224   -14222   -14223 
  -14224   -14220   -14218   -14220   -14220   -14220   -14219   -14219 
  -14219   -14220   -14221   -14223   -14221   -14220   -14221   -14221 
  -14220   -14219   -14219   -14221   -14219   -14217   -14221   -14225 
  -14225   -14222   -14219   -14219   -14219   -14218   -14220   -14222 
  -14223   -14225   -14224   -14222   -14220   -14222   -14224   -14224 
  -14223   -14222   -14222   -14223   -14223   -14222   -14222   -14223 
  -14222   -14221   -14221   -14221   -14221   -14222   -14220   -14220 
  -14221   -14220   -14222   -14224   -14223   -14223   -14224   -14224 
  -14225   -14225   -14221   -14220   -14222   -14223   -14222   -14223 
  -14223   -14222   -14222   -14224   -14226   -14225   -14223   -14224 
  -14224   -14222   -14223   -14224   -14225   -14225   -14224   -14223 
  -14226   -14226   -14225   -14229   -14229   -14225   -14225   -14228 
  -14226   -14224   -14224   -14224   -14225   -14227   -14226   -14225 
  -14225   -14224   -14223   -14226   -14227   -14226   -14227   -14228 
  -14226   -14223   -14225   -14229   -14226   -14222   -14221   -14221 
  -14223   -14228   -14229   -14228   -14225   -14221   -14220   -14221 
  -14221   -14223   -14228   -14228   -14226   -14224   -14220   -14219 
  -14222   -14221   -14222   -14223   -14220   -14222   -14223   -14220 
  -14220   -14223   -14224   -14225   -14226   -14226   -14222   -14220 
  -14222   -14222   -14222   -14224   -14224   -14222   -14220   -14220 
  -14220   -14221   -14221   -14221   -14222   -14221   -14221   -14222 
  -14220   -14220   -14223   -14224   -14224   -14226   -14226   -14225 
  -14223   -14217   -14214   -14216   -14220   -14223   -14225   -14226 
  -14225   -14223   -14219   -14218   -14219   -14218   -14222   -14225 
  -14225   -14226   -14228   -14230   -14231   -14233   -14239   -14251 
  -14268   -14293   -14333   -14386   -14448   -14526   -14621   -14733 
  -14880   -15075   -15335   -15673   -16094   -16607   -17210   -17857 
  -18416   -18679   -18521   -17852   -16322   -13935   -11538    -9609 
   -8183    -7655    -7977    -8944   -10699   -13001   -15494   -17687 
  -18408   -16738   -13268    -9656    -6994    -5457    -5044    -5807 
   -7876   -10909   -13279   -13869   -14282   -16315   -18961   -20407 
  -20332   -19000   -16340   -12693   -10025   -10887   -14724   -17918 
  -19155   -20131   -20847   -20236   -19136   -17845   -15345   -12355 
  -10464   -10267   -12052   -14606   -15515   -15135   -15541   -16173 
  -15490   -13982   -12591   -11479   -10912   -10996   -11621   -12914 
  -14151   -14716   -16225   -19104   -20135   -17575   -14100   -12485 
  -12270   -12069   -12155   -13036   -13943   -14237   -14658   -15733 
  -16340   -16035   -15994   -16229   -15604   -13913   -12071   -11455 
  -12113   -12362   -11499   -10494   -10163   -11053   -13545   -16565 
  -18664   -19948   -20742   -21177   -22068   -22966   -22146   -19660 
  -17343   -16160   -15245   -14129   -13802   -14323   -15036   -15740 
  -15701   -14908   -14148   -12873   -10885    -9918   -10806   -12069 
  -12376   -11435    -8834    -4920    -1206     1259     1434    -1913 
   -7930   -14158   -18828   -21102   -21199   -20079   -17944   -14335 
   -9685    -5894    -5242    -7973   -11289   -12968   -14267   -16396 
  -18031   -18881   -20982   -24873   -27531   -24673   -15753    -5989 
    -282     1247    -1066    -7531   -14695   -18263   -19731   -22402 
  -22990   -16628    -7458    -4106    -8537   -15809   -19614   -17585 
  -14761   -16672   -20112   -19955   -18580   -18498   -16928   -14311 
  -14710   -17298   -17528   -13887   -10111   -10996   -16030   -20522 
  -21315   -18171   -12871    -8059    -5675    -6357    -8967   -11154 
  -11503   -10481   -10281   -12778   -15933   -16500   -15897   -17080 
  -18333   -16180   -12025   -10770   -13429   -15662   -15231   -15762 
  -19194   -21586   -20358   -17796   -15741   -13404   -11159   -11279 
  -14123   -17386   -18846   -17966   -15421   -12392   -10403    -9986 
  -10538   -12429   -15872   -18626   -18472   -16427   -15157   -15474 
  -16421   -17228   -17695   -17951   -17322   -14816   -12012   -10753 
   -9964    -9317   -10170   -11626   -11994   -12430   -14277   -16163 
  -16829   -16500   -15605   -15387   -16445   -16919   -15539   -13519 
  -11694    -9608    -8308    -9787   -13540   -17500   -20231   -20351 
  -17819   -15245   -14445   -14358   -13843   -13107   -12441   -12067 
  -12705   -13926   -13714   -13033   -15081   -17896   -16867   -13271 
  -11719   -12284   -12143   -11947   -13770   -16226   -16985   -16242 
  -15283   -14889   -15363   -15851   -15248   -14407   -14261   -13571 
  -12062   -12191   -14560   -15914   -14849   -14130   -15309   -16602 
  -15948   -13226   -10538   -10446   -13045   -15229   -15050   -14778 
  -15657   -15492   -14150   -13588   -13310   -12615   -12994   -14010 
  -13940   -14239   -15138   -13877   -11953   -12239   -12293   -10797 
  -10373   -11243   -12308   -13839   -14985   -14827   -14371   -14226 
  -13387   -11945   -11620   -12357   -12661   -12718   -13396   -14461 
  -15036   -14313   -12698   -11748   -12445   -14388   -15997   -16140 
  -15490   -14800   -13756   -12450   -12276   -14149   -16436   -17191 
  -17132   -17623   -17978   -16863   -14794   -13291   -12769   -12856 
  -13039   -12826   -12639   -13213   -13846   -13790   -14153   -15167 
  -15048   -13816   -13333   -13812   -13999   -13179   -11698   -10678 
  -11017   -12448   -14256   -15831   -16230   -15636   -15870   -17438 
  -18972   -19346   -18084   -15729   -13904   -13452   -13916   -14877 
  -16279   -17573   -18016   -17712   -17207   -16878   -16602   -15817 
  -14755   -13652   -12121   -11225   -11826   -12416   -12358   -12695 
  -13437   -14184   -14799   -14320   -12931   -12346   -12505   -12805 
  -14026   -15372   -14901   -13517   -13279   -13392   -12700   -12453 
  -12725   -12527   -13468   -15791   -16542   -15970   -16286   -16176 
  -14506   -13098   -12690   -12273   -11869   -12009   -12512   -13437 
  -14612   -15070   -14737   -14356   -14495   -15324   -16020   -15940 
  -15215   -13850   -12319   -11085   -10441   -11444   -13816   -15565 
  -16315   -17115   -17438   -16223   -14368   -13176   -12752   -12840 
  -13102   -13468   -14391   -15341   -14746   -13179   -13216   -14874 
  -15801   -15318   -14323   -13527   -13347   -13440   -13041   -12323 
  -11814   -11599   -11860   -12703   -13671   -13976   -13820   -14330 
  -15156   -15202   -14512   -13512   -13312   -14628   -15689   -15181 
  -14472   -14499   -14385   -14090   -14826   -16324   -17066   -17065 
  -17215   -17139   -16434   -15748   -15172   -14298   -13488   -13031 
  -12904   -13590   -15102   -16392   -16742   -16339   -15488   -14207 
  -12710   -11631   -11484   -12194   -13025   -13439   -14077   -15367 
  -16431   -16666   -16232   -15366   -14215   -12626   -11102   -11115 
  -12746   -14235   -14846   -15378   -16076   -16301   -15320   -13627 
  -13042   -13628   -13870   -13850   -14054   -13909   -13435   -13272 
  -13267   -13055   -13106   -13684   -14382   -15376   -16498   -16439 
  -15320   -14664   -14882   -15570   -15948   -15307   -14500   -14293 
  -13809   -13016   -13260   -14833   -16800   -17936   -17479   -16332 
  -15793   -15386   -14369   -13577   -13725   -13867   -13264   -12981 
  -13660   -13848   -12560   -11336   -11939   -13572   -14312   -14292 
  -14872   -15609   -15088   -13577   -12444   -12219   -12337   -12062 
  -11394   -11243   -12387   -13717   -13563   -13042   -13794   -14509 
  -14083   -13528   -13262   -12986   -13000   -13434   -13888   -14186 
  -14176   -13674   -13617   -14617   -14980   -13955   -13851   -15478 
  -16169   -15061   -14439   -14728   -14793   -15146   -15986   -16321 
  -16058   -15480   -14371   -13322   -13503   -14505   -15227   -15772 
  -15792   -14860   -14511   -15254   -15342   -14401   -13562   -13066 
  -12651   -12695   -13233   -13546   -13599   -13797   -14329   -15423 
  -16341   -15826   -14281   -13100   -12582   -12125   -11151    -9753 
   -8829    -9042   -10746   -13617   -15851   -16635   -17069   -17224 
  -16248   -14695   -13970   -14345   -14780   -14305   -13405   -13605 
  -14738   -14748   -13754   -14039   -15542   -16410   -16271   -15772 
  -15537   -15639   -15225   -14143   -13417   -13462   -13723   -13489 
  -12591   -11977   -12637   -14096   -15422   -16392   -16692   -16153 
  -15671   -15763   -15581   -14679   -13461   -12264   -12176   -14019 
  -16363   -17419   -16684   -14754   -12991   -11946   -11472   -11721 
  -12349   -12899   -13589   -14491   -15086   -14792   -13795   -13129 
  -13219   -13308   -13194   -13255   -13118   -13053   -14121   -15596 
  -16013   -15861   -15682   -14598   -13244   -13480   -14944   -16122 
  -16546   -15928   -14708   -14511   -15252   -15172   -14186   -13566 
  -13539   -13380   -13066   -13377   -14344   -15318   -16061   -16363 
