Origin Time       2019/01/26 17:23:00
Lat.              40.280
Long.             142.327
Depth. (km)       38
Mag.              5.6
Station Code      AOMH13
Station Lat.      40.5794
Station Long.     141.4451
Station Height(m) -140
Record Time       2019/01/26 17:23:15
Sampling Freq(Hz) 100Hz
Duration Time(s)  213
Dir.              3
Scale Factor      2942(gal)/8224139
Max. Acc. (gal)   6.666
Last Correction   2019/01/26 17:23:00
Memo.             
[...]
  137909   137906   137906   137907   137901   137901   137907   137905 
  137898   137902   137907   137906   137902   137899   137905   137909 
  137905   137906   137909   137909   137907   137907   137910   137910 
  137909   137909   137910   137910   137910   137910   137910   137909 
  137905   137903   137909   137909   137905   137907   137913   137913 
  137907   137905   137906   137909   137911   137911   137909   137909 
  137909   137909   137911   137913   137911   137911   137910   137910 
  137911   137911   137911   137911   137910   137911   137913   137907 
  137906   137913   137917   137913   137909   137909   137907   137906 
  137906   137910   137907   137902   137906   137910   137907   137909 
  137910   137905   137901   137901   137902   137905   137905   137903 
  137903   137906   137905   137901   137902   137903   137899   137898 
  137902   137902   137897   137897   137899   137897   137899   137901 
  137898   137897   137893   137893   137897   137895   137898   137901 
  137901   137903   137903   137902   137901   137898   137902   137906 
  137899   137898   137902   137903   137902   137903   137903   137902 
  137902   137903   137905   137907   137909   137906   137906   137907 
  137906   137906   137910   137911   137907   137911   137920   137920 
  137914   137913   137911   137911   137916   137918   137917   137914 
  137913   137911   137913   137917   137917   137914   137910   137907 
  137911   137916   137911   137910   137913   137914   137916   137913 
  137907   137907   137910   137911   137914   137910   137906   137907 
  137907   137907   137907   137905   137905   137905   137902   137902 
  137906   137905   137902   137903   137901   137895   137895   137898 
  137899   137898   137899   137902   137903   137903   137902   137902 
  137901   137899   137903   137903   137899   137898   137901   137901 
  137901   137905   137903   137902   137902   137902   137905   137909 
  137910   137909   137909   137907   137909   137913   137914   137911 
  137907   137907   137910   137907   137906   137909   137907   137909 
  137910   137907   137906   137911   137914   137911   137909   137910 
  137911   137913   137911   137909   137909   137911   137911   137907 
  137907   137910   137910   137909   137909   137907   137906   137906 
  137906   137905   137903   137902   137899   137893   137887   137880 
  137867   137847   137818   137783   137739   137675   137587   137470 
  137309   137108   136895   136694   136497   136282   136048   135837 
  135673   135540   135461   135565   135940   136605   137412   137902 
  137928   138109   138480   138264   138322   140433   143095   143796 
  143769   142057   135353   130994   137000   143391   141264   138878 
  140078   138339   135884   138701   141801   140818   140074   140692 
  139637   138080   139907   143658   142582   137342   135064   135214 
  135044   136765   138666   137307   135594   136143   137601   139877 
  142408   142094   137420   130831   128559   133801   139544   139510 
  137076   134924   133332   134688   137392   138298   138677   138919 
  138711   139962   141378   140004   137034   134339   132345   132189 
  134696   138694   141019   140098   138630   139024   139860   139438 
  139101   140000   140512   139733   138084   135724   134046   134302 
  135156   135002   135066   136931   137698   134709   131707   131658 
  132692   134099   136466   138391   138225   136861   135957   135325 
  134825   135396   136927   137424   135508   132918   132229   134335 
  138217   141235   142551   143631   144558   143810   140103   135618 
  134858   137508   140004   141839   143829   145782   147101   146036 
  142615   141134   142636   143662   144591   146159   145485   142847 
  140227   135928   131715   134419   140617   140255   138653   144732 
  148903   143833   140404   141732   138384   133371   134163   136475 
  137145   137394   137280   137108   134298   129541   128480   132225 
  139815   145629   142830   137408   135472   134827   136595   138838 
  135876   133077   135807   137637   135839   133798   132304   133056 
  136742   141254   144466   143776   140005   135643   131730   131481 
  134840   137027   137992   139980   141376   141327   140952   140409 
  139703   137084   132212   130960   134964   138192   139147   139128 
  136960   135334   137613   140058   138387   135739   136633   139336 
  141956   145258   143880   134295   127024   130226   136229   138071 
  140773   144753   141492   133996   132052   133097   131803   132255 
  137592   142615   144232   144381   142581   139147   136367   134617 
  134617   136066   136703   137377   140173   142298   140865   139093 
  140363   143121   143749   141497   139359   137704   134264   130686 
  130756   134855   138503   138038   136127   136237   138123   140582 
  142844   144082   143040   139106   134713   133173   133500   132598 
  130802   130422   131905   134634   138130   140730   140863   140042 
  140707   141575   141039   142690   146125   142823   134511   132112 
  134403   134570   133120   131149   129637   132672   139623   142303 
  139217   139893   144590   143445   137770   134954   135778   137982 
  138682   138500   139375   138801   136826   135778   135361   136159 
  138894   142554   144028   141305   138337   137535   135743   133434 
  134643   137947   139220   139525   140178   139411   138159   138067 
  137798   136318   134809   134424   133639   131631   131492   134407 
  137405   138603   139341   140227   138647   135881   136251   136900 
  135450   136183   138195   138186   139209   140992   139444   137434 
  138554   139730   139216   138966   138959   138412   137265   136647 
  139251   142661   142357   141043   141224   141176   141543   142495 
  142126   140706   138094   134173   133188   136836   140267   140545 
  139090   138071   137987   137126   136113   136254   135768   135692 
  138037   140359   140771   139750   138670   138434   137493   136584 
  137523   137254   134850   134241   136572   140155   142608   141536 
  138735   137646   136630   133857   132663   134088   135109   136139 
  138523   140206   139725   138527   139032   140640   140533   139819 
  140219   140019   140020   140599   138503   135702   135666   135649 
  135413   138153   140848   140017   138871   138912   138319   138562 
  139849   138395   134981   134179   135564   136458   137385   139075 
  140471   140062   137646   135558   135494   136584   138005   138647 
  137548   136367   136543   137382   138478   139746   140757   140432 
  138531   137704   138439   137451   134815   134038   136503   139614 
  140074   139170   139222   139797   140937   141253   139325   137814 
  137802   137532   137114   137535   138628   139360   138781   137038 
  135534   135483   136767   138096   138057   137860   139441   140722 
  139440   137038   135301   134987   136512   138238   137637   136071 
  136337   137165   137420   137883   137521   136377   136058   136852 
  138551   140016   140023   138750   136609   134573   134352   135861 
  136979   137508   138397   138835   139020   139482   139189   138316 
  137388   136216   135807   136610   137565   139212   141970   142620 
  139301   134932   131900   130761   132791   137231   140032   139753 
  139048   138451   137219   137583   139930   140378   137385   134812 
  135704   137628   138245   138337   137467   136129   137029   139280 
  140337   140308   139098   136125   133110   131807   132483   135523 
  138307   137926   137806   139806   140733   140568   141151   142123 
  141683   138478   134492   133122   134230   135199   136080   137598 
  138044   138013   139653   141575   141211   138921   137385   137367 
  137628   137997   138307   138314   137914   137074   137593   139106 
  138465   137293   138364   138746   137222   136879   137624   138215 
  139396   140367   140084   140063   141702   142697   140749   138685 
  138977   139633   138759   137398   137554   138501   138265   137127 
  136698   138261   140208   140017   139175   139189   138568   136717 
  135108   135113   136435   138832   141589   141876   140094   139205 
  138955   138904   139278   138596   136987   137003   139110   140355 
  139255   137751   136732   135737   135541   136314   136368   135550 
  136402   138709   139595   140011   141100   140055   137524   137046 
  136759   134666   133942   135776   137876   139369   140212   139689 
  138373   138511   140371   140321   136661   133660   133818   134561 
  135328   137126   138153   137370   136867   137818   139419   141085 
  141733   140213   137436   135460   135714   137274   136641   133668 
  133577   137519   140810   141718   140590   137261   135220   137080 
  139518   139363   137131   135089   134246   132995   131805   133042 
  134932   135426   136588   139043   141223   141701   139550   138377 
  139753   138827   136962   137037   135210   132925   133208   133135 
  133855   137648   141130   142717   142911   140078   136058   135479 
  137289   139044   141705   143841   143550   141241   136854   133166 
  133169   134465   135371   137266   140171   142861   143988   142917 
  140553   137574   134492   135295   141207   143679   139930   136902 
  134171   131703   134959   139449   139301   137350   135537   134214 
  133839   134150   135908   138129   138936   138866   139090   139774 
  139395   136722   134431   136169   140796   143564   141898   138287 
  136642   136081   134335   134110   136827   139365   140184   139830 
  139118   138322   136575   134900   135693   137593   138468   140108 
  141751   140760   140524   142557   142241   139660   138678   139193 
  139612   139662   139561   139187   138249   137658   138561   140413 
  141156   140506   140232   139791   138959   138939   137592   135028 
  135619   138091   137724   135761   135695   137307   138915   139413 
  138593   138001   138623   138134   135183   133448   135580   138732 
  138917   136120   134469   135801   137833   139592   141000   141403 
  141291   140767   139851   139450   138788   136696   134784   134477 
  135051   136711   138559   138169   136854   136125   136259   138747 
  140682   138584   135648   135612   137528   138406   138056   137344 
  135233   132775   132167   133743   136354   138206   139461   139638 
  137735   136842   138453   140266   141332   140539   137720   135932 
  136725   138576   139257   137930   136170   135868   137295   138812 
  138338   135792   132443   130210   132058   137257   140671   140676 
  138642   134890   132169   133644   137550   139583   139028   139584 
  141910   143109   142771   140983   138640   137771   137033   135737 
  135703   137033   139465   141417   139695   136093   135082   136505 
  139324   142900   143924   142430   141288   140039   138557   137326 
  136066   135822   136690   138009   139063   139085   139203   138947 
  136178   133354   134719   138183   139502   139536   138758   136985 
  136934   137697   137455   138172   139884   141088   141546   141238 
  139868   137440   135217   133758   133031   133864   135697   137473 
  139018   139245   137562   135549   134778   135538   137475   139137 
  139726   141069   142884   141890   139132   138699   139573   138144 
  135502   134855   136313   138451   139941   139163   136524   135603 
  137932   139533   138229   137002   136900   137114   138187   139352 
  139560   139533   139456   138161   135691   135340   138846   140965 
  137731   134658   135477   135337   133795   134638   135499   134723 
  135228   138292   141733   142242   141201   141249   140096   137388 
  135881   136074   136302   135876   136941   138974   138785   137046 
  135969   135963   136713   138130   138663   136822   135209   135306 
  136509   140046   143658   144155   143872   144968   145469   143379 
  140238   137385   133281   129485   130303   134522   136625   136065 
  136490   137887   139229   140819   140097   136416   133899   134887 
  138237   141353   142048   141473   142672   144830   144921   143213 
  139989   135228   132015   132293   135298   138345   138033   135600 
  134109   133975   136352   140632   141126   135656   130716   130698 
  132305   133812   136493   139059   139799   139750   142366   148072 
  151303   150016   147113   142438   137358   135129   133176   129327 
  126760   127448   130619   135168   138996   139388   138240   140737 
  145029   146207   146028   146886   146811   143689   138628   134372 
  131688   129756   128394   128466   129828   131561   134477   138034 
  140167   141384   142916   144223   143352   140837   139735   137866 
  132422   127356   126165   129806   137149   142356   142310   140444 
  140035   139953   138370   138546   141778   141685   136992   133704 
  131881   129440   130023   133336   134716   136899   143244   147907 
  146462   143041   141008   138177   133759   130449   129145   129131 
  130125   131820   134611   138230   140908   141485   141058   142211 
  144269   144381   143284   142685   142056   139911   135873   131757 
  128988   129262   134123   140784   146697   152548   155503   150184 
  138919   131070   131261   136061   139155   136987   132889   132190 
  134245   135286   134568   132881   130717   129911   131431   133250 
  135066   138397   141501   142900   144279   146338   148095   148235 
  144954   136842   126913   122026   123377   125610   126837   130189 
  136119   140984   143236   145014   148297   152903   156543   155266 
  147532   137621   130265   126123   125143   127797   132719   138034 
  143818   150290   155279   155582   151167   145906   142485   140108 
  138130   137155   135422   131113   127739   128521   130709   131699 
  132877   135676   139619   143151   144501   143581   141801   140481 
  140378   140162   138281   136956   137875   138277   136036   132409 
  130022   129685   129452   129339   131116   134527   138449   141767 
  144283   147309   150780   151096   145831   139696   137068   135580 
  134036   133065   132093   132285   133710   134593   134416   133537 
  133305   134970   138073   140574   141066   140177   138457   137894 
  139951   140842   138333   135749   136356   138912   139002   137164 
  137755   140200   142361   145358   148373   146969   141139   137559 
  139479   142177   140668   136719   135280   136048   136034   135418 
  135459   137161   139502   139552   137560   135611   134161   134138 
  136460   138488   136259   130673   126712   126692   129250   132877 
  136792   140998   145585   148898   148535   144143   138165   133489 
  131473   132028   132603   131035   129123   128557   130127   134192 
  137270   137582   137856   138672   138974   138850   138861   139878 
  141717   142773   141956   140015   138280   137999   139865   141667 
  141394   139549   136027   132981   133508   135768   137539   138654 
  138565   137725   138107   140584   141951   140269   139036   139936 
  142380   146037   147627   145091   140448   135950   133590   133888 
  135691   138037   138423   135317   132135   132445   136119   141651 
  146566   147186   142859   137895   134975   132422   129940   129015 
  130292   134755   141168   144929   144456   142398   140536   139199 
  138947   139406   140019   141435   142759   142655   141887   140251 
  137570   135383   133440   131238   129965   129398   129095   130208 
  132169   133845   136896   140478   140884   139471   139537   140229 
  140223   139965   139807   139747   139345   137694   134958   132989 
  133425   135355   136387   136471   137002   136991   135880   135908 
  137451   138362   138153   138376   138778   136782   133407   132443 
  133448   135091   138380   141296   141296   140065   139255   139538 
  141258   141804   139436   136810   137070   139939   142272   142419 
  141478   141126   142257   143217   142206   140154   137964   135544 
  133367   133346   136718   140652   141681   140277   139004   139170 
  139576   138819   137637   137280   138033   139453   140136   138235 
  134501   132286   132544   134416   138541   143398   144693   142391 
  141138   142146   142182   140441   138819   137030   134858   135757 
  139901   140638   135943   131535   130581   132433   135824   138510 
  139072   137513   134886   133475   135198   139564   143344   144686 
  145216   145821   145069   142349   139729   138651   138065   138466 
  140517   141708   139874   135282   130744   129609   131352   134252 
  137755   139992   140247   139834   139459   139688   140012   138738 
  136453   135534   136236   136965   137157   137474   138354   138871 
  138608   138632   138387   137008   135895   135754   134836   132749 
  132831   135635   136528   134738   134493   136868   138917   138883 
  138092   137798   137405   137548   139349   140163   137763   135303 
  135870   138179   139367   138489   137247   136574   135460   134072 
  133575   133249   131232   129001   130345   134473   137539   139074 
  139916   139592   138989   139868   142059   144305   145710   145605 
  144073   141961   140595   140520   139777   137656   136501   137193 
  138402   137794   134308   130624   128834   128501   129389   131026 
  133817   138469   142646   143932   142757   140598   138730   137127 
  135306   134360   135152   136579   137554   137589   136032   133925 
  133107   133292   134148   136012   137802   138662   138852   138005 
  136408   135931   136779   137689   138802   139758   139985   140174 
  139641   138277   138013   139267   141116   142863   143541   142175 
  139725   138113   137997   139702   141920   143139   144861   147160 
  148027   147019   145088   144300   144728   144629   144313   143349 
  140998   139051   137795   135908   134095   133817   135440   138079 
  139830   139290   136985   134605   133463   133689   133809   133119 
  133392   134743   135201   135328   135642   134584   133243   133309 
  133720   134434   135768   136683   137677   139274   140170   140166 
  140552   141070   139878   137652   137666   140155   141930   141768 
  141156   140166   137748   135325   134981   136325   138098   140116 
  141836   141498   139820   139352   139267   138350   137732   137825 
  138731   139727   139213   138318   138395   138142   137107   135518 
  133176   131880   132896   134327   134563   134028   133883   134843 
  136653   139162   141918   143151   142113   140044   137586   134886 
  133277   133265   133564   133678   134044   134962   136513   137562 
  137062   136228   136410   137255   138190   138788   138912   139156 
  139035   137674   136432   136637   137785   139623   141716   142485 
  141513   140182   139538   139086   137982   136782   136213   135402 
  134173   134493   136938   139529   140701   140273   139234   138751 
  138343   137269   136324   136324   136861   137170   137118   137168 
  137343   136687   135055   134253   134793   135184   135854   137312 
  137921   137803   137803   137660   138280   139760   141507   143413 
  143746   142406   141332   139914   137359   135164   134392   134997 
  136428   137254   137300   138160   139471   139915   140493   142331 
  144509   145326   144420   142573   140170   137803   136131   135341 
  135731   136753   137870   139124   139368   138088   136678   136715 
