Origin Time       2019/01/26 17:23:00
Lat.              40.280
Long.             142.327
Depth. (km)       38
Mag.              5.6
Station Code      AOMH18
Station Lat.      40.2962
Station Long.     141.0145
Station Height(m) 135
Record Time       2019/01/26 17:23:19
Sampling Freq(Hz) 100Hz
Duration Time(s)  120
Dir.              3
Scale Factor      2940(gal)/6170270
Max. Acc. (gal)   2.568
Last Correction   2019/01/26 17:23:04
Memo.             
[...]
  174961   174999   175193   175343   175117   174766   174736   174472 
  174005   174428   175265   175405   175183   174998   174793   174848 
  175245   175451   175198   175057   175340   175451   175231   175070 
  174772   174508   175031   175936   176174   175671   175218   175477 
  176140   176380   176156   175889   175554   175274   175487   176134 
  176677   176727   176540   176327   175954   176281   177740   178767 
  178537   177849   177229   177115   177861   178420   177838   177062 
  176654   175848   175111   175373   175733   175454   175313   175396 
  174966   174276   173809   173364   173322   173964   174282   174153 
  174355   174274   173602   173674   175020   176311   176264   175256 
  174415   174504   175594   176614   177067   177250   176086   173696 
  172806   174113   175665   176857   177887   177718   176719   176538 
  176500   175946   175982   176145   175462   174940   175320   175446 
  174103   172289   172043   173098   173925   174338   174758   175460 
  175879   174927   173692   174280   175994   176654   176197   175387 
  174179   174056   176112   177600   176603   175429   176105   177379 
  177291   176286   176135   176508   175956   175540   176525   176979 
  175847   175208   175660   175717   175403   175515   175676   175724 
  175792   175234   174647   175187   175611   175124   174636   174015 
  173840   174956   175681   175473   175642   175546   174749   174897 
  176070   176274   175244   174478   174346   174492   174693   174258 
  173551   174136   175525   175979   176052   176785   177252   176616 
  175285   174203   174252   175111   175992   176893   177210   176112 
  174675   174238   174464   175089   176064   176235   175115   173776 
  173312   174231   175517   175560   175145   175396   175425   175249 
  175720   175860   175373   176014   177361   177299   176467   176148 
  176211   177212   178216   176942   174988   174497   173944   173398 
  174343   175071   174527   174079   173794   173746   174918   176255 
  176240   175722   176017   176720   176511   175679   175503   175570 
  175735   176802   177443   176317   175373   175866   175990   175868 
  177185   178080   176824   175592   175361   175062   175451   176301 
  175512   174147   174232   174286   173450   173589   174766   175226 
  174980   174846   174619   174852   176148   176481   175446   175728 
  176511   175912   175976   177024   176940   176352   176402   176518 
  176170   175274   174803   175574   176081   175566   175509   175416 
  174198   173999   175378   175926   175475   174939   174861   175802 
  176245   175625   176069   176894   175874   174454   174276   174834 
  176102   177312   176926   175466   174366   173913   174011   174831 
  175802   175817   174965   174076   173766   174515   175445   175089 
  174030   173707   174250   174642   174310   174700   176303   176793 
  175616   174892   175525   176447   176567   176484   177311   177804 
  176383   174797   174907   175661   176286   176981   176889   175745 
  174923   174712   174195   174111   175221   176041   175785   175493 
  175448   175131   175062   175651   176071   176386   176978   176965 
  176137   175517   175768   176229   175886   175361   175552   175812 
  175640   175315   174830   174292   174151   174389   174744   175382 
  176000   175800   175463   176015   176299   175569   175239   175680 
  175938   175954   175889   175618   175305   175161   175326   175574 
  175381   174913   174808   175047   174855   174132   173992   174683 
  175295   175520   175110   174324   174668   175905   176349   175662 
  174364   173818   174813   175860   176197   176390   176270   175910 
  175503   175091   175466   176265   176252   175780   175498   175489 
  175491   174884   174241   174328   174628   174877   175262   175610 
  175675   175526   175455   175379   175190   175287   175727   175918 
  175639   175544   175908   175821   175165   175182   175999   176681 
  176686   175885   175369   175910   175955   175287   175602   176293 
  176061   175585   175691   176082   175897   175333   175544   176276 
  176517   176656   177048   176613   175507   175275   175409   175146 
  175250   175302   175013   175397   175990   175887   175693   175761 
  175628   175480   175654   175596   175065   174722   174994   175458 
  175453   175204   175271   175486   175724   175959   175890   175783 
  175788   175365   174768   174675   174845   174855   174833   174955 
  175074   175005   175075   175723   176296   176074   175617   175127 
  174407   174472   175602   176283   176012   175720   175480   174920 
  174485   174286   174248   174957   175996   175968   174961   174535 
  175098   175289   174975   175555   176471   176249   175550   175131 
  174737   174653   174747   174784   175278   175597   174988   174550 
  175049   175591   175654   175869   176622   177246   176849   175776 
  175115   175046   175307   175878   176179   175687   175389   176045 
  176567   176452   176312   176047   175613   175136   174662   174895 
  175473   175505   175777   176138   175499   174854   175205   176022 
  176622   176546   176231   176156   175763   175401   175705   175605 
  175053   175349   175586   174669   174124   174887   175500   175355 
  175648   176153   175866   175680   176053   176016   175800   175853 
  175509   174995   174918   174780   174553   174731   174967   174790 
  174476   174488   174774   175156   175521   175539   175593   176351 
  176958   176422   175669   175660   175651   175284   175324   175598 
  175358   174922   174926   175008   174563   174032   173975   174344 
  175216   176153   176315   175941   175390   174896   175235   176186 
  176952   177249   177003   176794   176580   175959   175851   176293 
  176288   176097   175985   175482   174938   175123   175618   175282 
  174350   174041   174235   174510   175315   175999   175607   174897 
  174715   175117   175903   176366   176238   176072   176056   175662 
  174532   173940   175050   176168   175919   175566   175576   175122 
  174649   175061   175750   175809   175829   176220   176244   175967 
  175806   175500   175348   175459   175153   174707   174566   174461 
  174922   175987   176240   175688   175574   175476   174904   175012 
  175853   176099   175720   175343   174910   174594   174529   174469 
  174804   175336   175270   175140   175158   174943   174959   175214 
  175482   175606   175078   174565   174932   175521   175693   175599 
  175638   176072   176352   176065   176034   176515   176579   176159 
  176012   176303   176522   176373   176200   176047   175918   176190 
  176162   175237   174795   175514   175977   175795   175855   175868 
  175496   175308   175089   174619   174689   175139   175024   174623 
  174802   175441   175539   175081   175157   175405   174930   174610 
  174932   175102   175373   176100   176212   175688   175774   175909 
  175558   176241   177425   177019   176018   175901   175964   175812 
  175678   175645   175965   176100   175178   173919   173815   174650 
  174845   174540   174963   175377   175039   174994   175478   175567 
  175305   175498   175996   176187   176139   175608   174592   174472 
  175486   176211   176375   176375   176138   175968   176004   175957 
  175923   175898   175539   174913   174726   175291   175714   175344 
  174778   174697   174992   174990   174593   174653   175113   174889 
  174504   175206   176077   175838   174869   174140   174402   175134 
  175280   175334   175860   176326   176492   176310   175917   175931 
  176033   175468   174797   174978   175715   176072   176011   175956 
  175710   174927   174083   174126   174853   175367   175954   176790 
  176823   176105   175704   175571   175532   175892   176317   176244 
  175698   175133   174869   175127   175769   176067   176285   176969 
  176948   175997   175657   175861   175941   176419   176733   175792 
  174743   174886   175075   174550   174594   175182   174844   174326 
  174860   175260   175144   175424   175357   174739   174670   174811 
  174925   175446   175560   175308   175577   175602   175161   175158 
  175285   175247   175530   175860   175647   175236   175251   175374 
  175150   175000   175193   175380   175564   175999   176423   176493 
  176318   176344   176890   177051   175889   174810   175202   175813 
  175552   175176   174986   174492   174175   174471   174565   174495 
  175160   175870   175541   174869   174718   174712   174746   175270 
  176028   176494   176743   176879   176749   176621   176500   175925 
  175400   175341   175229   175363   175985   175959   175083   174641 
  174692   174670   175119   175654   175319   175067   175468   175415 
  174886   174810   175025   174859   174793   175361   175492   175086 
  175391   175699   175216   175205   176003   176434   176328   176670 
  177128   176294   175293   175906   176524   175936   175786   176360 
  176300   175823   175615   174978   173889   173648   174036   174212 
  174878   175339   174325   173737   174686   175343   175268   175366 
  175611   175917   176534   176916   176324   175718   176005   176155 
  175881   175867   175812   175760   176156   176486   176143   175428 
  175436   176299   176465   175709   175489   175702   175664   175742 
  175427   174455   174243   174689   174425   174046   174111   173766 
  173268   173459   174337   175557   176193   175786   175349   175624 
  176309   176829   176848   176566   176307   176168   176206   176423 
  176632   176701   176691   176425   175904   175881   176125   175569 
  174902   174821   174719   174998   175574   175208   174508   174535 
  174886   175367   175992   176488   176775   176411   175326   174770 
  175195   175629   175723   175606   175328   175151   174950   174757 
  174932   175124   175132   175193   175222   175372   175655   175600 
  175272   175228   175642   175995   175987   175948   175794   175299 
  174917   175056   175372   175501   175653   175768   175642   175756 
  176388   176946   176694   176109   176396   176758   175961   175224 
  175240   175131   174946   174917   174904   174911   174743   174690 
  174863   174759   175041   175960   176087   175557   175574   175709 
  175566   175345   174949   174733   174729   174589   174551   174672 
  174944   175346   175562   175789   176028   175775   175094   174393 
  174003   173880   173942   174752   175931   176136   175609   175223 
  175057   175705   176915   176939   176085   175944   175967   175471 
  175359   175863   176115   175860   175657   175779   175952   176048 
  176186   176479   176796   176683   176068   175308   174650   174406 
  174796   175592   176218   176201   175821   175525   175169   174858 
  174843   174490   173660   173635   174548   174955   174780   174818 
  174893   175075   175540   175579   175277   175590   176225   176354 
  176264   176231   175730   174891   174475   174583   175125   175973 
  176398   176260   176299   176421   176275   176442   176851   176506 
  175491   174630   174228   174536   175698   177042   177418   176578 
  175684   175748   176674   177561   177386   176385   175497   174707 
  173967   173895   174666   175703   176308   176153   175187   173934 
  173577   174202   174624   174235   173269   172605   173143   174348 
  175268   175724   175611   175213   174858   174236   173715   174032 
  175041   176407   177558   177941   177839   177303   176199   174830 
  173593   173369   174412   175515   176084   176355   176039   175346 
  175087   174955   174277   173434   173137   173896   175575   176805 
  176901   177086   178121   179246   179278   177737   175896   175118 
  174686   173823   173328   173299   172707   171939   172137   173004 
  173769   174111   174073   174451   175602   176599   176986   177158 
  177120   176967   177110   177258   176844   176233   176241   176590 
  176291   175639   175588   175692   175165   174567   174540   174479 
  173871   173607   174300   174990   175145   175478   176209   176877 
  177274   177391   177168   176717   176651   177327   178077   178452 
  178704   178379   176997   175691   175601   176234   176761   176738 
  175931   174963   174662   175082   175871   176201   175507   174739 
  174854   175511   176152   176397   176285   176479   176756   176135 
  175177   174953   174507   172829   171051   170409   170992   172411 
  173716   174437   175219   176001   176180   176299   176856   177262 
  177352   177528   177172   175407   173136   171926   171721   171871 
  172886   174916   176440   176630   176287   175620   174692   174423 
  175002   175678   175713   175310   175695   176686   177021   177142 
  177800   178308   178169   177840   177613   177089   176032   175102 
  174889   174970   175197   176162   177269   177116   175957   174970 
  174445   174362   174431   174362   174713   175232   175018   174544 
  174522   174914   175172   174820   174934   176174   177032   177238 
  178000   178936   179132   178510   177207   175992   175563   175106 
  173943   173106   173250   173304   172713   172277   172081   171888 
  172397   173607   174681   175406   175532   174972   174803   175388 
  175785   176275   177583   178418   177774   177173   177592   177961 
  177664   176757   175359   174607   175248   176104   176138   175784 
  175616   175919   176778   177508   177428   176796   176125   175682 
  175400   174792   173737   172578   171384   170380   170096   170563 
  171486   172808   174209   175026   175348   175873   176901   178165 
  178870   178493   177426   176492   176654   177795   178452   177998 
  176901   175913   175790   176021   175670   175067   174638   174097 
  173514   173554   174260   175021   175675   176267   176485   176252 
  176144   176323   176182   175773   175660   175855   176074   176175 
  176559   177376   177546   176552   175522   175433   175561   174746 
  173776   173634   173406   172999   173589   174834   175659   175830 
  175280   174338   173830   173714   173687   174366   175790   177095 
  177744   177265   176240   176245   176713   176331   175972   175929 
  175119   173986   173556   173557   173928   175244   176632   176399 
  174866   173828   174019   174533   174341   174085   174660   174946 
  174349   174368   175137   175444   175504   175750   176062   176826 
  177787   177943   177432   176759   175743   175020   175300   175564 
  175100   174970   175735   176386   176595   177156   177528   176738 
  175739   175577   175964   176564   176942   176415   175330   174724 
  174932   175564   175889   175354   174500   174287   174346   173967 
  173881   174568   174940   174560   174346   174609   175166   176072 
  176725   176415   175662   175359   175424   175445   175596   176013 
  176314   176339   176510   176870   176793   176164   175473   174871 
  174551   174954   175667   176047   176125   175791   175218   174985 
  175133   175629   176167   176141   176160   177055   177767   177197 
  176011   175151   175174   175921   176282   176061   175714   174912 
  173991   173852   174144   174301   174385   174341   174537   175283 
  175892   176080   176062   175679   175319   175306   174846   173888 
  173654   174083   173995   173789   174444   175340   175559   175295 
  175158   175136   174962   174923   174919   174649   174854   175634 
  175801   175140   174657   174910   175387   175569   175572   175526 
  175615   175890   175901   175816   176161   176397   176070   175788 
  175801   175735   175602   175580   175702   176121   176668   176833 
  176438   175563   175015   175593   176102   175674   175640   176325 
  176645   176525   176519   176694   176781   176708   176473   176073 
  175740   175515   175390   175585   176002   176210   176056   175937 
  176174   176615   176882   176396   175164   174263   174427   175078 
  175323   174961   174444   174181   173921   173432   173105   173119 
  173370   173973   174846   175540   175709   175530   175561   175850 
  175497   174363   173903   174435   174606   174255   173953   173528 
  173337   173954   174766   175069   175254   175746   176025   175747 
  175545   175782   175977   175973   176064   176192   176242   176344 
  176472   176630   177011   177367   177322   177197   177134   176752 
  176126   175645   175602   176047   176566   176678   176263   175797 
  175768   175629   174932   174544   175005   175671   176038   175913 
  175361   175317   176068   176344   175869   175823   176317   176476 
  176175   175785   175487   175590   176221   176717   176462   175931 
  175744   175529   175090   174989   175079   175110   175569   176007 
  175664   175286   175354   174947   174059   173759   173948   174048 
  174237   174506   174678   174894   175115   175268   175348   175174 
  174802   174501   174518   175089   175797   175758   175154   174937 
  174925   174570   174490   175017   175371   175248   175128   175102 
  174887   174686   174864   175191   175311   175241   175166   175330 
  175682   175784   175619   175589   175853   176386   176981   177312 
  177232   176728   176195   176214   176591   176579   176031   175392 
  174932   174839   175119   175272   175042   174775   174783   174889 
  174889   175072   175520   176057   176589   176681   176266   175905 
  176010   176569   176871   176369   175608   175355   175803   176394 
  176236   175393   174820   174597   174141   173925   174307   174528 
  174491   174496   174286   174146   174396   174692   175000   175222 
  175218   175507   176046   176318   176458   176365   175987   176010 
  176305   176084   175722   175903   176213   176137   175822   175617 
  175816   176103   175847   175405   175229   174850   174465   174773 
  175230   175068   174517   174090   174054   174260   174428   174620 
  174784   174616   174344   174516   174954   175197   175369   175695 
  176140   176358   176049   175777   176026   176336   176437   176591 
  176797   176866   176842   176737   176567   176550   176659   176770 
  176807   176467   175845   175472   175433   175473   175522   175504 
  175169   174662   174488   174779   175346   175914   176138   175843 
  175243   174999   175445   175931   176000   175990   175917   175583 
  175329   175245   175177   175407   175669   175376   175025   175145 
  175519   175930   175985   175478   174939   174729   174875   175276 
  175395   175081   174888   175012   175176   175322   175429   175276 
  175040   174943   174832   174934   175345   175624   175720   175707 
  175547   175539   175758   175895   175856   175655   175372   175348 
  175557   175590   175690   176049   176072   175858   176012   176069 
  175552   175137   175234   175367   175379   175432   175411   175335 
  175326   175285   175233   175311   175442   175492   175471   175265 
  174770   174370   174383   174668   174973   175043   175054   175402 
  175779   175797   175708   175761   175856   175833   175666   175475 
  175352   175339   175554   175864   175917   175889   176044   175894 
  175353   175216   175520   175672   175719   175864   175931   175796 
  175717   175880   175902   175720   175841   176133   176224   176268 
  176102   175628   175501   175825   175956   175701   175402   175299 
