Origin Time       2019/01/14 13:23:00
Lat.              36.162
Long.             139.810
Depth. (km)       53
Mag.              4.9
Station Code      CHBH06
Station Lat.      35.7215
Station Long.     140.5046
Station Height(m) -145
Record Time       2019/01/14 13:23:56
Sampling Freq(Hz) 100Hz
Duration Time(s)  120
Dir.              3
Scale Factor      3923(gal)/8224838
Max. Acc. (gal)   1.449
Last Correction   2019/01/14 13:23:41
Memo.             
[...]
      14       12       13       14       12       12       14       13 
       9       12       14       10       10       13       10       10 
      13       10       12       16       14       12       10       10 
      12       12       10       10       13       10       10       13 
       9        6       12       12        8        9        8        4 
       4        9       13        9        8       10        9        8 
      12       12        8        9       10       10       10        6 
       6        6        6       12       16       12        6       10 
      13        8        8       12       10        8        9        8 
      12       10        2        5        9        4        2        9 
      10        9        9       12       10        6        4        5 
      13       14        8        8       10       13       13        9 
       9       14       13        6        5        9       10        8 
       6        8        9        8        6        6        9        9 
       6        8       10       10       12       10        9       12 
      14       12       10       13       12       13       13       13 
      13       16       16       13       13       16       16       16 
      12        8       12       16       13       12       14       16 
      13       14       18       17       16       16       14       16 
      14       16       21       20       14       13       14       14 
      13       14       14       13       12       14       17       16 
      14       16       16       13       14       16       16       16 
      16       13       14       18       18       17       16       14 
      10       10       14       12        8       12       13       13 
      14       12        8       10       13       13       16       14 
      13       14       12       10       13       13        9        8 
       8        9        9        8        6        6       10       10 
      12       14       12        8        8        8       10       13 
      12       10       12       13       13       12       10        9 
      10       10        9        9        9        5        2        9 
      14       12        6        4        5        8        8        9 
      10        8        6       10       12       13       17       16 
      12       12       14       12       12       13       10        9 
      13       14       13       10       10       12       10       10 
       9        9       12       10        8       10       10        9 
      12       12       12       12       13       13       12        9 
      10       12       10        9       13       12        6        8 
       9       12       16       14        9       10       13       12 
      14       17       12        8        9       12       13       14 
      12       14       14        9        8       12       13        9 
       9       14       16       14       17       16       10       12 
      13       13       13       12        5        5       10       12 
      10       14       13        8        8       12       16       18 
      18       14       12       13       16       16       16       14 
      10       10       17       16       10       13       13       10 
      12       14       14       16       14       12       14       20 
      17       12       12       14       13       12       14       14 
      12       13       14       16       16       13       12       13 
      10       10       12       12       12       13       17       14 
      12       12       13       14       13       10       10        9 
      12       16       14        9       12       14       13       14 
      16       13       12       12       12       16       16       10 
      10       10        8       10       14       14       13       12 
       9        9       14       14       13       16       12        5 
       9       10        8       10       10        6        6       10 
      12       13       13       10       10       14       12       10 
      14       12        8       10        9        5        9       13 
       9        8       10       10        6        8       10        9 
      13       13        6        6       10        9       10       12 
       8       10       10        8        8        9        6        8 
      10        8        5        5        5        6        9        9 
       6        6        8        9       10       10        6        5 
       6        8       10        9        2        0        1        4 
      10       13        6        2        6        8        9        9 
       4        4        9        8        8       12       12        5 
       5        6        5        8       12        8        4        6 
       9        9       10       10        6        5        5        8 
      12       10        8        6        8       14       17        9 
       5        9       14       14       12       13       12       10 
      14       12       12       16        8        5       16       16 
      12       14       14       10       12       14       16       16 
      17       16       13       14       14       16       17       17 
      17       16       16       16       16       16       16       17 
      17       17       17       16       16       16       17       17 
      17       21       21       17       17       20       18       18 
      20       17       17       20       17       17       22       20 
      13       13       14       16       16       16       17       17 
      16       18       22       22       18       16       16       18 
      21       18       16       17       13       13       16       18 
      18       14       12       13       14       14       14       13 
      14       16       16       16       14       13       16       16 
      13       14       17       16       13       13       13       16 
      17       13        9       10       12       14       12        8 
       9       12       13       14       17       17       13       12 
      13        9        9       13        9        5       10       13 
      10       13       10        6        6       10       10       10 
      10        9        9       10        8        6        8        9 
      12       13        9        5        4        6       10        8 
       1        2        8        6        4        6        8        5 
       8        8        5        8        6        2        5        6 
       5        5        2        5       10        8        2        4 
       5        5        6        5        5        5        8        9 
       5        4        6        6        8        8        6        6 
       5        2        1        1        2        4        5        6 
       6       10        9        5        6        6        6       10 
      10        6       13       14        8        9        9        4 
       6        9        8        9       12        8        5        8 
       5        4        6       12       17       18       14       12 
       9        6        9       13       10        8       12        8 
       2        8       12        9        8        8        8        9 
       9        8       10       13       10       13       17       14 
       9       12       16       14       10       10       13       14 
      14       13       12        8        6       12       16       16 
      14       12       13       13       13       17       20       18 
      18       10        9       13       12       17       18       12 
      13       16       14       18       20       13       16       18 
      16       18       21       13        9       14       14       16 
      20       17       18       22       20       16       18       18 
      16       16       16       16       17       16       16       17 
      18       18       20       20       16       13       16       17 
      13       13       12       13       18       14        9       13 
      16       13       13       12       10       13       13       12 
      14       16       13       12       13       13       14       14 
      13       12       16       16       13       10        9       10 
      14       16       12       10        6        4        8       13 
      12       13       13        8        8       13       14       16 
      14       13       13       13       12        9        8        9 
       9        9        9       10       13       10        4        9 
      13        9       12       12        9       10       13       14 
      13       12       13       13       12       12       12       13 
      13        8        8       12       12       13       13        9 
       9       14       16       10        9       12       13       12 
       9       10       14       12        9       12       13       12 
      13       14       13       13       14       12        8       10 
      16       17       17       17       13       12       13       13 
      13       14       13       10       10       14       13       10 
      10        9        8       10       13       14       12       12 
      13       12       12       14       14       13       16       17 
      12        9       10       10       13       16       10        6 
       9        9       10       14       14       13       13        8 
       6       10       12       12       12       13       14       14 
      13        9       10       14       13       12       10       10 
       8       12       16       14       12        8        8       13 
      10       10       12        6        4        9       12        9 
       8       10        9       10       14       12        8        6 
       4        5       10       10        5        6       10       10 
      10       10        9        9        8        8       12       12 
       9        6        5        8       10       13       13       12 
      12       10        9        8        4        4        6        6 
       6       10       12       10       12       13       12       10 
      10       10       10       13       13       13       14        9 
       6       10       13       12       13       10        6        8 
       8       10       16       16       14       18       20       13 
      10       13       12        9       10       10       10       13 
      10        8       13       13       10       16       17       13 
      12       17       21       20       18       18       14       16 
      16       14       14       12       10       12       12       14 
      17       12       12       18       18       16       18       17 
      10       13       17       13       12       13       13       14 
      12        6        6       10        9        9       14       17 
      14       13       13       14       18       20       16       16 
      17       13       10       10        6        9       14       13 
      12        9        5        8       10       10       12       13 
       9        8       14       14       12       12        9        8 
      14       13       10       14       14        8       10       17 
      14        8        8        9        9       12       13       10 
       6        4        8       14       16       12       13       13 
       9       12       16       10        9       14       13       13 
      14        9        6       12        9        8       13       13 
       6        8       13       16       16       13       14       12 
      12       14       14       12        8        8       10       12 
      14       12        9       10       12       12       14       14 
      16       16       13       13       16       14       12       12 
      13       14       13       13       12        9       12       12 
       8       12       14       10        9        9       12       12 
       9       12       13       10       10       12       10       10 
      12       10       10        8        9       12        9        6 
      10       12        8        8        9       12       14       16 
      13       10        9        9       10       10        8       10 
      12        9        9       10        9        8        9       13 
      14       13       12        8        9       13       14       14 
      10        6        9       10       10       14       13        8 
       9       13       13        9       12       12       10       12 
      12       12       13       13       13       16       17       14 
      12        8        8       10       12       12        8       10 
      14       13       13       14       14       17       16       13 
      14       13       13       12       13       17       16       14 
      16       13        9        8        9        8        6        9 
      14       14       12       12       13       14       14       14 
      13       13       12       10       13       14       10        9 
      12       13       14       13       12       13       12       10 
      13       13       12        9        6        6        9        9 
       8        8       10       10        9        9       13       14 
      14       13       12       13       13       14       18       17 
      10       10       14       27       78      194      399      697 
    1047     1332     1401     1139      519     -329    -1132    -1578 
   -1363     -511      361      669      259    -1007    -2604    -3026 
   -1525      866     2380     2369     1628      603     -364     -365 
     118      -82     -646     -847     -523      373     1591     1887 
     237    -1849    -2454    -2002    -1340     -892     -733      -60 
     850     1264     1520     1004     -702    -2169    -2158     -699 
    1046     2172     2269      934     -294        2      360     -166 
    -864    -1432    -1343      108     2157     2884     1574     -365 
   -1761    -2424    -1915     -507      896     1900     2083     1543 
     961      189    -1001    -1904    -1803     -519     1325     2235 
    1498       87     -789     -718      -56      506      490     -144 
    -803     -915     -518      233      773      368     -603    -1119 
    -704      321     1081     1069      611      291      353      265 
    -444    -1240    -1441    -1121     -801     -411      469     1109 
     959      901      785     -203    -1158    -1340    -1144     -469 
     371      508      195     -189     -812     -745      657     1804 
    1750     1386      881      260      189       79     -842    -1675 
   -1543     -757      152      876     1158     1090      708     -140 
    -518      190      508     -124     -541     -417      153      831 
     603     -341     -918    -1039     -974     -603      290     1606 
    2317     1711      465     -625    -1129    -1247    -1225     -480 
     352      291      413      820      361     -391     -897    -1347 
   -1136     -322      444     1197     1611     1116      171     -421 
    -922    -1395    -1088     -499     -260      176      487      284 
     224      159     -214     -224      112      121      -83     -203 
    -210       10      437      726      382     -567    -1161     -688 
     495     1503     1575      891      162     -433     -552       56 
     425     -222    -1077    -1193     -689      217     1174     1183 
     359      -31      120      348      769      801      -31     -778 
    -797     -487     -214       -4      -60     -440     -313      268 
     199     -211     -469     -885     -839       21      842     1066 
     484     -484     -803     -282      569     1094      692     -306 
    -865     -484      179      190     -260     -409     -149      153 
     238      256      240      -54     -220      -72      -36       67 
     153      -83      -49      479      942      884      113     -789 
    -962     -396      298      541      194     -415     -839     -747 
    -288      136      448      801     1173     1232     1069      984 
     623      -16     -530    -1005    -1242     -878     -278      -12 
     -37       76      168     -110     -460     -634     -461      225 
     666      503      352      -12     -762    -1283    -1313     -569 
     531      812      504      554      791      673      522      699 
     499     -241     -595     -658     -951    -1063     -847     -600 
    -272      291      831      951      785      604      546      742 
     895      646      122     -454     -804     -746     -629     -886 
   -1131     -557      384      731      805      911      688      267 
     -58     -224     -211      -49       66     -117     -286     -275 
    -508     -623     -348     -147      202      611      437      108 
     162      229       43      -14      306      550      449      241 
      16      -74       43       18     -121     -211     -371     -403 
    -238      -72      118      147     -190     -680     -876     -418 
     310      635      413      -95     -311      -44      222      391 
     441      121     -124       85      341      422      359       89 
    -232     -330     -102      352      652      464        0     -361 
    -469     -346     -230     -288     -436     -471     -228      130 
     256      101      -28      129      499      707      355     -333 
    -639     -487     -321     -149       98      229      333      326 
    -141     -549     -348     -187     -444     -500     -170      283 
     796     1013      776      607      567      309      -64     -348 
    -386     -182       20       39     -244     -657     -766     -472 
      48      561      799      618       54     -456     -457     -184 
     -59     -159     -240      -91       32       41      237      406 
     352      394      410      184        4      -71     -112      -58 
     -33       72      402      527      243      -51      -33      229 
     545      715      460     -168     -643     -787     -876     -850 
    -476       16      297      345      162     -291     -723     -700 
    -336       39      373      594      606      405      126       41 
      24     -124     -101      205      400      303      217      261 
      63     -305     -205      171       33     -348     -229       12 
    -203     -441     -337     -151       68      252      284      409 
     411       75     -222     -398     -284      153      263       -4 
    -153     -211     -197      -48      -60     -238      -74      449 
     737      753      791      499     -163     -544     -483     -213 
      29      -79     -306     -224     -122     -238     -294     -244 
    -128      157      244      -21      -63       72      -36      -59 
     232      579      699      423       55       39      349      486 
     116     -394     -793    -1147    -1140     -720     -348     -234 
    -321     -383      -79      376      490      465      492      333 
     243      448      540      328      255      545      727      527 
     124     -479     -980     -878     -477     -122      139       20 
    -182     -122     -160     -162       74       66     -148       41 
     571      864      819      534      -89     -764    -1035     -909 
    -522      -83       86      199      564      660      166     -217 
