Origin Time       2019/03/11 15:37:00
Lat.              33.2
Long.             132.7
Depth. (km)       40
Mag.              4.5
Station Code      EHMH06
Station Lat.      33.3348
Station Long.     132.798
Station Height(m) 30
Record Time       2019/03/11 15:37:57
Sampling Freq(Hz) 100Hz
Duration Time(s)  120
Dir.              3
Scale Factor      3923(gal)/8224838
Max. Acc. (gal)   2.743
Last Correction   2019/03/11 15:37:42
Memo.             
[...]
  -23064   -23066   -23068   -23068   -23066   -23064   -23067   -23068 
  -23067   -23066   -23064   -23064   -23066   -23068   -23067   -23064 
  -23064   -23067   -23067   -23066   -23066   -23068   -23070   -23067 
  -23066   -23066   -23066   -23067   -23067   -23066   -23067   -23066 
  -23064   -23067   -23067   -23063   -23066   -23067   -23064   -23066 
  -23066   -23064   -23064   -23067   -23070   -23067   -23064   -23064 
  -23067   -23067   -23063   -23066   -23068   -23066   -23064   -23064 
  -23064   -23064   -23063   -23064   -23066   -23064   -23064   -23064 
  -23064   -23063   -23064   -23066   -23064   -23064   -23064   -23066 
  -23063   -23063   -23066   -23066   -23064   -23066   -23068   -23068 
  -23066   -23064   -23066   -23068   -23067   -23063   -23064   -23064 
  -23067   -23067   -23064   -23063   -23064   -23064   -23064   -23063 
  -23062   -23063   -23064   -23063   -23064   -23066   -23063   -23066 
  -23066   -23062   -23062   -23066   -23067   -23063   -23063   -23066 
  -23068   -23068   -23068   -23064   -23064   -23067   -23067   -23064 
  -23066   -23067   -23066   -23064   -23064   -23063   -23063   -23064 
  -23067   -23067   -23062   -23062   -23067   -23070   -23066   -23064 
  -23063   -23062   -23063   -23068   -23067   -23063   -23063   -23064 
  -23066   -23066   -23066   -23064   -23067   -23064   -23064   -23067 
  -23064   -23062   -23064   -23064   -23064   -23066   -23066   -23064 
  -23064   -23066   -23068   -23068   -23067   -23067   -23066   -23063 
  -23064   -23066   -23066   -23066   -23066   -23064   -23066   -23070 
  -23067   -23064   -23064   -23067   -23068   -23067   -23066   -23066 
  -23064   -23064   -23066   -23066   -23064   -23066   -23066   -23064 
  -23066   -23066   -23063   -23066   -23066   -23064   -23066   -23066 
  -23064   -23064   -23064   -23067   -23068   -23064   -23066   -23068 
  -23064   -23063   -23064   -23066   -23067   -23066   -23066   -23067 
  -23068   -23066   -23064   -23064   -23066   -23067   -23066   -23066 
  -23067   -23064   -23064   -23067   -23064   -23063   -23067   -23067 
  -23064   -23064   -23064   -23064   -23064   -23062   -23059   -23063 
  -23067   -23067   -23062   -23062   -23064   -23066   -23066   -23064 
  -23063   -23064   -23067   -23066   -23063   -23066   -23066   -23063 
  -23063   -23066   -23064   -23063   -23063   -23063   -23066   -23064 
  -23063   -23066   -23064   -23064   -23067   -23067   -23066   -23066 
  -23063   -23063   -23066   -23066   -23064   -23068   -23068   -23063 
  -23063   -23067   -23067   -23066   -23066   -23067   -23064   -23064 
  -23066   -23063   -23064   -23066   -23064   -23067   -23070   -23064 
  -23063   -23066   -23066   -23066   -23064   -23066   -23066   -23064 
  -23063   -23064   -23064   -23066   -23063   -23062   -23064   -23067 
  -23066   -23066   -23063   -23063   -23063   -23064   -23066   -23066 
  -23064   -23064   -23063   -23063   -23067   -23064   -23062   -23066 
  -23067   -23064   -23062   -23062   -23066   -23066   -23064   -23066 
  -23067   -23064   -23062   -23062   -23063   -23063   -23063   -23066 
  -23066   -23063   -23066   -23068   -23068   -23068   -23067   -23064 
  -23064   -23066   -23067   -23066   -23067   -23067   -23064   -23064 
  -23064   -23064   -23064   -23064   -23066   -23066   -23064   -23064 
  -23063   -23063   -23062   -23062   -23064   -23066   -23064   -23064 
  -23063   -23063   -23063   -23060   -23062   -23064   -23062   -23062 
  -23062   -23060   -23063   -23066   -23066   -23064   -23064   -23066 
  -23064   -23063   -23064   -23064   -23064   -23064   -23063   -23063 
  -23066   -23063   -23062   -23066   -23066   -23064   -23064   -23064 
  -23064   -23063   -23063   -23063   -23064   -23063   -23063   -23063 
  -23063   -23063   -23064   -23066   -23066   -23063   -23063   -23067 
  -23066   -23062   -23064   -23067   -23066   -23066   -23068   -23066 
  -23062   -23063   -23062   -23064   -23070   -23068   -23064   -23067 
  -23067   -23064   -23064   -23068   -23066   -23064   -23067   -23066 
  -23064   -23066   -23066   -23064   -23064   -23066   -23066   -23064 
  -23063   -23066   -23067   -23064   -23066   -23066   -23066   -23066 
  -23063   -23063   -23066   -23064   -23063   -23064   -23063   -23063 
  -23066   -23067   -23066   -23066   -23066   -23066   -23067   -23067 
  -23064   -23066   -23067   -23064   -23064   -23066   -23063   -23062 
  -23064   -23066   -23066   -23064   -23063   -23063   -23064   -23064 
  -23063   -23066   -23066   -23062   -23062   -23066   -23064   -23060 
  -23062   -23064   -23064   -23063   -23062   -23063   -23064   -23064 
  -23064   -23064   -23066   -23064   -23063   -23064   -23064   -23064 
  -23066   -23063   -23062   -23064   -23066   -23062   -23062   -23062 
  -23062   -23062   -23062   -23062   -23062   -23063   -23066   -23066 
  -23064   -23064   -23064   -23064   -23066   -23064   -23064   -23066 
  -23066   -23062   -23064   -23067   -23066   -23064   -23064   -23064 
  -23066   -23066   -23063   -23063   -23066   -23066   -23063   -23063 
  -23064   -23064   -23063   -23062   -23063   -23066   -23066   -23064 
  -23066   -23064   -23059   -23060   -23063   -23063   -23064   -23066 
  -23066   -23066   -23066   -23067   -23064   -23064   -23063   -23060 
  -23062   -23064   -23063   -23063   -23063   -23062   -23062   -23063 
  -23063   -23063   -23064   -23066   -23064   -23063   -23062   -23062 
  -23063   -23066   -23066   -23064   -23062   -23063   -23067   -23066 
  -23063   -23064   -23064   -23064   -23064   -23064   -23067   -23067 
  -23064   -23063   -23062   -23064   -23068   -23066   -23066   -23067 
  -23066   -23060   -23062   -23064   -23064   -23064   -23066   -23066 
  -23063   -23062   -23062   -23064   -23066   -23064   -23066   -23066 
  -23063   -23063   -23062   -23063   -23067   -23068   -23064   -23064 
  -23067   -23064   -23064   -23068   -23064   -23062   -23063   -23064 
  -23064   -23066   -23066   -23067   -23067   -23066   -23063   -23063 
  -23063   -23064   -23066   -23063   -23062   -23066   -23067   -23064 
  -23064   -23064   -23064   -23063   -23060   -23062   -23062   -23062 
  -23064   -23066   -23064   -23067   -23066   -23062   -23066   -23068 
  -23064   -23064   -23066   -23063   -23064   -23068   -23066   -23063 
  -23064   -23066   -23066   -23067   -23067   -23063   -23063   -23063 
  -23063   -23066   -23063   -23062   -23066   -23067   -23064   -23062 
  -23063   -23064   -23063   -23064   -23064   -23064   -23066   -23067 
  -23063   -23062   -23066   -23066   -23062   -23062   -23064   -23066 
  -23064   -23064   -23064   -23064   -23062   -23062   -23066   -23066 
  -23060   -23060   -23064   -23063   -23063   -23066   -23066   -23063 
  -23064   -23064   -23063   -23062   -23062   -23060   -23062   -23063 
  -23062   -23060   -23060   -23062   -23064   -23064   -23064   -23066 
  -23066   -23066   -23067   -23064   -23063   -23064   -23066   -23062 
  -23060   -23064   -23066   -23063   -23063   -23063   -23063   -23066 
  -23064   -23064   -23066   -23064   -23064   -23064   -23062   -23062 
  -23066   -23066   -23063   -23063   -23064   -23063   -23063   -23066 
  -23064   -23064   -23067   -23066   -23064   -23062   -23063   -23067 
  -23067   -23063   -23063   -23066   -23064   -23063   -23064   -23066 
  -23064   -23066   -23066   -23064   -23066   -23066   -23064   -23063 
  -23064   -23064   -23067   -23067   -23066   -23066   -23066   -23064 
  -23066   -23067   -23066   -23066   -23067   -23066   -23066   -23066 
  -23066   -23067   -23064   -23063   -23066   -23067   -23066   -23064 
  -23066   -23067   -23067   -23067   -23068   -23067   -23064   -23063 
  -23063   -23066   -23067   -23064   -23063   -23064   -23066   -23066 
  -23064   -23064   -23066   -23064   -23063   -23062   -23063   -23066 
  -23064   -23062   -23064   -23066   -23064   -23066   -23066   -23062 
  -23062   -23064   -23067   -23066   -23064   -23062   -23062   -23063 
  -23064   -23062   -23060   -23066   -23066   -23063   -23064   -23066 
  -23064   -23066   -23064   -23062   -23063   -23063   -23064   -23066 
  -23064   -23064   -23064   -23064   -23064   -23064   -23064   -23064 
  -23063   -23064   -23063   -23062   -23064   -23064   -23063   -23063 
  -23064   -23064   -23064   -23064   -23064   -23064   -23066   -23067 
  -23066   -23063   -23066   -23067   -23066   -23063   -23063   -23063 
  -23063   -23063   -23064   -23063   -23063   -23063   -23063   -23064 
  -23064   -23066   -23067   -23064   -23063   -23067   -23066   -23063 
  -23064   -23064   -23064   -23064   -23063   -23063   -23064   -23063 
  -23064   -23066   -23063   -23063   -23063   -23062   -23063   -23063 
  -23062   -23062   -23063   -23062   -23063   -23063   -23062   -23063 
  -23064   -23062   -23063   -23064   -23064   -23062   -23060   -23063 
  -23064   -23062   -23064   -23066   -23064   -23064   -23064   -23063 
  -23063   -23063   -23062   -23063   -23063   -23062   -23062   -23062 
  -23063   -23064   -23063   -23062   -23060   -23063   -23063   -23056 
  -23059   -23106   -23238   -23480   -23749   -23750   -23337   -22983 
  -22945   -22744   -22489   -22870   -23598   -23812   -23788   -23951 
  -23450   -22702   -23010   -22697   -21055   -21494   -24123   -25080 
  -24355   -24084   -23920   -23098   -21841   -20758   -20197   -20695 
  -22932   -25034   -25533   -25467   -23128   -19850   -21413   -23853 
  -21898   -21274   -24135   -25294   -23287   -21157   -21313   -22437 
  -22775   -23128   -23850   -24120   -23395   -22312   -22864   -24069 
  -23383   -23012   -23638   -22424   -21537   -23280   -24071   -23089 
  -23940   -24722   -22607   -21583   -22804   -23388   -23224   -22940 
  -23425   -24378   -24355   -23565   -21802   -20753   -22931   -24364 
  -22504   -22681   -25070   -24482   -22400   -21556   -21730   -22675 
  -22724   -23109   -24927   -24551   -22711   -22142   -21662   -22323 
  -24283   -24031   -23209   -24405   -24185   -21745   -21159   -23302 
  -24349   -22621   -21713   -23251   -24260   -23471   -22474   -22546 
  -23224   -22963   -21837   -21636   -22659   -23768   -24127   -23832 
  -23855   -22685   -20015   -21041   -24304   -23847   -23056   -23873 
  -23409   -23184   -23122   -22713   -23082   -23106   -24077   -25189 
  -23824   -22599   -21740   -21292   -23492   -24289   -22542   -22882 
  -24405   -24717   -23723   -22923   -23561   -22573   -20811   -21462 
  -22486   -23539   -24825   -25413   -24989   -23009   -21779   -21505 
  -21211   -22319   -22688   -22825   -24483   -24248   -23797   -23630 
  -20595   -20497   -23650   -22855   -22118   -24710   -25068   -22802 
  -21281   -21763   -23853   -24152   -22206   -21721   -22512   -23245 
  -24344   -24366   -23301   -23280   -23546   -22744   -22842   -24236 
  -24348   -23379   -22844   -22060   -21274   -22420   -23977   -23888 
  -24483   -24657   -22233   -21783   -23091   -21919   -22260   -24372 
  -23244   -22176   -23184   -23340   -22773   -22114   -22486   -23889 
  -24382   -24355   -23592   -21699   -21307   -22432   -22728   -22673 
  -22970   -23190   -24120   -25639   -24181   -21136   -22724   -24814 
  -22176   -20927   -22766   -22755   -22380   -23670   -23949   -23450 
  -23464   -23249   -23144   -22580   -21822   -22875   -24090   -23411 
  -22252   -21824   -22770   -24599   -24790   -23592   -23959   -24969 
  -23167   -21015   -22318   -23079   -21573   -22685   -24857   -23525 
  -22022   -23494   -24467   -23296   -22567   -22864   -23010   -22297 
  -20869   -20949   -23060   -24210   -23391   -22709   -23620   -24592 
  -23283   -21648   -22123   -22914   -23419   -23893   -23499   -23365 
  -23803   -23619   -22982   -23117   -24067   -24347   -23525   -21787 
  -21054   -22700   -23854   -24260   -24282   -21895   -20574   -21851 
  -22171   -23299   -24811   -23215   -21918   -22096   -21492   -22203 
  -23450   -22901   -23040   -23545   -22651   -22901   -24165   -23899 
  -22893   -22329   -22225   -22723   -22823   -22426   -24044   -26507 
  -25706   -22806   -21011   -21352   -23326   -24321   -23788   -23846 
  -24337   -23708   -22177   -21249   -21701   -22778   -24298   -26185 
  -25366   -22149   -21609   -23102   -22620   -21234   -22303   -24344 
  -23630   -22446   -23172   -23055   -22538   -23741   -24016   -22368 
  -21971   -23207   -23699   -22963   -22418   -23087   -23649   -22578 
  -21744   -22118   -22815   -24156   -24030   -22734   -23734   -23890 
  -22576   -23593   -23269   -21370   -22114   -22523   -22831   -24980 
  -24765   -22635   -21982   -22291   -23207   -24038   -23440   -23067 
  -24475   -25120   -23051   -20528   -20587   -22608   -23689   -23769 
  -23976   -23996   -23984   -23746   -22516   -21420   -22068   -23097 
  -22578   -22087   -23623   -25398   -24244   -21446   -21076   -22384 
  -22955   -23646   -23531   -22216   -22748   -23161   -21502   -22199 
  -24305   -24200   -24173   -24221   -22339   -21124   -22171   -23310 
  -24201   -24984   -24653   -24028   -23198   -21949   -21498   -21880 
  -23291   -24510   -23553   -23575   -25218   -23857   -21541   -21926 
  -22337   -22299   -22952   -23508   -24678   -25024   -23593   -23318 
  -23167   -22428   -23665   -24312   -22740   -22050   -22513   -22901 
  -23043   -22513   -21853   -22207   -23414   -24444   -24463   -23103 
  -21138   -20772   -22709   -24036   -22898   -20723   -19454   -20534 
  -22933   -23996   -23695   -23475   -23556   -24246   -24463   -22164 
  -20270   -21389   -22859   -24786   -27164   -25504   -20271   -17315 
  -19786   -24603   -26280   -25162   -24268   -24174   -25253   -25629 
  -23105   -19569   -17525   -18377   -22133   -26181   -28046   -26752 
  -23523   -21339   -20537   -21061   -23735   -25208   -23361   -22076 
  -23584   -25301   -24128   -20896   -20343   -23423   -26050   -26410 
  -24479   -21917   -22096   -23372   -23631   -24796   -26219   -25290 
  -22177   -20482   -22264   -23865   -22775   -22084   -23646   -24624 
  -23257   -21624   -20547   -19364   -20244   -23037   -24092   -23955 
  -23961   -23679   -23310   -21706   -21034   -24151   -26187   -24144 
  -22071   -21406   -21174   -21898   -23140   -23958   -23438   -21574 
  -21350   -23141   -23373   -22877   -23809   -24298   -24236   -24460 
  -24324   -24618   -24854   -23488   -22261   -22788   -23101   -22115 
  -21640   -22458   -23427   -23900   -24144   -24030   -23353   -22450 
  -21980   -22443   -22643   -22060   -22339   -23332   -23692   -23349 
  -23021   -23614   -24189   -23182   -22168   -22634   -23094   -22717 
  -21737   -21019   -21721   -22616   -22839   -22864   -21960   -21174 
  -22415   -23904   -23519   -22469   -22306   -22603   -22624   -23049 
  -24356   -24765   -23900   -24111   -24800   -24237   -23981   -24587 
  -24108   -22360   -22067   -24433   -26478   -26104   -24995   -24351 
  -23761   -23603   -23398   -22373   -22254   -23461   -24088   -23731 
  -22847   -21767   -20875   -20698   -21887   -23089   -22958   -23141 
  -23950   -23566   -22492   -22180   -22252   -22319   -22361   -21563 
  -21076   -22280   -23170   -23167   -23363   -23009   -22115   -20910 
  -19350   -19506   -21540   -22621   -22329   -22083   -22295   -22719 
  -22910   -23215   -24233   -24876   -24268   -23901   -24598   -24761 
  -23942   -23399   -22832   -22351   -23645   -25234   -24887   -24237 
  -24193   -24003   -24372   -24714   -24001   -23691   -23804   -23338 
  -23423   -23699   -23041   -22917   -23518   -23346   -23163   -23534 
  -23014   -22050   -22158   -22774   -22897   -22623   -22634   -22927 
  -23121   -23214   -22684   -22088   -22593   -23442   -23827   -23287 
  -22029   -22149   -23247   -22859   -21720   -21138   -21238   -22027 
  -22226   -21818   -22477   -23815   -24381   -23931   -22995   -22250 
  -21789   -21497   -21863   -22549   -22565   -22553   -23255   -23639 
  -23503   -23666   -23661   -22932   -22380   -23017   -24167   -24614 
  -24417   -24167   -24279   -24854   -25566   -25604   -24302   -23037 
  -23272   -23882   -23890   -23737   -23670   -23774   -24066   -24140 
  -23550   -22681   -22489   -22848   -23137   -23503   -23427   -22647 
  -22289   -22180   -21864   -22204   -22580   -21851   -21112   -21358 
  -21740   -21701   -21587   -21909   -22878   -23363   -22744   -22320 
  -22330   -22153   -22181   -22233   -22075   -22543   -23700   -24337 
  -23896   -23673   -24031   -23283   -22107   -22320   -23325   -24412 
  -24925   -24312   -23755   -23931   -24491   -24975   -24416   -23207 
  -22611   -22681   -23068   -23207   -23051   -23090   -22781   -22173 
  -22266   -22644   -22346   -21703   -21508   -21810   -21825   -21640 
  -22238   -22634   -21826   -21105   -21182   -21714   -22393   -22864 
  -23394   -23788   -23403   -23263   -23669   -23465   -23502   -23890 
  -23330   -23144   -24032   -24738   -25012   -24533   -23746   -23722 
  -23835   -23881   -24138   -24009   -23758   -23908   -24030   -23857 
  -23831   -24063   -24073   -23890   -23560   -22870   -22432   -22538 
  -22670   -22674   -22511   -22553   -23051   -23025   -22438   -22276 
  -22346   -22264   -22056   -21705   -21512   -21845   -22616   -23137 
  -22971   -22582   -22555   -22775   -22769   -22824   -23417   -23749 
  -23542   -23787   -24057   -23670   -23561   -23716   -23413   -23272 
  -23692   -24046   -24043   -23907   -23687   -23458   -23371   -23295 
  -23364   -23340   -22840   -22813   -23121   -22588   -22216   -22674 
  -22977   -23103   -22999   -22491   -22455   -22662   -22499   -22592 
  -22592   -22006   -21606   -21571   -21865   -22643   -23109   -22963 
  -22835   -22617   -22299   -22403   -22607   -22446   -22377   -22797 
  -23097   -22747   -22531   -23049   -23595   -23769   -23861   -23787 
  -23822   -24146   -24015   -23625   -23664   -23776   -23778   -23881 
  -24013   -23924   -23715   -23912   -24241   -24052   -23695   -23569 
  -23496   -23357   -23267   -23350   -23255   -22829   -22885   -23407 
  -23431   -23156   -23136   -23106   -22854   -22607   -22585   -22523 
  -22446   -22694   -22750   -22486   -22272   -21978   -21960   -22014 
  -21533   -21554   -22418   -22732   -22365   -22184   -22253   -22539 
  -22800   -22501   -22311   -22989   -23610   -23305   -22948   -23364 
  -23836   -23965   -24084   -23992   -23827   -23885   -23737   -23704 
  -24197   -24204   -23626   -23338   -23260   -23321   -23352   -23256 
  -23545   -23666   -23253   -23116   -23151   -23013   -22855   -22669 
  -22690   -22823   -22782   -22752   -22674   -22600   -22769   -22883 
  -22929   -23186   -23272   -23109   -23222   -23298   -23024   -23083 
  -23360   -23049   -22501   -22395   -22634   -23053   -23436   -23261 
  -22819   -22785   -22802   -22775   -23129   -23113   -22584   -22589 
  -22759   -22489   -22350   -22588   -22902   -22921   -22631   -22512 
  -22616   -22597   -22578   -22677   -22582   -22454   -22698   -23072 
  -23056   -22724   -22864   -23521   -23701   -23341   -23303   -23672 
  -23776   -23500   -23452   -23823   -23940   -23464   -23125   -23311 
  -23465   -23444   -23639   -23899   -23787   -23461   -23256   -23242 
  -23371   -23330   -23085   -23089   -23274   -23275   -23195   -23157 
  -23180   -23224   -23157   -23053   -22991   -22963   -22986   -23128 
  -23507   -23768   -23473   -23151   -23175   -22998   -22675   -22759 
