Origin Time       2019/03/11 15:37:00
Lat.              33.2
Long.             132.7
Depth. (km)       40
Mag.              4.5
Station Code      EHMH02
Station Lat.      33.865
Station Long.     133.184
Station Height(m) -35
Record Time       2019/03/11 15:38:06
Sampling Freq(Hz) 100Hz
Duration Time(s)  120
Dir.              3
Scale Factor      2942(gal)/8224139
Max. Acc. (gal)   3.178
Last Correction   2019/03/11 15:37:51
Memo.             
[...]
  201780   201784   201765   201783   201802   201783   201775   201779 
  201771   201773   201781   201775   201773   201785   201788   201776 
  201773   201780   201780   201780   201787   201789   201781   201777 
  201777   201772   201773   201779   201775   201776   201780   201771 
  201761   201762   201775   201772   201764   201772   201783   201781 
  201769   201760   201772   201768   201754   201772   201781   201766 
  201780   201792   201772   201771   201784   201769   201760   201776 
  201775   201762   201771   201776   201768   201771   201777   201765 
  201760   201773   201784   201783   201777   201769   201766   201779 
  201775   201754   201768   201784   201771   201762   201769   201776 
  201779   201776   201772   201766   201771   201781   201773   201768 
  201777   201781   201776   201776   201775   201772   201775   201784 
  201783   201776   201780   201785   201777   201771   201779   201791 
  201783   201775   201787   201791   201776   201772   201777   201776 
  201768   201768   201775   201781   201783   201787   201792   201784 
  201773   201783   201785   201780   201785   201780   201772   201781 
  201779   201781   201796   201783   201773   201789   201777   201761 
  201777   201791   201788   201784   201777   201772   201780   201785 
  201773   201766   201773   201780   201785   201783   201772   201772 
  201777   201775   201780   201779   201766   201772   201784   201785 
  201785   201788   201788   201781   201771   201776   201779   201765 
  201777   201789   201780   201784   201787   201781   201788   201787 
  201777   201781   201787   201791   201798   201792   201788   201792 
  201792   201791   201789   201799   201811   201803   201788   201789 
  201803   201802   201789   201792   201798   201793   201789   201787 
  201776   201780   201783   201772   201773   201780   201780   201787 
  201788   201787   201788   201785   201784   201787   201787   201785 
  201791   201795   201787   201783   201783   201779   201779   201776 
  201773   201780   201777   201762   201764   201775   201777   201780 
  201781   201777   201776   201779   201780   201779   201779   201771 
  201757   201771   201788   201779   201773   201776   201769   201769 
  201783   201785   201779   201779   201785   201787   201783   201787 
  201791   201781   201772   201773   201780   201780   201766   201769 
  201781   201773   201771   201783   201779   201771   201773   201780 
  201784   201775   201761   201765   201776   201776   201772   201766 
  201769   201776   201775   201772   201776   201776   201781   201781 
  201772   201779   201788   201784   201788   201796   201793   201792 
  201796   201792   201788   201784   201773   201781   201787   201775 
  201779   201788   201780   201776   201773   201776   201781   201772 
  201780   201800   201793   201784   201780   201781   201791   201781 
  201777   201800   201811   201804   201808   201816   201833   201857 
  201874   201901   201937   201966   202005   202030   202035   202043 
  202039   202019   201980   201906   201823   201769   201733   201704 
  201668   201609   201546   201491   201449   201474   201561   201618 
  201592   201556   201555   201523   201452   201432   201474   201509 
  201541   201668   201849   201933   202027   202213   202234   202031 
  201865   201843   201742   201536   201533   201640   201714   201845 
  201837   201793   201931   202015   201911   201725   201676   201754 
  201690   201633   201757   201783   201777   202028   202167   202050 
  202043   201955   201650   201525   201691   201880   201935   202032 
  202170   202004   201664   201630   201775   201734   201532   201348 
  201370   201540   201696   201923   202111   202028   201935   202042 
  201974   201586   201291   201401   201711   201838   201839   201831 
  201938   202239   202174   201908   202093   202120   201665   201415 
  201528   201657   201711   201811   201906   201885   201931   201993 
  201926   201903   201808   201567   201407   201334   201519   202003 
  202127   201802   201742   201920   201895   201896   201960   201756 
  201483   201529   201791   201941   201958   201973   201918   201881 
  201924   201753   201572   201685   201649   201490   201691   201856 
  201623   201532   201852   202100   201981   201771   201739   201772 
  201714   201669   201699   201780   201977   202054   201906   201858 
  201849   201752   201707   201754   201780   201636   201654   201853 
  201725   201644   201808   201798   201833   201941   201727   201399 
  201468   201860   201918   201700   201826   202034   202003   201968 
  201954   202031   202138   201954   201661   201788   202142   201939 
  201522   201706   202042   201989   201783   201735   201731   201600 
  201638   201738   201478   201326   201722   202101   201961   201671 
  201715   201873   201810   201627   201475   201472   201633   201687 
  201657   201838   201935   201690   201572   201731   201826   201838 
  201896   201903   201822   201818   201912   201970   201988   202069 
  202031   201772   201742   201999   202070   201911   201781   201812 
  201856   201702   201577   201737   201885   201885   201930   201802 
  201487   201507   201907   202232   202074   201619   201567   201866 
  201911   201711   201648   201857   202038   201791   201495   201746 
  202155   202232   201993   201542   201380   201735   201974   201749 
  201490   201617   201812   201760   201884   202165   202034   201695 
  201654   201834   201791   201507   201672   202099   201808   201351 
  201607   201885   201818   201877   201768   201359   201429   201973 
  202120   201681   201393   201818   202230   201938   201735   201992 
  202078   201930   201858   201923   201924   201792   201715   201745 
  201901   201989   201860   201772   201706   201664   201825   201843 
  201559   201411   201573   201717   201711   201777   201874   201865 
  201846   201777   201669   201735   201899   201961   201953   201895 
  201788   201831   202108   202273   201997   201575   201545   201793 
  201771   201494   201415   201656   201850   201776   201846   202188 
  202255   201995   201835   201853   201914   201779   201402   201205 
  201336   201598   201831   201901   201874   201924   201958   201711 
  201464   201703   202018   201910   201675   201613   201711   201846 
  201739   201587   201839   202115   201908   201544   201584   201885 
  201883   201637   201648   201989   202194   201958   201610   201532 
  201706   201818   201730   201658   201719   201739   201606   201549 
  201748   201982   202003   201775   201645   201847   202038   202057 
  201997   201814   201703   201877   202139   202182   201966   201787 
  201825   201923   201950   201914   201734   201483   201513   201783 
  201746   201464   201582   201937   201969   201830   201725   201730 
  201995   202171   201961   201671   201656   201849   201903   201811 
  201850   201941   201810   201613   201760   202120   202228   202012 
  201699   201634   201823   201847   201650   201511   201575   201752 
  201780   201648   201669   201779   201694   201683   201977   202181 
  201865   201387   201430   201746   201715   201339   201096   201428 
  201930   201903   201626   201646   201887   202140   202312   202273 
  202086   201924   201793   201656   201540   201546   201652   201619 
  201515   201563   201668   201714   201750   201869   202042   202101 
  202074   202119   202248   202288   202016   201703   201754   201880 
  201726   201544   201619   201811   201752   201456   201532   202068 
  202294   202068   201831   201757   201937   202073   201814   201447 
  201364   201568   201668   201536   201625   201928   201985   201854 
  201804   201834   201962   202038   201749   201394   201467   201672 
  201718   201745   201700   201696   201823   201799   201745   201869 
  201874   201617   201363   201424   201784   202104   202149   201950 
  201893   202186   202321   202101   201954   201919   201808   201684 
  201692   201831   201883   201695   201468   201567   201973   202134 
  201803   201410   201318   201511   201806   201839   201598   201730 
  202144   201965   201372   201294   201787   202113   202014   201857 
  201862   202157   202483   202325   202080   202092   201939   201663 
  201482   201386   201324   201078   201009   201469   201914   202070 
  202134   202111   201992   201819   201712   201777   201771   201386 
  200954   201118   201694   201953   201852   201842   201947   201926 
  201835   201769   201703   201764   201815   201664   201719   202089 
  202182   201856   201631   201899   202223   201934   201484   201634 
  201988   202072   202154   202225   202157   202103   201995   201904 
  201960   201847   201494   201276   201382   201634   201648   201347 
  201271   201614   201807   201675   201642   201700   201442   201123 
  201374   201897   201951   201650   201626   201955   202188   202074 
  201799   201660   201752   201955   201946   201603   201438   201745 
  202126   202134   201874   201830   201964   201947   201834   201719 
  201603   201453   201409   201722   202103   202146   201982   201837 
  201883   202177   202300   202023   201798   201906   202213   202387 
  202101   201649   201503   201685   201864   201590   201201   201283 
  201415   201218   201151   201475   201852   202024   202062   202024 
  201981   201974   201933   201833   201603   201453   201580   201563 
  201386   201399   201561   201891   202171   202149   202142   202201 
  202113   202003   201866   201733   201750   201572   201343   201753 
  202171   201839   201440   201451   201675   201962   201976   201777 
  201845   202000   201912   201791   201853   201977   202000   201973 
  201835   201641   201667   201665   201568   201760   201914   201730 
  201717   202050   202165   201910   201816   201860   201591   201363 
  201474   201491   201451   201649   201841   201872   201907   201958 
  201947   201916   201852   201706   201555   201407   201322   201388 
  201571   201853   202022   201966   201868   201798   201696   201534 
  201515   201618   201565   201490   201506   201588   201756   201953 
  202180   202147   201873   201912   202143   202236   202088   201722 
  201661   201820   201749   201695   201708   201679   201796   202007 
  202009   201810   201847   202123   202117   201895   201798   201733 
  201626   201600   201640   201611   201514   201568   201864   202049 
  201950   202024   202308   202220   201802   201618   201799   201989 
  201873   201669   201617   201495   201411   201576   201602   201464 
  201501   201459   201321   201447   201717   201914   201958   201899 
  201924   202003   202066   202070   201915   201798   201807   201723 
  201626   201749   201954   201892   201592   201523   201847   202086 
  201874   201626   201741   201787   201642   201721   201830   201802 
  201961   202196   202111   201779   201617   201642   201552   201596 
  201872   201845   201550   201360   201383   201721   201989   201823 
  201702   201849   201799   201640   201731   201791   201741   201870 
  201923   201753   201630   201582   201752   201996   201808   201510 
  201552   201702   201733   201696   201766   201923   201961   201812 
  201646   201773   202049   202014   201739   201694   201910   201966 
  201835   201812   201771   201621   201694   201955   201962   201771 
  201748   201764   201711   201739   201773   201876   202024   201852 
  201579   201580   201626   201622   201622   201567   201587   201750 
  201901   201946   201911   201895   201789   201536   201568   201900 
  201958   201725   201579   201708   201997   201988   201568   201329 
  201564   201857   201910   201876   201860   201793   201733   201798 
  201908   201937   201856   201688   201602   201621   201634   201793 
  201928   201691   201449   201402   201361   201507   201795   201846 
  201615   201405   201469   201695   201852   201954   202032   201946 
  201712   201582   201555   201544   201690   201834   201879   202089 
  202354   202610   202965   203196   203278   203307   203204   202879 
  202238   201582   201301   201378   201434   201078   200763   200942 
  201052   200863   200840   201075   201251   201231   201364   201900 
  202240   201869   201310   201380   202113   202568   202140   201511 
  201370   201559   201776   201877   201845   201970   202463   203006 
  203239   203102   202806   202737   202869   202828   202350   201730 
  201822   202437   202348   201495   200917   201005   201218   201136 
  200728   200152   199813   199698   199602   199791   200114   200057 
  199754   199663   199952   200377   200655   201024   201717   202365 
  202771   202988   203030   203154   203378   203505   203403   202774 
  201915   201756   202379   202853   202757   202675   202864   202697 
  201808   200920   200735   200925   201101   201298   201229   200453 
  199021   197973   198718   200951   203022   204214   204597   204608 
  204901   205137   204826   204315   203778   203369   203013   201816 
  200083   199366   199956   201217   202421   203004   203373   203623 
  203507   203515   203114   201428   199376   197872   197193   197673 
  198358   198327   198671   199990   201631   203318   204313   204122 
  203706   203384   202806   202447   202343   201741   200799   200389 
  200434   200277   200132   200450   200680   200264   199739   199674 
  200198   201366   202643   203685   205194   207488   209649   210670 
  210523   209648   208188   206062   203265   200272   197426   194830 
  193387   193564   194502   195669   197243   198945   200206   201198 
  201974   201900   201236   200915   200751   199906   198779   198775 
  200034   201247   201861   202895   205094   207342   208074   207581 
  207096   206639   205938   205352   204704   203688   202500   201476 
  201397   202028   201626   200109   199003   198929   199918   201036 
  200826   199818   199253   199127   199424   200418   201627   201737 
  200006   197965   197808   199242   200493   201001   201154   201428 
  202224   203463   204670   205420   205810   206342   206847   206401 
  204834   203350   202959   203308   203492   203091   202289   201391 
  200970   201182   200882   199820   199250   199320   199389   199628 
  200156   200423   199920   198911   198556   199361   200234   200236 
  199384   198144   197653   198655   200286   201267   201418   201684 
  202891   204475   205244   205329   205621   205767   204986   203898 
  203404   203235   202934   202593   202317   202213   202336   202282 
  201866   201707   202096   202417   202027   201039   200576   201110 
  201237   200179   199099   199068   199993   201001   201507   201760 
  201683   201274   201565   202706   203512   203443   202861   202292 
  202042   202080   202144   201957   201942   202616   203050   202487 
  201776   201352   201008   201023   200971   200354   200132   200533 
  200620   200577   200853   200985   200777   200746   201071   201229 
  201233   201518   201827   201918   202018   202392   202873   202913 
  202790   203237   204017   204427   204241   203686   202938   202184 
  201731   201665   201897   202203   202306   202275   202196   201870 
  201440   201316   201316   201198   201208   201166   200661   200090 
  199890   199821   199820   200083   200608   201247   201646   201634 
  201428   201415   201877   202277   202003   201708   201999   202393 
  202628   202832   202918   202968   203265   203609   203476   203107 
  203031   203013   202647   201933   201391   201309   201290   201279 
  201299   201231   201177   200961   200766   201025   201164   200800 
  200479   200408   200392   200495   200904   201413   201619   201735 
  202212   202699   202817   202887   203010   203038   203104   203206 
  203087   202745   202475   202386   202419   202389   201973   201526 
  201590   201626   201048   200412   200507   201109   201379   201141 
  201016   201313   201653   201702   201468   201098   200796   200642 
  200626   200820   201113   201297   201468   201683   201900   202097 
  202204   202429   202859   203135   203091   202876   202846   203026 
  202971   202851   202923   202606   201749   201104   201133   201515 
  201638   201307   200966   201031   201351   201498   201253   200928 
  200907   200982   200747   200249   200091   200534   200794   200608 
  200728   201151   201509   201984   202451   202714   202944   203210 
  203350   203191   203061   203366   203608   203245   202873   202883 
  202628   202147   202054   202188   202212   201931   201390   201233 
  201533   201576   201410   201359   201109   200826   200915   200902 
  200476   200034   199889   200202   200857   201360   201503   201525 
  201791   202323   202614   202365   202024   202151   202640   202957 
  202896   202591   202239   202194   202508   202528   202124   201939 
  201908   201714   201727   201993   201970   201483   201050   201121 
  201232   201133   201334   201583   201490   201455   201652   201903 
  201996   201861   201707   201563   201482   201645   201861   201934 
  202127   202493   202452   201996   201880   202132   202300   202308 
  202246   202271   202286   202069   201864   201966   202273   202374 
  202038   201656   201587   201611   201506   201371   201214   200985 
  200831   200835   200936   201062   201019   200745   200622   200892 
  201218   201282   201244   201282   201264   201253   201478   201739 
  201838   201853   201816   201906   202128   202135   202066   202235 
  202328   202126   201972   202077   202116   201987   202144   202462 
  202439   202324   202431   202527   202443   202433   202598   202509 
  202134   201961   202108   202212   202031   201820   201667   201394 
  201366   201687   201776   201563   201441   201451   201442   201413 
  201407   201407   201352   201337   201530   201793   201880   201675 
  201366   201295   201332   201372   201598   201807   201852   201869 
  201895   201933   201904   201858   201914   201945   202112   202559 
  202664   202108   201588   201540   201640   201823   202070   202050 
  201879   201811   201723   201646   201695   201708   201700   201806 
  201919   201922   201738   201523   201517   201409   201228   201480 
  201869   201973   201858   201631   201583   201654   201534   201425 
  201506   201622   201596   201482   201588   201820   201903   202043 
  202230   202290   202344   202282   202113   202073   202178   202290 
  202135   201768   201561   201546   201590   201746   202024   202012 
  201495   201110   201262   201486   201583   201773   201854   201638 
  201425   201457   201657   201783   201749   201615   201353   201209 
  201483   201793   201857   201961   202057   201912   201683   201604 
  201679   201802   201999   202142   201953   201604   201502   201771 
  202189   202363   202259   202136   202038   202019   202123   202182 
  202134   202023   201972   202004   201953   201864   201787   201664 
  201717   201946   202111   202209   202158   202028   202113   202178 
  201912   201537   201376   201548   201745   201468   200952   200851 
  201128   201495   201845   201853   201528   201333   201436   201694 
  201892   201822   201586   201541   201679   201637   201409   201290 
