Origin Time       2019/03/09 01:08:00
Lat.              35.4
Long.             136.7
Depth. (km)       40
Mag.              4.5
Station Code      AICH18
Station Lat.      34.9635
Station Long.     137.2377
Station Height(m) 100
Record Time       2019/03/09 01:08:15
Sampling Freq(Hz) 100Hz
Duration Time(s)  120
Dir.              3
Scale Factor      3923(gal)/8224838
Max. Acc. (gal)   1.649
Last Correction   2019/03/09 01:08:00
Memo.             
[...]
   13755    13752    13752    13755    13753    13751    13755    13756 
   13752    13751    13752    13753    13753    13756    13755    13753 
   13756    13753    13751    13752    13753    13755    13755    13753 
   13755    13755    13753    13752    13753    13753    13756    13753 
   13751    13755    13756    13755    13757    13759    13756    13753 
   13753    13756    13753    13755    13756    13753    13755    13759 
   13757    13755    13756    13755    13752    13752    13753    13755 
   13752    13751    13751    13752    13756    13755    13756    13759 
   13757    13755    13756    13755    13752    13756    13756    13753 
   13756    13757    13757    13753    13751    13755    13757    13755 
   13753    13755    13755    13755    13755    13753    13753    13753 
   13753    13753    13753    13752    13753    13756    13759    13757 
   13755    13753    13755    13756    13755    13755    13755    13753 
   13752    13753    13755    13755    13753    13753    13755    13756 
   13752    13751    13753    13757    13753    13749    13752    13753 
   13755    13755    13752    13752    13753    13755    13755    13755 
   13753    13751    13749    13751    13755    13755    13752    13752 
   13753    13753    13753    13755    13755    13753    13756    13757 
   13755    13755    13757    13755    13752    13755    13756    13756 
   13755    13755    13756    13757    13755    13753    13756    13757 
   13757    13757    13756    13755    13759    13760    13756    13755 
   13756    13757    13757    13756    13757    13756    13756    13759 
   13757    13756    13757    13756    13756    13757    13756    13759 
   13763    13759    13752    13753    13756    13756    13760    13760 
   13756    13756    13756    13755    13757    13756    13755    13753 
   13755    13753    13752    13753    13753    13753    13755    13755 
   13752    13753    13755    13751    13752    13756    13759    13757 
   13756    13756    13756    13755    13753    13755    13756    13753 
   13753    13756    13756    13757    13756    13752    13753    13756 
   13756    13755    13753    13755    13756    13753    13753    13755 
   13755    13755    13755    13753    13753    13756    13756    13756 
   13755    13753    13755    13755    13753    13753    13753    13755 
   13753    13753    13756    13755    13752    13755    13755    13755 
   13757    13757    13755    13756    13757    13757    13757    13755 
   13753    13753    13752    13753    13755    13753    13755    13755 
   13755    13753    13752    13753    13755    13756    13753    13751 
   13752    13755    13757    13755    13753    13755    13757    13757 
   13756    13756    13759    13759    13756    13753    13752    13755 
   13756    13756    13753    13753    13755    13756    13753    13753 
   13756    13755    13755    13756    13756    13753    13755    13757 
   13756    13756    13757    13756    13759    13757    13752    13753 
   13756    13756    13753    13751    13752    13753    13751    13753 
   13757    13756    13753    13753    13751    13751    13752    13753 
   13757    13757    13753    13753    13753    13752    13753    13755 
   13753    13753    13756    13755    13756    13756    13753    13755 
   13755    13752    13753    13753    13752    13755    13756    13753 
   13756    13757    13753    13752    13753    13756    13756    13756 
   13756    13753    13753    13757    13755    13752    13753    13753 
   13755    13755    13755    13757    13757    13755    13752    13753 
   13752    13752    13752    13752    13756    13760    13757    13755 
   13755    13753    13755    13757    13757    13752    13753    13755 
   13752    13753    13753    13751    13755    13755    13752    13752 
   13753    13753    13752    13755    13757    13755    13752    13751 
   13753    13753    13751    13752    13756    13755    13753    13756 
   13756    13755    13755    13753    13753    13755    13756    13756 
   13756    13756    13755    13755    13756    13756    13755    13753 
   13755    13756    13753    13752    13752    13753    13755    13757 
   13760    13757    13753    13756    13756    13755    13759    13759 
   13756    13755    13752    13753    13755    13753    13755    13755 
   13753    13752    13755    13755    13755    13752    13751    13753 
   13756    13756    13756    13759    13759    13756    13755    13755 
   13755    13755    13753    13755    13755    13755    13755    13756 
   13756    13756    13759    13756    13752    13753    13755    13753 
   13753    13755    13751    13751    13755    13756    13753    13755 
   13756    13756    13755    13755    13757    13757    13755    13757 
   13757    13753    13753    13755    13757    13756    13756    13757 
   13757    13755    13752    13751    13752    13751    13748    13744 
   13738    13736    13736    13733    13732    13728    13720    13716 
   13714    13702    13684    13672    13653    13601    13508    13432 
   13455    13582    13740    13844    13895    13971    14095    14192 
   14197    14091    13909    13817    13876    13844    13662    13605 
   13752    13957    14102    14110    14104    14157    14034    13547 
   12753    12301    12810    13432    13525    13710    13595    13020 
   13451    14515    14489    13693    13416    14250    15051    14142 
   13207    14326    15257    14431    13927    14223    14068    13933 
   14114    13705    13012    13085    13414    13086    12951    13474 
   13460    13211    13610    13401    12600    13124    14233    14010 
   13174    13401    14747    15627    14762    13101    12731    13787 
   14250    13980    14350    14543    14099    13913    13768    13325 
   13035    13616    14270    13690    13144    13414    13286    12876 
   12880    13266    14095    14554    13910    13464    13911    14107 
   13693    13362    13437    13963    14686    14494    13790    14357 
   14948    13984    13059    13165    13477    13579    13950    14154 
   13251    12870    14038    14423    13618    13554    14127    14110 
   13483    13320    13945    14239    13468    12637    13446    14851 
   14207    13066    14011    14570    13336    13338    14345    13659 
   12883    13778    13988    12982    13095    13819    13532    13163 
   13486    13797    14310    14949    14351    13230    13540    14689 
   14584    13462    13501    14180    13848    13527    13830    13909 
   13612    13417    13490    13406    13797    14889    14219    12344 
   12908    14256    13522    13151    14400    14530    13055    12837 
   14231    14631    13887    13672    13738    13486    13610    14046 
   13675    12973    13674    14782    14166    13200    13478    13913 
   13832    13693    13855    13944    13468    13306    14343    15061 
   13784    12640    13379    13761    13512    13836    13123    12214 
   13633    14968    14257    13724    13873    13922    14123    13999 
   13567    13693    14206    14154    13505    13444    13983    13948 
   13564    13572    13705    13829    14034    14008    13954    13852 
   13346    13614    14301    13483    12954    13976    13973    13004 
   13181    13803    14017    14184    13817    13275    13694    14080 
   13510    13203    13648    14168    14408    14137    13648    13319 
   13392    14072    14374    13842    13709    14133    13911    13126 
   13196    13902    13860    13772    14265    14137    13587    13444 
   13308    13608    14427    14126    13215    13570    14071    13697 
   13459    13196    13217    14307    14524    13381    13394    14030 
   13444    13217    14069    14125    13689    14004    14030    13501 
   13435    13567    13618    13842    13960    13632    13277    13803 
   14629    14013    13043    13756    14566    14161    13608    13338 
   13617    13968    13805    14003    14170    13791    13531    13373 
   13486    13806    13778    13441    13134    13616    14467    14085 
   13262    13455    13883    14062    14015    13428    13420    14350 
   14391    13609    13441    13726    14098    14220    13788    13493 
   13759    13891    13500    13432    13918    13941    13481    13513 
   14094    14040    13327    13436    13848    13599    13693    13844 
   13277    13300    14165    14180    13485    13716    14305    13894 
   13386    13566    13824    13859    13752    13890    13999    13559 
   13504    13902    13720    13478    13756    13937    13861    13726 
   13571    13670    13821    13729    13675    13724    13907    14080 
   13832    13487    13358    13498    13998    14131    13883    14072 
   14031    13419    13328    13872    14258    14139    13792    13558 
   13564    13961    13919    13165    13351    14242    14038    13281 
   13424    13903    13196    12789    14358    14571    13077    13859 
   14712    13473    13510    14354    13792    13429    13907    13894 
   13431    13477    13743    13671    13876    14270    14046    13495 
   13351    13701    13832    13539    13653    14041    14023    13968 
   14053    13934    13657    13543    13869    14295    14123    13473 
   13267    13674    13725    13420    13513    13797    13902    13713 
   13348    13406    13759    13663    13414    13516    13690    14083 
   14434    13662    12833    13595    14296    13728    13551    14058 
   14118    13794    13861    14127    13585    13126    13884    14326 
   13987    13995    13598    12908    13663    14524    13767    13416 
   14073    13787    13261    13663    13878    13909    14372    14262 
   13410    13089    13423    13520    13833    14593    14157    13223 
   13728    14274    13764    13440    13807    14094    13846    13620 
   13624    13517    13362    13419    13608    13559    13587    13938 
   13813    13406    13691    14052    13930    13960    14011    13888 
   13757    13423    13460    13998    14143    14106    14202    13863 
   13375    13693    14332    14040    13383    13432    13389    12906 
   13082    13842    14022    13728    13767    13809    13664    13770 
   13786    13679    13965    14207    13941    13670    13740    13987 
   14197    14179    14003    13818    13578    13483    13641    13618 
   13354    13505    13819    13396    13061    13751    14485    14368 
   13837    13505    13252    13500    14305    14095    13344    13535 
   13702    13618    13944    14073    13771    13711    14388    14671 
   13722    13130    13366    13500    13621    13468    12945    13041 
   13699    14013    13905    13880    14227    14345    13884    13914 
   14281    13732    13173    13648    14133    13973    13845    14054 
   14013    13477    13178    13524    13927    13979    13558    13153 
   13743    14146    13155    12757    13732    14218    13922    13883 
   14180    14104    13657    13697    14083    14111    13915    13910 
   13923    13683    13679    13961    13969    13873    13801    13360 
   13147    13984    14542    13599    12729    13144    13549    13518 
   13991    14131    13514    13440    13861    13980    13593    13358 
   13836    13961    13774    13950    13501    13319    14278    14180 
   13267    13683    14558    14378    13478    13166    13844    14184 
   13705    13416    13483    13647    14137    14189    13429    13567 
   14409    13896    13022    13547    14235    13635    12955    13803 
   14705    13929    13011    13298    13917    14206    14142    13668 
   13420    13801    14038    14071    14094    13508    13108    13626 
   13851    13609    13610    13687    13838    14026    13984    13849 
   13896    13888    13359    13182    14010    14162    13313    13416 
   14048    13900    14025    14249    13379    13080    14027    13998 
   13416    13895    13888    13090    13455    14170    13899    13763 
   13960    13724    13636    14091    14058    13405    13690    14301 
   13568    13065    13860    14226    13734    13724    14304    14245 
   13678    13564    13670    13714    13676    13624    13707    13589 
   13389    13444    13578    13706    13790    13950    14080    13651 
   13269    13786    14152    13711    13356    13432    14061    14467 
   13726    13282    13667    13640    13562    14006    14292    14219 
   14135    13857    13362    13359    13778    13645    13431    14021 
   14401    13770    13016    13116    13838    14226    14153    13846 
   13301    13394    14133    14035    13528    13821    14206    13976 
   13694    13726    13572    13417    13859    14050    13594    13350 
   13459    13539    13494    13582    13601    13293    13493    14087 
   13995    13797    14119    14160    13786    13761    13911    13582 
   13474    14130    14199    13462    13311    13710    14081    14257 
   14200    14197    13954    13558    13541    13628    14172    14810 
   14077    13131    13215    13394    13702    14150    14018    13832 
   13760    13182    12870    13464    13841    13701    13859    13725 
   12808    12681    13745    13991    13319    13525    14164    13952 
   13663    13963    14165    14116    14183    14476    14729    14399 
   13770    13486    13275    12885    12926    13527    13765    13524 
   13400    13566    14135    14732    14696    14316    14242    14261 
   13971    13737    13857    14237    14733    14746    14088    13755 
   13825    13221    12406    12522    13371    14162    13888    12691 
   12124    12339    12968    14116    14218    12974    13012    14148 
   14197    14338    15529    16143    16467    17212    16565    14866 
   14399    13954    12055    10825    11392    12120    12726    13929 
   14816    14621    13819    13051    12733    12279    11632    11912 
   12278    11774    12420    14481    14659    12887    12660    13652 
   13559    13402    13980    14532    15093    15350    15090    14802 
   14450    13891    13192    12603    12253    12016    12152    12553 
   13251    14948    16653    16937    16348    15361    14206    13826 
   14030    13460    12151    12023    13490    14577    14607    14339 
   14061    13981    14310    14710    13994    12283    11612    11888 
   12263    13867    15780    15854    14987    14520    14569    15191 
   15161    13702    12351    11641    11082    11584    13166    14499 
   15097    14382    12719    12339    13373    14050    13829    12976 
   12530    13302    13930    13853    15014    16271    14642    12985 
   14142    14817    13795    13608    14176    13933    13316    13539 
   13968    13491    12891    12704    12779    13744    14976    14617 
   13558    14135    14962    14277    13757    14141    14505    14451 
   13891    13031    12113    11994    13478    14901    14396    13500 
   13251    12313    11955    13672    15136    14663    13914    14523 
   15454    14719    12854    12599    13834    13921    13379    13572 
   13352    12529    12402    13555    15153    15491    14501    13487 
   12954    13128    13671    13682    13671    14459    15172    14766 
   13988    14300    15102    14654    13383    12451    11801    12108 
   13501    13844    12826    12787    13640    13288    12471    12795 
   13109    12881    13123    13543    13903    14304    14254    13963 
   13844    14112    14442    14096    13772    13721    13473    14010 
   14991    15064    14975    15130    14636    14119    14476    14629 
   13914    13359    13934    15180    15201    13560    12556    13520 
   14720    14157    12572    12113    13104    14212    14580    14445 
   14137    13093    12039    12687    13760    13903    14049    13691 
   12314    11727    12681    13763    14407    14878    14623    13809 
   13130    12717    13088    13880    14314    14500    13991    13454 
   14048    14227    13235    12981    14053    14835    14476    14056 
   13867    13154    12754    13278    13737    14084    14245    13308 
   12550    13342    13824    13155    13315    14231    14135    13791 
   14315    14451    13855    13656    13629    13420    13610    14098 
   14214    14068    13910    13427    13467    14891    15763    14740 
   13927    14330    14102    13459    13752    13803    13547    13860 
   13780    13549    13815    13593    12793    12614    13215    13473 
   13510    14023    14266    13872    13248    12765    12982    13895 
   14602    14146    13085    12976    13463    13678    14276    14652 
   13894    13630    14256    13971    13216    13315    13551    13363 
   13679    14685    14848    13733    13031    13370    13941    14307 
   14076    13487    13529    13968    14080    14042    13743    13479 
   13845    14031    13824    13554    13167    13456    13925    13589 
   13490    13682    13232    13047    13630    13749    13606    14183 
   14251    13289    12912    13410    14029    14389    14099    13608 
   13610    13859    13967    13926    13918    14056    14041    13841 
   13892    13699    13198    13556    14134    13972    13914    14075 
   13927    13825    14283    14835    14635    13930    13346    13154 
   13250    13402    13896    14324    13879    13140    12969    13165 
   13209    13213    13568    13911    13660    13385    13701    13861 
   13448    13254    13617    14068    14361    14246    13564    13188 
   13711    14166    14075    14179    14347    14122    14033    14099 
   13914    13926    14029    13541    13128    13286    13311    13431 
   14040    14197    13738    13645    13761    13404    13216    13622 
   13806    13632    13518    13408    13412    13386    13136    13522 
   14403    14254    13555    13603    13948    14011    14056    14373 
   14555    14210    13880    13946    14181    14418    14535    14254 
   13830    13857    13909    13722    13803    13795    13437    13381 
   13648    13643    13356    13265    13317    13011    12718    13127 
   13675    13709    13732    13938    13780    13501    13514    13468 
   13416    13668    14004    14017    13710    13693    13972    13973 
   13964    13998    13473    13131    13815    14403    14350    14459 
   14381    13761    13578    14107    14455    14150    13733    13819 
   14075    14029    14011    14199    14071    13541    13327    13397 
   13300    13421    13500    13239    13463    13644    13163    13182 
   13586    13444    13408    13830    13906    13722    14048    14262 
   13821    13620    13797    13852    13825    13832    13890    13728 
   13684    14071    13942    13527    13603    13427    13163    13313 
   13301    13486    13797    13414    13200    13802    14230    14214 
   14391    14540    14238    14031    14231    14226    13921    13880 
   13797    13462    13853    14534    14033    13340    13624    13660 
   13041    13041    13687    13836    13458    13452    13678    13436 
   13421    14150    14418    13914    13599    13365    13132    13605 
   14192    13972    13583    13625    13849    14017    13817    13537 
   13794    13875    13444    13497    13849    13778    13598    13599 
   13694    13906    14385    14659    13871    12930    13288    14014 
   13840    13463    13694    14100    14125    13811    13545    13652 
   13906    13952    13917    13818    13595    13621    13860    13702 
   13505    13860    14129    14033    13887    13639    13579    13991 
   14369    14107    13587    13504    13490    13242    13297    13648 
