Origin Time       2019/01/26 17:23:00
Lat.              40.280
Long.             142.327
Depth. (km)       38
Mag.              5.6
Station Code      AKTH17
Station Lat.      39.5575
Station Long.     140.6116
Station Height(m) -82
Record Time       2019/01/26 17:23:28
Sampling Freq(Hz) 100Hz
Duration Time(s)  120
Dir.              3
Scale Factor      3923(gal)/8224838
Max. Acc. (gal)   0.913
Last Correction   2019/01/26 17:23:13
Memo.             
[...]
   30781    30919    31098    31194    31163    31104    31095    31118 
   31122    31052    30867    30670    30622    30704    30816    30940 
   31077    31205    31336    31480    31584    31529    31301    31039 
   30820    30630    30505    30493    30574    30731    30885    30910 
   30797    30713    30801    31032    31283    31419    31365    31198 
   31047    30952    30928    30996    31133    31256    31320    31365 
   31388    31307    31109    30882    30743    30762    30888    31016 
   31135    31278    31390    31413    31398    31401    31365    31249 
   31066    30838    30636    30547    30582    30716    30929    31176 
   31351    31363    31280    31221    31176    31085    30964    30888 
   30846    30774    30705    30720    30817    30973    31162    31306 
   31359    31345    31302    31222    31066    30846    30703    30739 
   30879    30983    31010    30994    30981    31025    31139    31243 
   31241    31125    30981    30910    30923    30989    31133    31351 
   31531    31600    31548    31386    31131    30793    30408    30087 
   29964    30076    30335    30628    30886    31010    30974    30935 
   31071    31378    31707    31880    31791    31499    31172    30888 
   30638    30458    30427    30543    30708    30820    30844    30797 
   30727    30709    30785    30898    31001    31129    31293    31434 
   31467    31353    31155    30987    30921    30936    30977    31008 
   31016    30997    30962    30928    30915    30929    30960    31001 
   31067    31148    31201    31183    31060    30863    30734    30801 
   31024    31213    31252    31210    31152    31043    30886    30801 
   30861    31032    31260    31482    31571    31482    31321    31168 
   31037    30982    31001    31008    30987    31005    31047    31032 
   30939    30846    30820    30858    30951    31094    31187    31147 
   31083    31133    31241    31293    31310    31351    31348    31232 
   31097    31043    31014    30979    31039    31234    31456    31584 
   31591    31473    31194    30800    30496    30447    30599    30780 
   30910    31021    31118    31162    31132    31075    31051    31066 
   31121    31210    31248    31189    31102    31012    30858    30639 
   30429    30310    30302    30369    30481    30630    30785    30898 
   30933    30889    30825    30819    30916    31120    31382    31622 
   31762    31772    31684    31502    31193    30824    30523    30330 
   30240    30296    30481    30672    30755    30738    30716    30773 
   30920    31114    31276    31356    31382    31405    31445    31491 
   31515    31482    31395    31268    31075    30832    30611    30484 
   30528    30742    30982    31085    31013    30888    30811    30782 
   30824    30963    31126    31229    31261    31241    31216    31206 
   31180    31155    31185    31257    31337    31430    31533    31577 
   31494    31326    31189    31105    30998    30807    30555    30350 
   30253    30254    30353    30553    30847    31206    31526    31684 
   31679    31584    31440    31256    31041    30829    30670    30585 
   30565    30615    30715    30825    30939    31063    31144    31131 
   31091    31108    31167    31259    31365    31387    31287    31160 
   31074    31004    30885    30689    30500    30418    30434    30462 
   30447    30462    30604    30804    30946    31036    31116    31197 
   31280    31313    31251    31166    31131    31097    31004    30905 
   30904    30969    31020    31072    31180    31309    31369    31333 
   31229    31045    30785    30554    30514    30712    31001    31186 
   31241    31259    31314    31388    31405    31390    31394    31359 
   31256    31153    31101    31067    30973    30811    30659    30565 
   30532    30585    30742    30939    31081    31186    31333    31498 
   31631    31735    31747    31577    31290    31051    30894    30757 
   30658    30646    30681    30746    30901    31168    31468    31734 
   31954    32038    31881    31533    31180    30990    30996    31086 
   31143    31128    31056    30956    30870    30842    30877    30905 
   30865    30782    30739    30788    30889    30932    30894    30825 
   30747    30726    30856    31072    31207    31183    31027    30862 
   30861    31041    31221    31260    31243    31279    31342    31347 
   31270    31149    31009    30862    30738    30632    30558    30546 
   30572    30632    30766    30932    31059    31132    31135    31047 
   30935    30854    30726    30578    30586    30755    30920    30970 
   30904    30816    30821    30927    31036    31068    31009    30888 
   30757    30708    30792    30964    31158    31321    31402    31375 
   31272    31141    30996    30863    30796    30848    30990    31110 
   31140    31102    31045    31008    30981    30943    30924    30946 
   30975    31010    31120    31301    31411    31391    31341    31342 
   31410    31553    31710    31754    31657    31507    31402    31357 
   31322    31252    31139    31023    30955    30960    31012    31059 
   31090    31133    31158    31104    31012    30960    30948    30929 
   30896    30866    30859    30900    30975    31013    30947    30805 
   30662    30569    30577    30712    30920    31101    31187    31207 
   31236    31237    31125    30936    30750    30541    30318    30190 
   30176    30183    30198    30330    30655    31060    31348    31436 
   31401    31375    31361    31245    31020    30816    30705    30663 
   30672    30746    30846    30878    30854    30866    30942    31048 
   31168    31276    31341    31359    31321    31206    31056    30960 
   30959    31012    31028    30975    30906    30823    30715    30650 
   30636    30636    30689    30819    30950    31048    31144    31221 
   31239    31237    31239    31197    31140    31133    31170    31182 
   31112    30977    30838    30694    30549    30476    30555    30797 
   31128    31425    31612    31699    31741    31781    31801    31727 
   31517    31230    30993    30846    30723    30596    30503    30460 
   30500    30717    31122    31530    31757    31803    31750    31646 
   31499    31293    31055    30867    30751    30651    30546    30483 
   30528    30684    30875    31052    31212    31349    31463    31521 
   31450    31245    30994    30774    30630    30581    30609    30680 
   30769    30901    31126    31390    31548    31491    31241    30971 
   30825    30761    30690    30672    30747    30815    30777    30689 
   30657    30751    31020    31446    31893    32173    32200    32019 
   31737    31464    31236    31021    30852    30800    30843    30885 
   30892    30931    31027    31129    31202    31272    31348    31382 
   31367    31367    31347    31199    30963    30758    30623    30565 
   30619    30771    30908    30900    30765    30653    30650    30696 
   30711    30707    30757    30874    30983    30963    30801    30649 
   30631    30740    30905    31032    31071    31067    31068    31062 
   31025    30964    30910    30902    30916    30863    30713    30523 
   30383    30385    30547    30796    31094    31421    31661    31764 
   31783    31738    31646    31531    31342    31081    30850    30732 
   30734    30785    30785    30746    30759    30847    30969    31116 
   31307    31514    31656    31684    31614    31479    31309    31125 
   30978    30928    30948    30950    30910    30873    30812    30665 
   30483    30384    30395    30473    30591    30709    30825    30994 
   31210    31365    31403    31395    31379    31276    31101    30991 
   30967    30933    30873    30870    30950    31014    31033    31116 
   31276    31345    31234    31047    30900    30840    30862    30885 
   30854    30821    30824    30816    30815    30877    30958    30996 
   31001    31008    31040    31081    31120    31174    31206    31190 
   31171    31180    31191    31167    31085    30944    30784    30669 
   30632    30650    30709    30800    30885    30973    31105    31274 
   31387    31367    31284    31264    31297    31299    31237    31139 
   31048    30954    30821    30678    30589    30596    30681    30761 
   30793    30820    30877    30951    30997    30989    30993    31078 
   31207    31282    31249    31122    30963    30839    30793    30809 
   30828    30827    30825    30862    30966    31148    31363    31496 
   31453    31295    31145    31021    30940    31010    31257    31548 
   31726    31704    31513    31302    31183    31113    31009    30888 
   30815    30780    30770    30877    31086    31226    31256    31301 
   31396    31423    31286    31056    30875    30773    30720    30731 
   30812    30927    31017    31048    31070    31105    31110    31098 
   31098    31087    31058    31010    30923    30808    30750    30809 
   30944    31066    31172    31287    31322    31180    30948    30773 
   30666    30603    30609    30688    30824    30994    31131    31207 
   31284    31378    31410    31334    31216    31136    31094    31064 
   31035    31000    31024    31168    31388    31575    31657    31627 
   31506    31320    31101    30879    30715    30690    30812    30991 
   31114    31098    30981    30889    30875    30923    31012    31091 
   31106    31047    30925    30775    30650    30572    30553    30622 
   30788    31009    31232    31449    31665    31839    31950    31985 
   31869    31579    31212    30854    30539    30281    30095    30003 
   29999    30061    30206    30407    30586    30744    30932    31137 
   31309    31411    31438    31406    31332    31210    31059    30950 
   30915    30937    31017    31099    31089    30971    30808    30643 
   30535    30539    30607    30635    30636    30689    30813    30955 
   31066    31145    31230    31322    31374    31329    31193    31047 
   30944    30850    30742    30662    30622    30601    30601    30638 
   30716    30825    30946    31023    31033    31055    31133    31230 
   31342    31463    31536    31567    31606    31615    31506    31272 
   31012    30820    30721    30719    30792    30866    30894    30890 
   30869    30819    30751    30715    30730    30758    30753    30755 
   30800    30851    30924    31093    31361    31646    31822    31804 
   31607    31306    30989    30731    30595    30568    30600    30704 
   30855    30947    30933    30871    30870    31006    31221    31367 
   31371    31271    31125    30948    30767    30661    30686    30821 
   30979    31064    31091    31172    31328    31495    31626    31654 
   31525    31294    31033    30766    30526    30387    30391    30508 
   30699    30929    31149    31329    31475    31563    31564    31509 
   31438    31325    31109    30832    30574    30389    30354    30504 
   30747    30971    31143    31279    31379    31394    31287    31098 
   30905    30797    30813    30905    31012    31118    31206    31260 
   31287    31255    31116    30974    30998    31194    31461    31712 
   31855    31839    31672    31410    31152    30991    30970    31050 
   31101    31041    30913    30771    30627    30489    30406    30480 
   30771    31190    31592    31897    32035    31932    31612    31222 
   30923    30728    30569    30446    30397    30419    30546    30836 
   31222    31544    31715    31757    31710    31595    31437    31268 
   31089    30885    30662    30451    30298    30254    30287    30312 
   30354    30492    30736    31031    31274    31356    31224    30956 
   30751    30708    30775    30921    31137    31329    31417    31460 
   31558    31699    31795    31785    31658    31411    31055    30647 
   30273    30005    29880    29882    29929    30005    30175    30449 
   30781    31185    31637    32008    32211    32265    32194    32017 
   31765    31419    30969    30507    30177    30082    30258    30609 
   30969    31271    31540    31698    31656    31533    31500    31550 
   31585    31538    31401    31210    31008    30846    30770    30796 
   30877    30912    30886    30890    30944    30935    30801    30626 
   30496    30415    30370    30370    30399    30458    30569    30692 
   30782    30870    30956    30964    30873    30743    30642    30593 
   30593    30632    30735    30931    31205    31499    31712    31758 
   31650    31491    31360    31206    30893    30439    30053    29874 
   29933    30253    30770    31307    31716    31918    31864    31603 
   31314    31199    31266    31356    31388    31336    31133    30827 
   30589    30524    30649    30982    31511    32082    32459    32556 
   32479    32329    32115    31788    31342    30897    30609    30528 
   30627    30877    31194    31448    31584    31634    31638    31571 
   31340    30943    30573    30407    30415    30500    30616    30724 
   30780    30759    30685    30654    30736    30869    30921    30850 
   30728    30624    30468    30267    30231    30447    30744    30981 
   31174    31383    31610    31787    31830    31693    31392    30983 
   30535    30133    29887    29818    29791    29709    29623    29598 
   29654    29782    29963    30148    30300    30434    30573    30712 
   30861    31043    31282    31558    31745    31754    31691    31653 
   31611    31572    31635    31861    32193    32493    32663    32732 
   32751    32598    32074    31237    30412    29802    29397    29170 
   29139    29276    29535    29941    30497    31095    31615    32049 
   32436    32764    32941    32900    32632    32127    31428    30724 
   30248    30114    30245    30442    30577    30649    30715    30862 
   31143    31488    31768    31908    31901    31833    31776    31648 
   31355    31004    30780    30720    30765    30893    31108    31368 
   31581    31635    31500    31286    31098    30932    30713    30423 
   30146    29987    29965    30017    30065    30098    30192    30460 
   30882    31302    31581    31687    31657    31522    31288    30991 
   30665    30402    30325    30396    30480    30601    30859    31217 
   31554    31807    31972    32022    31869    31527    31131    30763 
   30466    30357    30489    30716    30832    30786    30663    30623 
   30792    31113    31418    31611    31689    31665    31540    31368 
   31259    31248    31267    31232    31106    30879    30585    30281 
   30009    29829    29814    29945    30149    30391    30673    30997 
   31338    31683    31985    32167    32250    32293    32211    31880 
   31356    30865    30613    30647    30889    31202    31399    31363 
   31180    30997    30859    30771    30740    30744    30778    30879 
   31018    31117    31152    31148    31122    31105    31117    31132 
   31132    31105    30986    30794    30726    30932    31334    31722 
   31930    31922    31727    31390    30994    30635    30375    30223 
   30148    30136    30186    30245    30310    30435    30581    30667 
   30731    30858    31001    31093    31174    31256    31271    31249 
   31283    31356    31419    31503    31648    31800    31853    31756 
   31549    31347    31247    31232    31260    31367    31519    31592 
   31579    31550    31483    31307    31028    30738    30500    30294 
   30082    29826    29539    29358    29380    29508    29650    29837 
   30087    30372    30682    30989    31229    31367    31440    31517 
   31626    31754    31869    31900    31806    31626    31390    31106 
   30859    30736    30738    30869    31114    31349    31461    31438 
   31311    31144    30978    30813    30689    30673    30763    30844 
   30817    30746    30748    30865    31050    31222    31315    31293 
   31156    30990    30890    30850    30780    30649    30508    30437 
   30474    30595    30748    30923    31086    31158    31121    31035 
   30909    30753    30613    30523    30483    30500    30601    30816 
   31121    31410    31577    31626    31656    31733    31811    31833 
   31807    31779    31772    31785    31758    31604    31324    31064 
   30960    30998    31083    31148    31175    31187    31209    31220 
   31220    31247    31299    31345    31382    31405    31351    31180 
   30964    30839    30881    31039    31197    31301    31395    31477 
   31480    31409    31321    31229    31141    31090    31060    31021 
   30989    30962    30890    30735    30550    30446    30495    30665 
   30851    30973    31016    30985    30881    30780    30813    31000 
   31217    31398    31530    31572    31496    31342    31198    31171 
   31264    31363    31392    31352    31236    31050    30824    30608 
   30454    30377    30338    30288    30235    30213    30204    30175 
   30140    30137    30160    30175    30215    30358    30604    30910 
   31259    31590    31797    31885    31927    31919    31827    31696 
   31594    31514    31403    31233    31051    30894    30717    30532 
   30449    30487    30553    30576    30558    30539    30534    30497 
   30412    30357    30400    30549    30780    31040    31251    31367 
   31413    31445    31472    31468    31448    31442    31442    31433 
   31429    31433    31395    31284    31126    30946    30796    30750 
   30771    30777    30775    30811    30870    30958    31095    31240 
   31311    31299    31214    31051    30873    30771    30771    30892 
   31114    31353    31540    31645    31645    31563    31477    31446 
   31453    31446    31409    31318    31116    30792    30423    30127 
   30005    30079    30327    30685    31068    31383    31550    31604 
   31625    31575    31417    31218    31036    30893    30820    30825 
   30889    30994    31099    31141    31110    31077    31067    31012 
   30867    30659    30456    30323    30284    30323    30427    30580 
   30758    30905    30978    30970    30905    30851    30848    30855 
   30835    30786    30731    30719    30770    30851    30929    31006 
   31081    31131    31141    31101    31002    30862    30739    30658 
   30597    30584    30640    30738    30824    30858    30823    30767 
   30750    30742    30678    30597    30604    30723    30913    31085 
   31128    31071    31081    31225    31401    31464    31382    31226 
   31085    31006    30997    31025    31075    31144    31267    31498 
   31784    31988    32049    32007    31908    31793    31702    31610 
   31442    31180    30908    30700    30595    30595    30667    30767 
   30859    30910    30942    30987    31036    31113    31279    31484 
   31612    31656    31662    31637    31568    31469    31387    31364 
   31409    31477    31540    31573    31548    31448    31321    31253 
   31272    31313    31310    31267    31172    31018    30889    30875 
   30952    31056    31201    31387    31550    31660    31726    31734 
   31671    31536    31329    31106    30944    30862    30829    30813 
   30807    30843    30919    30977    30998    31025    31060    31055 
   30986    30863    30681    30470    30308    30240    30244    30299 
   30387    30445    30441    30427    30466    30531    30530    30423 
   30281    30177    30145    30221    30369    30500    30634    30812 
   30977    31048    31005    30879    30792    30844    30986    31090 
   31101    31029    30900    30730    30576    30481    30462    30565 
   30766    30932    31006    31040    31078    31136    31224    31334 
