Origin Time       2019/01/26 17:23:00
Lat.              40.280
Long.             142.327
Depth. (km)       38
Mag.              5.6
Station Code      AOMH05
Station Lat.      40.8564
Station Long.     141.1033
Station Height(m) -267
Record Time       2019/01/26 17:23:21
Sampling Freq(Hz) 100Hz
Duration Time(s)  120
Dir.              3
Scale Factor      2940(gal)/6170270
Max. Acc. (gal)   4.821
Last Correction   2019/01/26 17:23:06
Memo.             
[...]
  -89195   -90796   -92737   -93270   -91947   -89480   -86946   -86552 
  -87557   -86432   -84494   -85051   -86025   -85704   -87333   -91607 
  -94384   -94229   -94036   -94588   -93694   -91323   -90005   -90989 
  -92111   -91384   -91163   -92850   -93797   -93318   -92771   -92156 
  -91076   -89159   -86634   -84977   -84989   -85891   -87145   -88365 
  -88342   -88005   -89879   -92137   -90831   -87541   -86363   -87137 
  -88201   -89608   -91060   -91511   -90179   -88107   -87980   -89885 
  -91434   -91892   -91923   -91674   -91416   -92016   -92371   -90290 
  -87472   -86705   -87320   -88086   -89087   -90669   -92330   -92813 
  -91603   -89057   -87404   -88995   -91100   -90022   -88124   -88744 
  -90042   -89364   -88001   -87981   -88699   -89432   -90346   -90561 
  -90404   -91406   -91781   -90191   -89630   -90690   -90995   -91474 
  -93468   -94662   -93137   -90651   -89543   -89692   -89862   -89442 
  -88674   -87950   -87665   -88668   -90170   -89894   -88309   -87579 
  -87606   -87580   -87995   -88968   -89144   -87920   -87432   -89265 
  -91239   -91155   -90394   -90931   -91686   -90860   -90009   -91160 
  -92224   -90970   -89491   -90007   -91167   -91417   -91591   -91954 
  -91090   -89414   -88974   -89456   -88473   -86068   -85522   -87793 
  -89477   -88621   -87639   -88539   -89763   -90027   -90092   -89984 
  -89568   -89665   -90558   -91489   -91556   -91202   -91638   -92440 
  -92002   -90458   -90079   -91093   -91366   -91262   -91367   -89593 
  -86209   -84435   -85558   -88130   -90119   -90569   -90031   -88954 
  -87008   -85353   -85689   -86795   -87029   -87541   -88999   -89750 
  -89607   -89950   -90169   -89648   -89709   -90408   -90845   -91279 
  -91619   -91597   -91247   -90005   -88854   -89727   -91511   -92015 
  -91184   -89789   -89098   -90160   -91114   -89637   -87098   -86160 
  -86759   -87150   -87476   -89188   -91501   -92194   -91136   -90529 
  -91678   -93010   -92617   -91131   -90290   -89820   -88582   -88101 
  -90174   -92937   -93941   -93436   -92533   -91462   -90029   -88258 
  -86822   -87036   -88666   -89466   -88813   -88554   -90036   -92030 
  -92155   -90893   -90602   -90851   -90004   -88744   -88218   -88392 
  -89290   -90380   -90259   -89195   -89366   -91192   -91837   -89930 
  -88398   -88783   -88706   -87414   -86934   -87710   -88613   -89439 
  -89819   -89162   -88623   -89379   -90725   -91715   -91962   -91234 
  -90222   -89985   -90101   -89787   -89696   -90229   -90804   -90914 
  -90042   -88763   -88427   -88921   -89209   -89155   -89607   -90058 
  -88858   -87011   -87099   -88754   -89447   -89148   -89617   -89992 
  -89198   -88944   -89863   -90804   -91259   -91179   -91332   -92044 
  -91898   -90700   -90111   -90835   -91867   -92018   -91704   -91465 
  -90140   -87955   -87085   -87576   -88166   -89021   -89852   -89714 
  -88865   -87989   -87803   -88479   -89214   -89879   -90609   -91205 
  -91580   -90994   -89881   -90483   -92248   -92387   -91042   -89996 
  -89625   -89603   -89544   -89459   -89535   -89442   -89404   -89881 
  -89672   -87933   -86814   -87898   -89539   -90395   -90825   -90818 
  -90075   -88947   -87927   -87657   -88677   -90006   -90566   -90605 
  -90128   -89586   -89680   -89557   -89195   -89505   -89649   -89103 
  -88938   -89794   -90937   -91012   -90380   -90299   -90334   -89924 
  -89283   -88833   -88960   -89112   -89199   -89709   -90106   -90112 
  -89754   -88969   -88729   -89150   -88823   -88023   -88029   -88405 
  -88739   -89434   -89986   -90173   -90504   -90620   -90344   -89995 
  -89312   -88797   -89146   -89730   -90291   -90797   -90920   -91183 
  -91610   -91690   -91713   -91834   -91760   -91284   -90758   -90337 
  -89486   -88866   -89548   -90812   -91600   -92082   -92140   -91100 
  -90009   -89855   -89733   -89545   -89274   -88211   -87381   -87807 
  -88788   -89745   -90525   -90927   -91165   -91247   -90580   -89519 
  -89409   -90328   -91027   -91012   -90801   -90877   -91315   -91532 
  -90839   -89167   -87016   -85848   -86713   -88208   -88736   -88827 
  -89189   -89370   -89039   -88520   -87948   -87588   -88272   -89329 
  -89191   -88339   -88062   -88768   -89902   -90304   -90476   -91340 
  -91367   -90079   -89652   -90208   -90188   -90049   -90690   -91590 
  -91857   -91319   -90543   -89879   -89366   -89114   -89024   -88579 
  -87257   -85860   -86021   -87585   -88898   -89473   -90090   -90873 
  -91089   -90770   -90790   -90897   -90084   -88643   -87625   -87964 
  -89807   -91378   -91316   -90899   -91173   -91227   -90445   -89465 
  -88852   -88524   -88399   -88585   -89018   -89425   -89290   -88588 
  -88353   -88729   -88902   -89387   -90366   -90802   -90817   -90573 
  -89747   -89297   -89727   -90445   -91420   -92133   -91755   -90711 
  -89759   -89564   -90063   -90236   -90461   -91324   -91328   -90020 
  -89309   -89941   -90724   -90926   -91045   -91585   -91964   -91564 
  -90810   -89956   -88979   -88340   -88260   -88802   -89890   -90735 
  -90975   -91167   -91348   -90845   -89804   -89229   -88906   -87706 
  -86277   -86400   -87798   -88764   -88939   -88903   -88918   -89104 
  -89581   -90351   -90865   -90843   -90907   -90830   -89929   -89091 
  -89308   -90002   -90445   -90797   -91152   -91031   -90462   -90040 
  -89588   -88925   -88579   -88466   -88429   -88721   -88786   -88393 
  -88577   -89686   -90714   -90895   -90580   -90308   -90124   -89947 
  -89466   -88703   -88446   -88966   -89875   -90642   -90573   -89923 
  -90092   -91338   -91847   -90672   -89328   -89069   -89299   -88914 
  -88103   -88192   -88993   -89258   -89249   -89684   -90067   -89736 
  -89611   -90456   -90471   -89037   -88737   -90087   -90706   -90325 
  -90807   -92082   -92057   -90293   -88778   -88407   -88275   -88217 
  -88243   -88251   -88941   -89692   -89534   -89542   -89962   -90067 
  -90236   -90182   -89463   -88847   -88472   -88350   -89506   -91405 
  -92135   -91881   -91797   -91377   -90446   -90379   -91231   -91340 
  -90296   -89184   -88747   -88522   -87999   -88007   -88741   -89093 
  -89094   -89246   -89186   -89088   -89560   -90263   -90660   -90619 
  -89921   -89058   -89118   -90292   -91577   -91703   -90958   -90500 
  -90011   -89489   -89948   -90504   -89949   -89182   -89235   -90015 
  -90582   -90544   -90562   -90124   -88999   -88650   -88974   -88955 
  -89086   -89982   -91112   -91259   -90352   -89512   -89198   -89482 
  -90252   -91019   -91414   -90821   -89270   -88140   -88383   -89082 
  -88961   -89173   -90664   -91396   -91053   -91139   -91010   -90471 
  -90173   -89741   -89397   -89109   -88594   -88748   -89342   -89628 
  -89969   -89903   -89337   -89228   -89293   -89379   -89778   -89805 
  -89782   -90099   -89593   -88547   -88218   -88564   -89180   -89548 
  -89616   -89626   -89112   -88695   -89376   -90062   -89776   -89292 
  -89280   -89666   -90275   -90531   -89968   -89721   -90435   -90279 
  -88968   -88606   -88808   -88072   -87911   -89526   -91041   -91132 
  -90505   -89978   -89769   -89463   -88881   -88889   -89994   -91358 
  -91950   -91463   -90180   -88956   -88670   -89159   -89671   -89806 
  -89757   -90172   -91018   -91607   -91456   -90078   -88553   -88921 
  -90018   -89788   -89123   -88914   -88859   -88909   -89316   -90560 
  -91590   -90839   -89597   -89524   -90150   -90871   -91128   -90527 
  -89975   -89901   -89751   -89553   -89294   -89229   -89900   -90598 
  -90925   -91005   -90185   -89125   -88974   -89185   -89318   -89431 
  -89368   -89299   -89265   -89063   -88867   -89178   -89881   -90016 
  -89488   -89272   -89405   -89118   -88887   -89708   -90905   -91726 
  -92285   -91660   -89584   -87915   -87626   -87848   -88366   -89695 
  -90993   -91125   -90380   -89452   -88850   -88809   -89226   -89801 
  -89755   -89300   -89444   -89588   -89276   -89350   -89893   -90677 
  -91402   -91240   -90570   -90236   -89577   -88601   -88555   -89020 
  -88867   -88596   -88816   -88925   -88644   -88845   -89739   -90644 
  -91311   -91167   -90279   -90049   -90109   -89210   -88764   -90235 
  -91775   -91392   -90116   -89469   -89193   -88624   -88384   -89462 
  -90817   -90717   -89693   -89008   -88672   -88717   -89423   -89810 
  -89117   -88585   -88914   -89629   -90710   -91402   -91184   -91145 
  -91324   -90511   -89288   -89439   -90564   -91141   -91280   -91073 
  -90361   -90114   -90567   -90773   -90366   -89851   -89774   -89946 
  -89719   -88756   -87655   -87608   -88448   -88821   -88712   -88713 
  -88294   -87683   -88163   -89684   -91040   -91225   -90382   -89870 
  -90328   -90900   -90729   -90540   -91418   -92255   -91881   -91090 
  -90286   -89699   -89803   -89661   -89316   -89780   -89880   -89039 
  -88180   -87429   -87738   -89291   -89907   -89461   -89739   -90281 
  -89801   -88921   -88718   -89215   -89742   -89484   -88959   -89384 
  -89977   -89832   -89940   -90682   -91320   -91460   -91386   -91912 
  -92715   -92560   -91809   -90958   -89322   -87416   -86570   -87022 
  -88026   -88690   -88961   -88979   -88770   -88999   -89421   -89375 
  -89598   -89874   -89268   -88823   -89473   -90413   -90830   -90743 
  -90503   -90411   -90724   -91007   -90384   -89584   -89885   -90304 
  -89725   -88843   -88457   -88986   -89769   -89656   -89347   -89977 
  -91198   -91696   -90651   -89226   -88496   -87735   -87188   -87634 
  -88013   -87961   -88738   -90101   -90743   -90741   -90826   -91105 
  -91468   -92156   -92969   -92697   -91269   -90097   -89619   -89794 
  -90325   -89890   -88600   -88040   -88334   -88694   -89132   -89784 
  -90022   -89477   -89002   -89102   -88925   -88376   -88510   -89301 
  -89903   -90074   -90067   -90230   -90526   -90478   -89900   -89143 
  -88730   -88990   -89756   -90606   -91078   -90506   -89571   -90088 
  -91436   -91752   -91317   -90860   -90158   -89167   -88228   -87864 
  -88289   -88865   -88991   -89103   -89905   -91168   -91858   -91576 
  -91314   -91505   -91006   -89747   -89064   -88786   -88297   -88661 
  -90091   -90790   -90082   -89457   -89783   -90023   -89536   -88996 
  -88781   -89000   -89604   -89599   -88939   -89244   -90741   -91845 
  -91853   -91410   -90921   -90264   -89703   -89684   -89862   -89304 
  -87861   -86591   -86545   -87852   -89585   -90446   -90411   -90451 
  -90504   -90325   -90578   -91038   -90984   -90571   -89801   -88643 
  -87760   -87720   -88477   -89571   -90663   -91690   -92422   -92400 
  -91430   -90363   -89776   -88873   -88152   -88739   -89525   -89575 
  -89563   -89512   -88635   -87562   -87875   -88844   -89045   -89259 
  -89998   -90310   -89386   -88260   -88885   -90395   -91130   -91403 
  -91239   -90873   -90740   -89955   -88594   -87880   -87961   -88705 
  -89787   -90061   -89445   -89031   -89589   -91092   -92354   -92578 
  -92361   -91939   -91110   -90265   -90059   -90377   -89936   -88372 
  -87003   -86342   -86416   -87693   -89570   -90986   -91179   -90040 
  -88841   -88254   -88101   -88677   -89389   -89386   -89535   -90579 
  -91092   -90209   -89497   -90244   -92271   -94407   -95362   -95206 
  -93756   -90236   -86450   -85629   -87672   -89470   -89939   -90772 
  -92152   -92069   -90178   -87975   -85815   -83779   -82917   -83763 
  -86106   -89244   -91916   -93593   -94585   -94644   -94159   -94912 
  -96236   -95199   -92211   -90125   -89144   -87616   -86084   -86559 
  -88150   -88448   -87921   -87700   -87111   -86064   -85204   -84920 
  -86233   -88938   -90718   -90984   -91075   -91159   -91003   -90926 
  -90876   -90641   -89970   -89007   -89055   -90828   -93193   -95248 
  -96928   -97320   -95389   -91656   -87913   -85831   -85666   -86489 
  -87169   -87273   -87690   -88757   -88876   -87695   -86857   -86470 
  -86340   -87487   -89402   -90891   -91815   -91937   -91359   -90948 
  -90942   -90669   -90113   -89865   -89548   -89134   -89489   -90093 
  -90101   -89786   -89222   -89034   -90297   -92113   -92839   -92478 
  -91782   -91247   -91328   -91830   -91686   -90730   -90242   -90832 
  -91715   -91798   -90441   -88553   -87928   -88856   -90585   -92317 
  -92536   -90806   -88794   -87397   -86613   -86810   -87087   -86229 
  -85125   -84756   -84293   -83440   -83727   -85703   -88366   -91533 
  -94874   -96542   -95307   -92189   -89447   -88460   -88350   -87698 
  -87530   -89305   -91131   -91156   -91182   -92341   -92977   -92507 
  -91233   -88284   -84440   -82550   -83674   -86271   -87524   -86415 
  -85683   -86909   -88061   -88279   -89137   -90882   -91870   -91711 
  -91237   -91062   -92435   -94660   -95125   -94670   -94698   -94295 
  -94058   -93820   -91590   -87905   -84693   -82693   -82209   -83453 
  -85699   -87574   -88364   -87851   -86827   -86831   -87476   -88417 
  -91181   -95015   -97641   -98903   -99223   -98660   -97296   -95425 
  -93953   -93188   -92715   -92082   -91132   -91071   -92959   -95234 
  -95614   -94228   -91929   -88132   -83655   -81121   -81282   -82956 
  -85089   -86911   -87286   -85882   -84227   -82958   -81681   -82547 
  -87173   -91975   -92785   -90317   -87680   -86865   -88478   -90630 
  -89956   -86724   -84072   -82650   -81935   -82720   -84942   -87348 
  -89293   -90915   -92064   -92192   -91837   -92422   -94476   -96983 
  -97651   -95320   -92811   -93245   -95066   -96177   -97760   -99786 
  -99891   -97844   -95366   -92808   -90025   -88130   -87115   -85745 
  -84848   -85665   -87376   -89072   -90558   -91642   -92258   -91912 
  -89834   -85941   -81683   -80687   -84486   -88977   -90754   -90509 
  -88673   -86200   -85959   -88497   -91358   -92296   -90812   -88272 
  -86894   -88069   -91176   -94415   -96249   -95553   -92805   -89599 
  -86463   -84127   -83625   -84620   -86451   -88829   -91248   -93051 
  -93943   -93552   -91177   -87907   -86204   -86028   -85227   -83957 
  -84716   -87270   -88535   -88834   -91227   -94518   -95263   -94073 
  -92922   -91538   -90047   -89405   -88586   -86397   -85102   -87119 
  -90665   -92282   -91113   -89221   -88023   -87628   -88816   -90925 
  -92262   -92627   -92034   -91160   -90561   -89327   -88765   -90860 
  -93571   -94661   -95032   -95308   -94363   -91845   -89697   -89815 
  -90538   -88689   -85449   -85016   -87251   -88883   -89938   -91036 
  -90242   -87708   -85909   -85738   -87255   -90039   -91994   -92408 
  -93236   -94378   -93544   -91079   -88691   -86194   -83549   -82039 
  -82432   -84367   -86667   -89063   -92061   -94389   -95296   -95321 
  -93546   -90793   -89693   -89572   -89159   -90011   -92639   -94865 
  -95204   -94256   -92658   -90222   -87816   -87148   -88048   -89127 
  -90177   -91276   -91606   -90615   -89071   -88209   -88093   -87983 
  -88105   -89253   -90539   -90484   -89988   -89957   -89204   -87546 
  -86303   -85995   -86210   -86597   -87425   -88917   -90520   -91811 
  -92871   -93533   -93254   -91452   -88512   -86431   -86796   -89081 
  -91688   -92823   -91995   -91172   -91436   -90763   -88338   -87104 
  -88519   -90438   -91673   -91897   -90370   -88034   -86139   -84977 
  -84972   -85622   -85763   -85906   -87044   -88259   -88473   -88339 
  -88818   -90211   -92365   -94353   -94989   -94303   -93335   -92679 
  -92342   -92275   -91944   -90449   -88300   -87240   -87662   -88683 
  -89662   -90552   -91930   -93430   -93263   -90907   -88171   -87350 
  -88742   -90007   -89667   -88775   -87803   -87087   -87573   -87730 
  -86399   -86107   -87787   -89056   -89542   -90523   -91170   -91015 
  -90665   -89349   -88096   -89157   -90526   -89644   -88384   -88532 
  -88762   -88800   -90259   -92479   -93357   -92860   -92045   -91716 
  -92072   -91841   -90370   -89446   -90041   -90650   -90644   -90367 
  -89109   -87373   -86830   -87320   -87620   -87545   -88206   -89600 
  -90408   -90793   -90573   -89717   -90524   -92252   -91733   -89908 
  -89006   -88612   -88356   -89127   -90937   -92469   -92661   -91945 
  -91582   -91221   -89886   -88896   -89264   -89626   -89391   -89275 
  -89260   -89378   -90474   -92237   -92757   -91691   -91113   -91254 
  -90335   -89535   -90482   -91478   -91473   -90679   -89152   -88259 
  -88507   -88372   -86893   -84988   -84681   -86274   -87995   -88969 
  -89287   -88565   -86991   -85906   -85967   -86508   -87176   -88538 
  -90473   -91499   -90926   -90024   -90342   -91921   -93254   -93476 
  -93232   -92934   -92654   -92408   -91932   -91678   -92199   -93017 
  -93004   -91311   -88712   -86808   -86249   -86781   -87849   -89499 
  -91319   -91308   -89388   -88413   -89321   -90031   -89631   -89463 
  -90205   -91331   -92324   -92554   -91930   -91187   -90343   -89151 
  -88277   -88047   -88289   -88629   -88478   -88631   -89726   -90258 
  -89398   -88220   -87679   -87517   -86995   -86087   -85067   -84181 
  -83850   -84076   -85111   -87192   -89330   -90827   -91760   -92042 
  -92106   -92365   -92671   -93053   -93160   -92966   -93321   -93796 
  -93247   -91998   -91041   -90849   -91314   -91704   -91436   -91251 
  -91800   -91868   -90960   -90548   -90726   -90344   -89799   -89710 
  -89398   -88690   -88105   -87258   -86214   -86212   -87022   -87640 
  -88816   -90883   -91978   -91320   -90814   -91447   -92405   -93471 
  -93914   -92373   -89428   -86867   -85211   -83721   -83187   -85603 
  -89288   -90567   -89620   -88623   -88132   -88350   -89454   -90134 
  -89342   -88421   -88813   -89844   -90280   -89738   -88572   -87772 
  -88055   -88901   -89492   -90035   -91046   -92006   -91905   -90933 
  -90433   -90715   -90852   -90821   -91049   -91267   -91667   -92270 
  -92127   -91255   -90275   -89187   -88446   -88258   -88009   -88008 
  -88895   -90259   -91651   -92646   -92422   -91172   -90097   -89799 
  -90131   -90298   -89208   -87444   -86777   -87222   -87590   -87811 
  -88251   -88312   -87672   -87420   -87871   -87839   -87318   -87180 
  -87593   -88612   -89835   -90894   -92211   -93262   -93148   -92372 
  -91546   -90833   -90544   -90452   -90285   -90546   -91029   -90838 
  -90048   -89287   -88865   -88454   -87719   -87455   -88118   -89000 
  -89860   -90699   -91156   -91414   -91628   -91112   -90057   -89854 
  -90441   -90699   -91093   -92008   -92122   -91365   -91222   -91528 
  -91258   -90857   -90302   -88427   -86622   -87365   -89265   -89960 
  -89760   -89241   -88425   -87701   -87222   -87221   -88285   -89874 
  -90394   -89662   -89134   -89376   -89720   -89901   -90093   -90421 
  -90794   -90428   -89206   -88659   -89415   -90419   -91026   -90807 
  -89682   -88925   -88704   -87771   -86841   -87237   -88514   -90015 
  -91146   -91391   -91164   -90913   -91100   -92141   -92993   -92514 
  -91267   -90134   -89272   -88758   -88776   -89071   -89344   -89940 
  -90759   -91149   -91311   -91606   -91575   -90909   -90098   -89623 
  -89278   -88733   -88112   -87737   -87905   -88736   -89896   -90799 
  -91207   -91214   -90353   -88514   -87674   -88921   -90106   -89963 
  -89587   -89364   -89244   -89681   -90047   -89590   -89410   -90184 
  -90504   -89966   -90088   -91035   -91688   -91842   -91327   -90073 
  -89248   -89634   -90387   -90172   -89105   -88839   -89661   -89944 
