Origin Time       2019/01/26 17:23:00
Lat.              40.280
Long.             142.327
Depth. (km)       38
Mag.              5.6
Station Code      AOMH17
Station Lat.      40.4492
Station Long.     141.3374
Station Height(m) -49.1
Record Time       2019/01/26 17:23:16
Sampling Freq(Hz) 100Hz
Duration Time(s)  151
Dir.              3
Scale Factor      3923(gal)/8224838
Max. Acc. (gal)   14.444
Last Correction   2019/01/26 17:23:01
Memo.             
[...]
    9030     9028     9030     9027     9026     9026     9027     9027 
    9024     9024     9027     9026     9026     9027     9024     9026 
    9030     9027     9027     9028     9026     9026     9026     9024 
    9027     9027     9027     9027     9027     9027     9026     9027 
    9030     9028     9026     9023     9023     9028     9030     9027 
    9027     9024     9024     9028     9024     9022     9026     9027 
    9023     9023     9024     9026     9026     9026     9026     9026 
    9026     9028     9028     9026     9027     9028     9028     9030 
    9028     9026     9026     9028     9028     9027     9028     9028 
    9027     9027     9028     9027     9024     9026     9027     9027 
    9027     9024     9027     9031     9026     9023     9026     9028 
    9030     9031     9030     9027     9026     9027     9031     9031 
    9028     9027     9027     9027     9028     9030     9028     9027 
    9028     9030     9030     9026     9023     9027     9028     9023 
    9023     9027     9026     9023     9024     9027     9028     9024 
    9023     9027     9030     9030     9028     9026     9027     9030 
    9030     9032     9031     9028     9030     9030     9028     9028 
    9027     9027     9027     9026     9024     9024     9024     9027 
    9028     9026     9024     9024     9022     9022     9024     9026 
    9026     9024     9028     9028     9020     9023     9030     9026 
    9026     9030     9028     9026     9024     9027     9030     9027 
    9026     9026     9027     9028     9026     9023     9026     9026 
    9024     9026     9024     9023     9026     9028     9027     9027 
    9028     9030     9028     9026     9026     9030     9028     9027 
    9028     9028     9032     9032     9028     9027     9028     9030 
    9030     9026     9023     9023     9027     9027     9027     9027 
    9023     9024     9028     9027     9022     9022     9028     9030 
    9024     9023     9024     9022     9027     9032     9027     9024 
    9026     9024     9026     9030     9030     9028     9027     9027 
    9024     9027     9031     9028     9024     9028     9030     9026 
    9024     9027     9026     9024     9024     9026     9027     9026 
    9023     9027     9030     9026     9024     9028     9031     9028 
    9027     9027     9028     9027     9027     9028     9028     9028 
    9027     9024     9026     9028     9028     9027     9028     9027 
    9027     9028     9026     9023     9026     9027     9024     9026 
    9028     9028     9026     9024     9026     9030     9031     9028 
    9027     9024     9024     9028     9028     9030     9030     9028 
    9027     9026     9024     9024     9026     9024     9024     9027 
    9028     9027     9027     9026     9024     9024     9026     9024 
    9023     9026     9027     9026     9023     9024     9028     9023 
    9020     9027     9028     9026     9028     9028     9030     9030 
    9023     9024     9026     9022     9026     9027     9024     9028 
    9028     9023     9022     9024     9027     9028     9027     9027 
    9026     9024     9026     9030     9030     9027     9027     9026 
    9027     9030     9028     9028     9030     9027     9028     9031 
    9030     9026     9027     9027     9027     9028     9028     9027 
    9023     9020     9026     9027     9024     9026     9028     9024 
    9024     9026     9024     9027     9027     9024     9026     9028 
    9024     9026     9027     9024     9024     9024     9027     9030 
    9024     9023     9026     9024     9023     9026     9027     9028 
    9027     9024     9024     9024     9026     9024     9024     9026 
    9026     9027     9027     9026     9024     9024     9024     9023 
    9022     9024     9026     9027     9030     9026     9020     9024 
    9027     9024     9026     9027     9026     9027     9027     9027 
    9026     9024     9024     9027     9026     9024     9024     9023 
    9023     9022     9024     9030     9027     9024     9027     9028 
    9027     9027     9026     9026     9027     9026     9027     9026 
    9024     9028     9028     9023     9024     9028     9027     9028 
    9030     9026     9026     9026     9024     9028     9027     9023 
    9026     9027     9027     9028     9024     9022     9027     9028 
    9024     9024     9028     9028     9027     9024     9023     9026 
    9027     9027     9026     9027     9027     9027     9027     9024 
    9026     9027     9026     9027     9028     9026     9027     9027 
    9023     9024     9022     9022     9027     9027     9022     9020 
    9023     9028     9028     9024     9023     9027     9027     9026 
    9027     9026     9022     9024     9028     9027     9024     9027 
    9028     9026     9026     9030     9030     9027     9026     9027 
    9030     9030     9026     9024     9027     9028     9028     9027 
    9027     9024     9024     9028     9031     9028     9026     9027 
    9028     9027     9026     9026     9026     9024     9026     9027 
    9024     9026     9031     9027     9022     9028     9030     9026 
    9027     9027     9026     9024     9027     9030     9027     9023 
    9026     9030     9030     9027     9022     9022     9027     9026 
    9023     9027     9031     9028     9026     9027     9028     9027 
    9026     9028     9031     9026     9024     9028     9027     9024 
    9027     9028     9024     9026     9028     9026     9024     9024 
    9027     9027     9027     9027     9027     9026     9024     9024 
    9024     9024     9030     9032     9027     9024     9026     9024 
    9023     9027     9027     9024     9026     9027     9024     9024 
    9027     9026     9024     9028     9026     9022     9023     9026 
    9026     9024     9024     9026     9028     9027     9024     9026 
    9026     9023     9023     9028     9026     9023     9024     9026 
    9026     9026     9027     9028     9027     9024     9026     9027 
    9024     9023     9023     9026     9028     9027     9027     9026 
    9024     9027     9028     9027     9028     9027     9024     9022 
    9022     9024     9024     9019     9026     9032     9030     9026 
    9024     9023     9024     9023     9023     9027     9028     9027 
    9028     9026     9020     9022     9026     9026     9026     9030 
    9030     9027     9026     9023     9026     9028     9026     9027 
    9028     9030     9028     9023     9022     9024     9027     9030 
    9028     9026     9027     9027     9027     9028     9028     9027 
    9028     9031     9031     9026     9024     9024     9023     9024 
    9030     9030     9026     9024     9024     9026     9024     9026 
    9030     9028     9027     9027     9024     9024     9028     9027 
    9023     9026     9031     9028     9024     9027     9030     9030 
    9027     9027     9030     9028     9026     9026     9024     9026 
    9028     9027     9024     9026     9026     9024     9026     9028 
    9030     9027     9024     9024     9026     9027     9028     9027 
    9023     9020     9022     9027     9030     9030     9027     9027 
    9027     9026     9026     9028     9030     9026     9026     9027 
    9022     9022     9024     9023     9023     9024     9024     9026 
    9026     9027     9027     9024     9024     9026     9026     9023 
    9024     9027     9026     9024     9026     9027     9027     9027 
    9027     9026     9027     9028     9024     9026     9031     9026 
    9022     9027     9027     9020     9024     9028     9024     9024 
    9027     9030     9030     9028     9027     9024     9026     9027 
    9027     9026     9028     9027     9022     9020     9026     9031 
    9028     9024     9026     9026     9026     9028     9028     9026 
    9024     9026     9024     9027     9030     9027     9024     9022 
    9024     9028     9030     9031     9032     9030     9024     9023 
    9024     9028     9028     9027     9028     9026     9022     9024 
    9027     9024     9028     9030     9026     9028     9027     9023 
    9024     9026     9026     9027     9027     9027     9027     9026 
    9026     9026     9023     9022     9026     9026     9026     9028 
    9026     9026     9030     9030     9028     9027     9026     9027 
    9028     9027     9026     9024     9026     9027     9026     9026 
    9027     9027     9028     9030     9030     9026     9024     9026 
    9024     9023     9026     9030     9027     9024     9027     9027 
    9023     9024     9026     9027     9026     9022     9026     9030 
    9026     9023     9027     9028     9027     9027     9028     9027 
    9026     9023     9022     9022     9024     9027     9027     9023 
    9023     9027     9027     9024     9024     9022     9023     9026 
    9024     9027     9027     9024     9028     9030     9024     9022 
    9026     9027     9026     9026     9027     9027     9024     9026 
    9028     9027     9026     9027     9027     9027     9028     9027 
    9026     9026     9026     9022     9024     9027     9024     9024 
    9030     9030     9026     9026     9027     9024     9023     9027 
    9030     9027     9028     9028     9026     9026     9028     9026 
    9023     9026     9030     9028     9026     9027     9028     9028 
    9026     9026     9027     9028     9027     9027     9028     9028 
    9026     9024     9024     9026     9028     9027     9027     9028 
    9024     9026     9030     9028     9026     9027     9026     9026 
    9027     9030     9030     9027     9026     9026     9026     9026 
    9028     9030     9028     9023     9020     9024     9027     9027 
    9027     9024     9026     9027     9026     9026     9027     9026 
    9026     9026     9023     9022     9027     9028     9024     9024 
    9028     9027     9026     9027     9024     9026     9028     9027 
    9026     9026     9024     9027     9028     9026     9026     9030 
    9027     9024     9028     9031     9030     9031     9028     9024 
    9027     9028     9024     9027     9030     9027     9024     9024 
    9024     9027     9028     9026     9024     9023     9022     9024 
    9027     9028     9030     9028     9027     9028     9030     9027 
    9027     9027     9024     9027     9030     9027     9024     9027 
    9026     9027     9027     9026     9027     9028     9027     9027 
    9028     9028     9026     9022     9023     9027     9024     9024 
    9030     9031     9027     9023     9022     9024     9027     9027 
    9028     9027     9027     9027     9026     9024     9027     9027 
    9028     9028     9023     9023     9027     9026     9024     9026 
    9027     9028     9027     9028     9028     9027     9027     9024 
    9020     9024     9026     9024     9026     9026     9027     9026 
    9024     9026     9024     9026     9028     9026     9024     9026 
    9026     9026     9027     9027     9027     9026     9026     9027 
    9026     9026     9028     9026     9022     9022     9023     9026 
    9027     9026     9027     9030     9027     9024     9027     9027 
    9027     9030     9028     9023     9024     9027     9024     9026 
    9028     9028     9030     9030     9028     9026     9024     9027 
    9031     9031     9026     9020     9020     9022     9024     9027 
    9026     9027     9027     9020     9023     9030     9028     9028 
    9027     9024     9024     9026     9026     9027     9027     9027 
    9028     9030     9028     9028     9026     9022     9024     9028 
    9024     9024     9028     9030     9030     9026     9026     9030 
    9027     9023     9027     9028     9027     9028     9028     9027 
    9026     9026     9026     9026     9028     9028     9024     9024 
    9024     9022     9028     9032     9030     9026     9024     9027 
    9027     9027     9030     9028     9027     9028     9027     9028 
    9031     9031     9028     9027     9027     9027     9027     9028 
    9027     9027     9027     9028     9028     9026     9026     9024 
    9015     9004     8993     8978     8964     8947     8923     8869 
    8769     8667     8645     8642     8399     7797     7219     7042 
    6841     5944     4564     3484     3547     5987    10719    14482 
   14359    11141     6617     5571    16116    29940    23099    -1617 
  -14408    -7177     7195    23067    33305    28372    12710     -251 
     344    12182    18949    13425     4764      642      862     4055 
   11055    18463    17729     7823    -1171      388     9460    14678 
   13360    10534     7006     3562     5472    12305    15653    11533 
    4884     1711     3215     7207    10795    11889    10732     8899 
    7312     6504     7217     9139     9531     7083     5483     7371 
   10999    14852    16344    12563     7587     6631     6442     4252 
    4309     6631     7086     7938    11368    13410    11898     8939 
    7938    11057    14978    14955    11739     7730     4407     3019 
    3559     6547     9121     6181     1915     2166     3385     4193 
    7341    10037     9605     6990     3103      654     1080     3577 
    8461    12453    12876    13747    15282    14083    12600    13734 
   15915    17134    17313    15849    11504     7242     6691     8397 
    9702     9371     8336     9252    12079    14046    13085    11360 
   12572    13356    10365     7743     2979    -9239   -13090     8899 
   36643    39309    22860     8773     2137     3944    12704    15884 
    8357     1224     1125     3904     9263    16579    17581    11858 
    6589     4064     6107    10643    11187     9942     9512     7256 
    7574    11450    12669    12769     9903      702    -4525    -1293 
    5032    12510    16472    14067     8756     5235     7595     9630 
    5991     6068    10150     9649     8927    12050    14912    15539 
   13197     7646     1274    -2733    -2238     3113    10222    13076 
    9668     5478     5972     8754     8741     6475     5178     7159 
   11480    12021     6304     1776     4608     9086    10878    15233 
   18446    12831     6536     7782    11716    14172    16775    17736 
   10281    -3358    -7997     1094     9607    10679    10852     9980 
    7163     8229    11654    12781    11516     6621     2030     4409 
   10605    14098    12175     6997     4957     6303     8274    13724 
   17763    11840     4468     5717    10694    14539    16434    15533 
   14319    12336     7970     6349     8110     8125     8071     9769 
   11125    12118    10154     5003     3277     4252     2658     1718 
    4896     8608     9651     9560     9954     9686     9339    10797 
   12560    12455    11596    12027    12760    13041    14161    14266 
   12313    11499    11373     8676     5734     6794     9146     9004 
    8742     8922     6772     3478     2330     4144     6118     5725 
    5409     6754     7723     8918    10874    10872     8939     7690 
    7157     6307     6018     7439     9759    10779     9832     8382 
    8077     9647    10879    10276    10561    10932     8955     8008 
   10058    12232    11549     9094     9177    10174     8390     6829 
    7626     9267    10543    10010     7630     5320     5358     7884 
    9788     9998     9637     7997     6829     9482    13392    13826 
   11596    10031     9730    10643    12532    13743    13905    12688 
    8968     4553     3099     5823     9734    11318    10172     7069 
    4827     6821    10995    13180    12170     8974     5950     4430 
    4205     6181    10303    13286    12877    10863    10596    12514 
   13012    10775     9606    10278     8764     5834     6400     9547 
   10176     7516     5854     7462     9040     9013     9715    10451 
    9969     9987     9728     7727     6686     7400     7287     6721 
    6569     6617     8383    11246    11983     9807     7708     7476 
    6288     4548     6153     9425    10943    10341     9346    10160 
   10945    10289    10519    10592     9477     9425     9663     9370 
    9153     8004     7574     9196    11244    13135    12037     7384 
    5514     8014     9958     8937     6701     6328     7422     7469 
    7215     7510     7896     9189    10287     9344     8608     9042 
    8056     7102     8217     8685     8549     9882    11126    11342 
   11241    11199    11620    11766    10916    10179     9922     9070 
    8553     9887    11140    10017     8175     7674     7330     6880 
    8240    10345    10215     8044     6691     7993    10158    10534 
   10300    10968    11051    10606    10889    10617     9200     8046 
    7881     8183     7632     7241     8329     7927     6343     7283 
    8546     8379     9050     9683     8704     7040     6025     6631 
    7677     7784     8927    11103    10512     8243     7927     7024 
    4299     5248    10089    11493     8947     8511     9472     8178 
    7298     8896    10268    10071     9078     9146    11503    12586 
   10497     9429    10219    10478    10673    10546    10125    10773 
   10386     8116     6785     6982     8264     9572     9339     8996 
    8881     8607     9988    10809     8702     7299     8437    10224 
   11308    10840     9370     8494     8942    10050    10085     9011 
    8587     8500     7962     7917     8262     8711     9996    11125 
   10544     8874     8108     9266    10813    10893    10023     9301 
    9182     9212     7682     5328     5242     7149     8691     9639 
   10160    10056     9707     9051     8326     8492     9987    11664 
   10982     8716     8514     9235     7946     7011     8675     9860 
    8357     6575     6678     8131     9628    10103     8977     7317 
    7353     8414     8216     8418     9594     8499     7086     9431 
   12567    12159     9435     7839     8370     9868    10444     9751 
    9555     9204     7096     5373     6069     8027     9873    10373 
    7978     5151     5949     8240     9058     9952    10696    10216 
   10230    10373     9147     8212     8648     9053     9356    10540 
   11155     9969     8622     7985     8172     9100     9097     8895 
    9748    10045    10686    12885    13855    12114     9443     8064 
    8105     7838     7921     9350     9710     8661     8590     9062 
    9084     9404     9828     9177     7504     6934     8711    10600 
   10489     9346     8361     7560     7659     8792     9865    10883 
   11375    10372     8394     6463     6787     9562    10396     8378 
    7396     7990     8519     9697    11487    11773    10115     8745 
    8758     8085     6056     5468     6736     6934     6164     6575 
    7310     7483     8101     9038     9652     9927    10003     9726 
    8370     6889     7489     8946     8671     8448    10363    11982 
   11445    10582    11294    12877    13572    13107    11279     8733 
    8523     9817     8669     6407     5610     5421     5898     7271 
    8316     9153     9787     9414     8974     8931     8633     9428 
   11195    10840     8853     7946     7700     8037     9705    11144 
   11977    13194    13111     9992     6783     7619    10358    10196 
    7974     7079     8174    10145    11452    11556    11685    11371 
    8648     6158     7549    10123    10476     9258     7603     6122 
