Origin Time       2019/01/26 17:23:00
Lat.              40.280
Long.             142.327
Depth. (km)       38
Mag.              5.6
Station Code      AOMH03
Station Lat.      41.234
Station Long.     140.9896
Station Height(m) -80
Record Time       2019/01/26 17:23:25
Sampling Freq(Hz) 100Hz
Duration Time(s)  172
Dir.              3
Scale Factor      3923(gal)/8224838
Max. Acc. (gal)   4.811
Last Correction   2019/01/26 17:23:10
Memo.             
[...]
   10593    10183    10446    11161    11838    12070    11885    11635 
   11553    11608    11704    11848    12000    12056    11940    11550 
   11188    11381    11955    12375    12575    12703    12715    12575 
   12379    12305    12428    12586    12719    12773    12486    12069 
   11982    12177    12359    12221    11803    11531    11398    11296 
   11502    11848    11893    11709    11570    11483    11322    11179 
   11415    11878    11827    11369    11296    11516    11558    11565 
   11713    11870    12071    12429    12739    12820    12810    12916 
   13077    12981    12798    12908    13005    12812    12577    12317 
   11938    11614    11524    11801    12251    12371    12131    11893 
   11736    11530    11250    10990    10808    10775    11041    11466 
   11546    11148    10744    10704    10891    11032    11028    10881 
   10855    11269    11673    11553    11233    11106    11299    11797 
   12251    12371    12226    12054    12052    12135    12148    12154 
   12145    12147    12349    12663    12787    12776    12846    12941 
   12868    12665    12583    12626    12611    12625    12699    12603 
   12314    11961    11578    11357    11500    11766    11680    11244 
   10930    10947    11032    10979    10895    10944    11190    11705 
   12245    12351    12148    12078    12077    11912    11695    11693 
   11873    11851    11510    11375    11866    12663    13311    13593 
   13424    12965    12367    11753    11435    11570    11983    12402 
   12614    12515    12218    12131    12406    12625    12471    12066 
   11778    11862    12116    12366    12631    12634    12194    11618 
   11222    11117    11209    11299    11325    11267    11076    10818 
   10615    10547    10763    11230    11546    11503    11416    11453 
   11272    10866    10794    11269    11862    11940    11394    10932 
   11070    11588    12047    12154    11961    11650    11456    11601 
   11850    11870    11789    11797    11940    12096    11935    11443 
   11068    10986    11047    11331    11958    12669    13039    12811 
   12222    11793    11630    11550    11537    11627    11859    12217 
   12532    12650    12502    12208    12082    12152    12116    11935 
   12046    12607    13081    13227    13311    13258    12928    12529 
   12193    12086    12426    12865    12938    12773    12714    12808 
   12721    12320    12078    12244    12525    12656    12681    12676 
   12518    12367    12363    12086    11627    11686    12144    12465 
   12622    12522    12131    11773    11547    11398    11331    11410 
   11796    12163    12023    11730    11750    11934    11963    11790 
   11601    11358    10979    10789    10939    10952    10590    10276 
   10188    10184    10466    11088    11647    11885    11654    11099 
   10847    10854    10547    10200    10328    10829    11418    11819 
   11932    11909    11811    11707    11726    11817    11917    12108 
   12433    12569    12302    12040    11904    11588    11333    11518 
   11881    11901    11578    11340    11246    11176    11276    11514 
   11840    12349    12739    12738    12538    12314    12116    12032 
   12177    12461    12569    12480    12498    12657    12703    12438 
   12004    11819    11954    12222    12676    13036    12830    12515 
   12706    12962    12806    12640    12841    13054    12899    12556 
   12320    12160    11938    11680    11492    11423    11458    11558 
   11774    12052    12272    12563    12792    12685    12549    12557 
   12340    11782    11249    11075    11144    11137    10937    10677 
   10656    10906    10997    10790    10640    10682    10840    11129 
   11516    11919    12179    12297    12402    12218    11603    11183 
   11267    11333    11340    11601    11716    11654    12036    12690 
   12942    12676    12268    12015    11831    11601    11392    11333 
   11600    12170    12541    12465    12398    12459    12279    12024 
   11901    11634    11389    11592    11925    11874    11530    11259 
   11176    11187    11269    11493    11766    11935    12090    12271 
   12336    12330    12330    12240    12127    12128    12164    12166 
   12235    12447    12671    12727    12636    12471    12251    12128 
   12109    11898    11672    11921    12491    12810    12762    12734 
   12783    12699    12614    12549    12332    11954    11435    11020 
   10964    10944    10710    10581    10716    11057    11564    11970 
   12037    11916    11840    11842    11867    11982    12290    12656 
   12718    12398    12050    11897    11805    11758    11840    11732 
   11268    10987    11217    11520    11510    11310    11133    11013 
   10970    10990    11038    11101    11121    11126    11221    11430 
   11601    11479    11246    11310    11580    11847    12056    12160 
   12177    11998    11654    11578    11931    12407    12717    12712 
   12513    12275    12056    12027    12060    11929    11919    12025 
   11940    12023    12463    12700    12637    12712    12933    12984 
   12758    12503    12498    12587    12549    12536    12603    12567 
   12307    11745    11151    11176    11855    12405    12422    12278 
   12127    11919    12064    12600    12889    12721    12344    11820 
   11244    10975    11244    11742    11924    11801    11855    12069 
   11994    11603    11279    11250    11423    11628    11782    11912 
   11998    11886    11653    11499    11415    11457    11592    11515 
   11129    10727    10671    11045    11568    11774    11612    11480 
   11423    11396    11649    11974    11869    11493    11353    11458 
   11576    11745    11973    11961    11612    11296    11240    11217 
   11118    11155    11385    11674    12009    12351    12366    12017 
   11776    11769    11797    11777    11510    11007    10679    10962 
   11857    12737    13238    13595    13813    13663    13022    12101 
   11608    11902    12667    13466    13711    13239    12745    12599 
   12618    12739    12796    12737    12744    12710    12613    12657 
   12714    12429    11754    11086    10791    10813    11037    11465 
   11715    11553    11502    11697    11634    11462    11642    11977 
   12132    12145    12121    12015    11894    11836    11691    11497 
   11431    11383    11223    10956    10724    10808    11295    11863 
   12052    11858    11668    11615    11641    11858    12317    12588 
   12291    11799    11493    11219    10898    10588    10459    10798 
   11470    11988    12037    11682    11381    11515    11944    12256 
   12209    12058    12195    12475    12568    12495    12283    11970 
   11794    11769    11719    11603    11423    11371    11655    12087 
   12316    12229    11928    11554    11298    11348    11600    11809 
   11956    12171    12515    12843    12884    12576    12132    11835 
   11897    12344    12781    12669    12194    11917    11801    11707 
   11928    12619    13409    13841    13782    13132    12105    11448 
   11373    11426    11376    11268    11265    11492    11857    12225 
   12483    12438    12013    11550    11453    11645    11897    12037 
   11942    11685    11272    10696    10219    10052    10137    10326 
   10481    10743    11479    12467    13109    13228    12816    12175 
   11790    11527    11117    10899    11155    11511    11572    11396 
   11254    11507    12132    12537    12480    12279    12128    12044 
   12098    12189    12001    11646    11643    12051    12383    12360 
   12156    11920    11612    11334    11302    11607    12098    12432 
   12415    12093    11755    11786    12093    12206    12109    12307 
   12906    13286    13113    12546    11792    11254    11137    11271 
   11740    12515    13081    13193    13054    12761    12285    11792 
   11600    11666    11566    11229    11072    11361    11974    12715 
   13362    13657    13761    13934    13726    12781    11684    10891 
   10285    10066    10426    10887    11114    11199    11159    11028 
   10889    10706    10509    10523    10797    11025    11209    11560 
   11739    11649    11842    12268    12353    12058    11653    11384 
   11470    11713    11824    12025    12405    12534    12100    11358 
   10953    11163    11704    12286    12703    12897    13090    13247 
   13049    12640    12310    11853    11191    10702    10443    10292 
   10384    10748    11502    12731    13830    14227    14202    14004 
   13371    12448    11889    11811    11959    12312    12575    12295 
   11585    10891    10575    10739    10970    10881    10820    11226 
   11831    12082    11948    11871    11916    11767    11457    11211 
   10987    10701    10462    10341    10334    10579    11074    11583 
   11915    11928    11893    12285    12829    12991    12807    12441 
   11885    11337    11133    11222    11376    11597    11713    11468 
   11128    11057    11253    11611    12058    12576    13161    13645 
   13910    13990    13887    13559    13024    12526    12285    12114 
   11897    11778    11777    12015    12464    12579    12112    11465 
   11060    10995    11219    11692    12054    11762    11003    10538 
   10685    11277    12101    12912    13587    14187    14509    14215 
   13674    13487    13544    13686    13852    13732    13473    13473 
   13535    13308    12823    12209    11587    11199    11001    10671 
   10424    10701    11296    11750    11804    11254    10196     9211 
    8837     9016     9575    10570    11581    11857    11311    10434 
    9535     8865     8849     9335     9643     9688     9914    10476 
   11178    11763    12002    11828    11522    11304    11094    11075 
   11485    11967    12136    12123    12260    12787    13651    14519 
   15022    15005    14647    14260    13991    13844    13655    13204 
   12735    12654    12837    13205    13942    14669    14791    14384 
   13684    12502    11111    10393    10361    10399    10552    10868 
   10851    10366     9744     9293     9221     9437     9697     9877 
    9846     9668     9753    10270    10841    10979    10689    10436 
   10550    11024    11672    12339    12992    13387    13439    13516 
   13710    13932    14100    14030    14022    14372    14885    15375 
   15518    15319    15406    15905    16295    16268    15952    15603 
   15228    14420    13035    11836    11560    12063    12938    13652 
   13558    12808    11944    10721     8847     6940     5649     5362 
    6531     8610    10254    10921    10724    10029     9563     9737 
   10368    11009    11196    10983    10821    10708    10350     9821 
    9398     9281     9599    10449    11803    13193    13963    14189 
   14419    14385    13595    12783    12812    13246    13316    12835 
   11889    10687     9540     8688     8316     8256     7960     7466 
    7472     8093     8868     9705    10623    11288    11692    12155 
   12622    13144    13882    14415    14277    13369    11907    10461 
    9382     8916     9425    10403    11045    11781    12919    13743 
   14254    14752    14862    14756    14832    15067    15840    17047 
   17725    17679    17312    16795    16429    16339    16031    15246 
   14488    14033    13332    12043    10821    10292    10180    10010 
    9634     9185     9078     9452     9890    10054     9988     9945 
   10112    10366    10546    10550    10125     9180     8124     7226 
    6318     5896     6872     8920    11071    12945    14121    14130 
   13454    13022    13003    13343    14319    15237    14843    13429 
   12090    11344    11788    13567    15250    15399    14489    13552 
   12334    10767     9954    10570    12216    14083    15635    16524 
   16181    14719    13157    11869    10683    10098    10432    11063 
   11549    11785    11487    10642     9350     7591     5977     5486 
    6089     6740     6930     7310     8198     8594     7933     7267 
    7303     7712     8565     9612     9886     9599     9745    10670 
   12310    13964    14910    15633    16541    17184    17396    17340 
   16902    16077    15489    15731    16409    16991    17753    18893 
   19961    20457    20081    19120    18342    17914    17501    16849 
   15645    13930    12139    10458     9165     8696     8815     8912 
    8679     7955     6916     6048     5616     5629     5806     5678 
    5267     5017     5090     5406     5657     5341     4892     5518 
    6932     7734     7867     7874     7361     6286     5670     6237 
    7867    10299    13176    15546    16652    16892    17019    17073 
   16881    16812    17059    17209    17131    17061    17128    17564 
   18407    18952    18527    17489    16399    15191    13863    12644 
   11886    11935    12302    12339    12403    12927    13544    13757 
   13583    13059    12012    10822    10130     9977     9988     9711 
    9189     9174     9988    11071    11986    12629    12752    12314 
   11597    11044    11335    12478    13570    14253    14651    14242 
   12760    11160    10241    10042    10635    11638    12426    12945 
   13103    12799    12276    11736    11493    11719    11961    11809 
   11148     9942     8773     8334     8364     8329     8241     7955 
    7013     5852     5584     6254     6914     6972     6470     5890 
    5914     6797     7842     8225     8230     8571     9413    10490 
   11315    11923    12880    14025    14864    15743    17050    18508 
   19823    20873    21573    21976    21847    20740    19248    18555 
   18461    18180    17928    17622    16600    15142    14048    13545 
   13456    13635    13738    13174    12036    11087    10602    10330 
    9890     9035     8125     7701     7636     7360     6650     5957 
    5957     6836     8370    10319    12039    12649    12210    11531 
   10881    10075     9447     9463     9941    10647    11452    11840 
   11595    11163    10930    10891    10902    10897    10867    10920 
   11348    12121    12908    13832    14968    15705    15691    15111 
   14231    13647    13630    13435    12610    11574    10669    10208 
   10463    10968    11110    10832    10116     9158     8644     8938 
    9834    10785    11257    11241    10858    10330    10135    10255 
   10423    10563    10411     9848     9134     8714     9080    10083 
   11029    11686    12244    12708    13015    13111    12968    12891 
   13122    13402    13625    13883    13948    13869    14187    14937 
   15615    15996    16239    16478    16605    16630    16792    16810 
   16043    14716    13635    12966    12522    12314    12330    12644 
   13215    13478    13101    12496    11897    11136    10407    10030 
   10023    10368    10940    11079    10280     9138     8148     7210 
    6883     7700     9086    10195    10714    10760    10474    10035 
    9752     9836    10389    11223    11678    11554    11584    12312 
   13402    14215    14527    14505    14077    13018    11593    10417 
    9769     9409     9061     8630     8259     8090     7816     7192 
    6523     6253     6539     7075     7414     7527     7817     8594 
    9676    10798    12158    13725    14940    15626    15928    16069 
   16302    16394    16367    16706    17315    17848    18199    18318 
   18331    18266    17899    17355    17012    16900    17022    17292 
   17235    16808    16437    16012    14989    13423    11978    10990 
   10503    10516    10593    10403    10030     9566     9242     9154 
    8988     8604     8233     8147     8171     7866     7354     6960 
    6675     6590     6821     7310     8036     8997    10031    10849 
   11280    11441    11758    12359    12533    11875    11099    10843 
   10978    11186    11280    11404    11970    12800    13223    13184 
   13012    12825    12702    12636    12568    12575    12579    12260 
   11529    10878    10817    11298    12004    12727    13394    13751 
   13608    13140    12395    11520    10990    10921    11059    11173 
   11128    10974    10844    10633    10261    10088    10141    10002 
    9814     9686     9428     9356     9799    10669    11662    12456 
   13042    13390    13254    12726    12228    11988    11956    12106 
   12421    12735    12968    13139    13246    13509    14111    14832 
   15329    15437    15300    15028    14652    14586    14818    14737 
   14427    14224    13856    13281    12783    12179    11348    10731 
   10427    10262    10384    10552    10393    10231    10265    10334 
   10390    10338    10282    10485    10929    11637    12652    13636 
   14204    14446    14683    14989    15192    14995    14199    13066 
   12005    11340    11317    11676    12148    12803    13261    13265 
   13220    13146    12711    12094    11565    10920    10103     9563 
    9518     9683     9671     9360     8856     8275     7919     7987 
    8046     7707     7149     6666     6482     6675     7102     7510 
    7659     7807     8442     9305     9979    10642    11300    11827 
   12411    13018    13466    13930    14465    14891    15363    15931 
   16092    15842    15865    16259    16714    17213    17545    17458 
   17165    16861    16487    16009    15484    15068    14781    14397 
   13875    13379    12853    12222    11655    11230    10960    10926 
   11118    11406    11592    11681    11828    11896    11728    11655 
   11888    12050    11905    11561    11103    10697    10435    10226 
   10008     9695     9408     9433     9595     9643     9819    10365 
   11068    11481    11514    11443    11215    10698    10173     9792 
    9562     9722    10203    10435    10234    10069    10357    11122 
   12067    12798    13265    13551    13485    13117    12779    12452 
   12010    11591    11260    10918    10600    10469    10579    10821 
   11014    11072    11001    10701    10249     9926     9819     9991 
   10497    11098    11577    11907    12132    12441    12888    13369 
   13825    14067    14054    14067    14149    14175    14119    13807 
   13235    12822    12729    12749    12741    12564    12216    11919 
   11728    11700    11989    12442    12818    13108    13227    12993 
   12488    11962    11556    11464    11917    12765    13522    13884 
   13909    13757    13483    13123    12766    12515    12490    12630 
   12688    12548    12322    12185    12210    12325    12355    12036 
   11291    10476     9950     9741     9857    10297    10743    10800 
   10388     9850     9620     9780    10068    10160    10017     9803 
    9506     9034     8465     7994     7790     7978     8577     9327 
    9829    10042    10197    10399    10625    10998    11549    11985 
   12371    13004    13616    13972    14214    14407    14602    14823 
   15098    15523    15916    16052    16098    16114    15749    14999 
   14315    13818    13518    13471    13423    13327    13381    13359 
   13105    12939    12949    12980    13108    13169    12939    12704 
   12602    12401    12002    11529    11188    11041    11007    11037 
   11014    10849    10528    10173     9998     9998    10172    10612 
   11095    11348    11475    11626    11572    11060    10307     9688 
    9344     9354     9682    10035    10235    10266    10061     9686 
    9359     9200     9234     9336     9266     9084     8980     8945 
