Origin Time       2019/03/11 15:37:00
Lat.              33.2
Long.             132.7
Depth. (km)       40
Mag.              4.5
Station Code      EHMH07
Station Lat.      33.5022
Station Long.     132.748
Station Height(m) 90
Record Time       2019/03/11 15:37:59
Sampling Freq(Hz) 100Hz
Duration Time(s)  120
Dir.              3
Scale Factor      2942(gal)/8224139
Max. Acc. (gal)   1.771
Last Correction   2019/03/11 15:37:44
Memo.             
[...]
   37551    37554    37550    37548    37554    37552    37548    37551 
   37552    37550    37551    37552    37552    37552    37551    37548 
   37547    37551    37552    37550    37552    37551    37547    37547 
   37547    37551    37551    37544    37547    37554    37552    37550 
   37548    37548    37552    37552    37548    37547    37551    37552 
   37547    37546    37550    37551    37546    37543    37548    37548 
   37542    37543    37548    37547    37546    37547    37548    37544 
   37543    37547    37544    37544    37550    37551    37548    37547 
   37548    37547    37548    37548    37544    37544    37548    37547 
   37548    37548    37546    37548    37551    37547    37550    37550 
   37546    37546    37550    37550    37546    37547    37551    37546 
   37543    37550    37550    37547    37548    37548    37547    37548 
   37546    37547    37548    37547    37547    37552    37550    37546 
   37548    37548    37547    37550    37548    37548    37551    37550 
   37550    37552    37548    37544    37550    37555    37548    37544 
   37547    37547    37546    37546    37544    37548    37550    37547 
   37548    37548    37543    37546    37550    37548    37548    37550 
   37548    37550    37552    37548    37548    37550    37552    37551 
   37550    37548    37546    37546    37551    37550    37546    37551 
   37552    37547    37550    37548    37548    37552    37551    37550 
   37551    37550    37551    37547    37546    37550    37550    37546 
   37548    37550    37547    37547    37547    37546    37548    37552 
   37548    37547    37551    37551    37547    37546    37546    37551 
   37554    37550    37548    37551    37551    37552    37551    37547 
   37546    37547    37548    37550    37551    37550    37547    37550 
   37554    37547    37546    37552    37550    37548    37551    37550 
   37550    37552    37550    37550    37552    37551    37550    37548 
   37548    37548    37548    37548    37551    37551    37547    37546 
   37548    37552    37551    37547    37550    37551    37548    37548 
   37547    37548    37551    37550    37547    37548    37546    37544 
   37548    37547    37548    37552    37548    37547    37548    37548 
   37548    37544    37543    37547    37546    37542    37542    37547 
   37551    37544    37543    37554    37555    37550    37551    37551 
   37550    37548    37547    37547    37546    37544    37547    37550 
   37550    37548    37550    37548    37547    37548    37548    37543 
   37542    37550    37554    37547    37548    37550    37543    37546 
   37554    37547    37544    37547    37547    37546    37546    37547 
   37548    37547    37546    37548    37551    37548    37548    37547 
   37548    37555    37554    37544    37548    37550    37547    37552 
   37552    37547    37548    37550    37547    37547    37548    37548 
   37548    37547    37547    37547    37546    37548    37548    37546 
   37548    37550    37544    37543    37548    37550    37547    37548 
   37550    37550    37547    37546    37548    37547    37544    37547 
   37548    37548    37550    37547    37547    37548    37547    37548 
   37547    37543    37547    37552    37546    37544    37551    37550 
   37547    37551    37550    37544    37548    37551    37547    37548 
   37548    37547    37548    37550    37547    37544    37550    37554 
   37548    37547    37551    37548    37548    37548    37548    37551 
   37551    37550    37548    37548    37547    37547    37548    37550 
   37550    37551    37550    37550    37550    37547    37548    37554 
   37550    37548    37551    37548    37547    37548    37550    37552 
   37550    37548    37548    37546    37548    37551    37547    37547 
   37550    37546    37548    37550    37547    37548    37551    37546 
   37547    37554    37554    37550    37548    37548    37551    37550 
   37548    37552    37548    37547    37551    37546    37547    37554 
   37547    37546    37554    37551    37543    37544    37550    37550 
   37547    37550    37552    37552    37550    37551    37551    37550 
   37550    37551    37551    37551    37554    37552    37550    37548 
   37552    37552    37548    37548    37551    37550    37550    37551 
   37550    37551    37554    37551    37547    37548    37550    37552 
   37555    37551    37548    37551    37552    37552    37550    37550 
   37554    37554    37551    37547    37548    37551    37554    37554 
   37550    37548    37554    37557    37552    37550    37550    37550 
   37550    37550    37550    37547    37546    37548    37547    37546 
   37550    37551    37548    37547    37547    37550    37551    37551 
   37551    37552    37551    37548    37547    37551    37552    37550 
   37550    37550    37547    37550    37548    37547    37552    37555 
   37551    37548    37550    37551    37550    37547    37550    37552 
   37550    37550    37554    37554    37554    37552    37548    37552 
   37557    37551    37546    37551    37554    37550    37547    37548 
   37551    37552    37554    37551    37551    37551    37546    37546 
   37555    37555    37550    37550    37548    37548    37551    37551 
   37551    37555    37551    37548    37552    37552    37552    37554 
   37548    37547    37551    37551    37550    37551    37554    37552 
   37550    37551    37550    37551    37551    37548    37547    37547 
   37550    37551    37551    37551    37550    37551    37552    37551 
   37552    37552    37550    37550    37551    37550    37550    37551 
   37552    37550    37548    37552    37551    37547    37550    37551 
   37548    37550    37554    37551    37548    37551    37551    37550 
   37552    37555    37555    37551    37548    37547    37548    37550 
   37548    37550    37551    37550    37550    37551    37554    37551 
   37546    37548    37552    37551    37551    37552    37554    37557 
   37552    37551    37555    37552    37548    37550    37554    37552 
   37550    37551    37550    37551    37552    37552    37555    37552 
   37550    37551    37551    37551    37554    37551    37550    37550 
   37551    37551    37552    37551    37547    37547    37548    37551 
   37550    37547    37546    37548    37551    37550    37552    37551 
   37550    37550    37548    37550    37552    37552    37552    37552 
   37551    37551    37552    37554    37551    37548    37548    37546 
   37548    37552    37551    37548    37550    37548    37548    37551 
   37550    37550    37552    37547    37546    37551    37551    37550 
   37555    37555    37551    37550    37551    37552    37551    37548 
   37547    37547    37551    37550    37548    37550    37548    37547 
   37550    37550    37547    37546    37547    37550    37552    37552 
   37551    37551    37551    37550    37551    37551    37550    37550 
   37555    37557    37550    37547    37552    37554    37550    37551 
   37558    37555    37550    37552    37555    37557    37552    37547 
   37550    37554    37552    37551    37552    37552    37551    37551 
   37552    37551    37552    37554    37552    37551    37551    37552 
   37550    37550    37552    37552    37550    37552    37551    37548 
   37551    37551    37551    37552    37548    37546    37550    37552 
   37551    37547    37547    37551    37552    37551    37548    37550 
   37554    37551    37548    37551    37551    37550    37552    37550 
   37550    37555    37552    37547    37548    37551    37554    37557 
   37557    37552    37554    37554    37550    37551    37552    37551 
   37552    37552    37554    37552    37550    37552    37552    37548 
   37550    37552    37550    37551    37551    37548    37550    37552 
   37550    37550    37552    37550    37550    37554    37555    37548 
   37544    37550    37554    37554    37554    37552    37552    37555 
   37552    37551    37558    37557    37550    37554    37557    37551 
   37555    37558    37552    37552    37557    37552    37552    37555 
   37551    37552    37555    37550    37550    37552    37552    37548 
   37547    37552    37554    37550    37554    37555    37550    37551 
   37552    37548    37550    37552    37554    37554    37551    37551 
   37551    37551    37550    37550    37552    37550    37548    37551 
   37550    37551    37554    37548    37544    37548    37548    37547 
   37547    37550    37554    37551    37548    37555    37557    37551 
   37552    37555    37554    37551    37551    37550    37552    37552 
   37551    37550    37550    37551    37552    37550    37551    37555 
   37554    37552    37552    37550    37551    37550    37548    37551 
   37548    37546    37551    37552    37550    37550    37548    37548 
   37552    37551    37546    37547    37550    37548    37548    37550 
   37548    37548    37547    37544    37548    37554    37550    37547 
   37552    37550    37548    37551    37550    37548    37552    37552 
   37550    37550    37548    37546    37551    37551    37548    37552 
   37551    37548    37555    37557    37548    37547    37551    37550 
   37548    37552    37554    37548    37546    37548    37550    37547 
   37548    37548    37547    37548    37547    37546    37544    37544 
   37548    37550    37547    37548    37551    37546    37543    37544 
   37547    37547    37547    37547    37547    37550    37547    37540 
   37544    37550    37546    37543    37548    37546    37543    37548 
   37548    37543    37548    37548    37543    37546    37550    37547 
   37551    37555    37550    37546    37548    37550    37548    37547 
   37548    37547    37546    37547    37550    37547    37546    37544 
   37547    37550    37547    37544    37548    37551    37550    37547 
   37546    37548    37550    37551    37551    37548    37550    37551 
   37550    37552    37551    37544    37546    37552    37552    37548 
   37547    37547    37550    37552    37550    37546    37547    37548 
   37548    37550    37550    37546    37546    37544    37543    37547 
   37548    37552    37552    37544    37546    37554    37552    37548 
   37548    37548    37547    37546    37544    37547    37548    37546 
   37544    37546    37551    37554    37551    37548    37550    37551 
   37548    37547    37548    37547    37544    37547    37550    37544 
   37546    37550    37546    37544    37546    37543    37544    37548 
   37543    37543    37550    37546    37542    37546    37546    37547 
   37551    37547    37544    37550    37547    37542    37547    37551 
   37544    37543    37548    37550    37547    37546    37550    37548 
   37544    37546    37548    37546    37547    37550    37548    37547 
   37548    37546    37546    37546    37543    37546    37547    37548 
   37552    37550    37547    37552    37548    37543    37548    37547 
   37543    37548    37550    37547    37547    37548    37548    37548 
   37547    37547    37547    37548    37548    37547    37546    37547 
   37548    37547    37548    37551    37547    37546    37550    37551 
   37546    37546    37548    37547    37546    37547    37547    37546 
   37546    37547    37546    37546    37550    37548    37544    37546 
   37546    37542    37544    37547    37547    37548    37550    37546 
   37543    37547    37548    37547    37547    37547    37550    37548 
   37546    37548    37550    37546    37546    37550    37546    37543 
   37544    37546    37548    37550    37547    37546    37546    37548 
   37547    37544    37544    37547    37547    37547    37547    37547 
   37547    37548    37547    37543    37546    37547    37548    37548 
   37544    37546    37551    37550    37548    37550    37551    37548 
   37546    37547    37548    37547    37548    37547    37543    37544 
   37546    37544    37544    37546    37547    37548    37551    37550 
   37547    37548    37548    37544    37546    37547    37544    37548 
   37552    37547    37543    37546    37546    37544    37543    37540 
   37544    37551    37550    37544    37546    37548    37544    37546 
   37551    37547    37543    37546    37546    37546    37550    37551 
   37546    37547    37548    37543    37543    37547    37547    37547 
   37548    37544    37544    37547    37548    37548    37548    37547 
   37547    37547    37548    37550    37551    37548    37547    37548 
   37550    37548    37550    37551    37546    37542    37550    37555 
   37550    37548    37551    37548    37547    37547    37546    37544 
   37548    37548    37544    37546    37548    37548    37550    37550 
   37550    37550    37550    37548    37550    37551    37548    37547 
   37548    37550    37550    37550    37544    37548    37552    37546 
   37544    37547    37552    37554    37548    37550    37552    37548 
   37547    37550    37550    37547    37546    37546    37546    37543 
   37546    37554    37550    37543    37547    37550    37546    37550 
   37551    37547    37547    37547    37547    37551    37550    37546 
   37546    37548    37546    37542    37546    37550    37547    37544 
   37547    37547    37546    37546    37546    37546    37546    37544 
   37546    37548    37546    37543    37547    37548    37548    37550 
   37550    37547    37536    37500    37403    37211    36915    36520 
   36074    35734    35702    36103    36856    37720    38450    38587 
   37690    36510    36259    36756    37361    38155    38828    38045 
   35671    34422    35768    38168    40774    42496    42418    41474 
   39344    36888    36073    35549    35291    36680    37920    38556 
   40450    42354    41836    40139    39110    37296    34699    34250 
   34935    34407    34967    37399    39274    40215    40504    40085 
   39155    37257    35159    34515    35437    36807    37253    37458 
   38819    38880    36433    35321    36810    37632    36579    36101 
   37007    37137    36463    36957    37995    37567    36610    36980 
   37891    38715    39213    38556    37999    37852    36589    35876 
   37455    38889    38592    38553    39388    39425    38018    36201 
   36011    37341    37924    37876    38207    38456    38165    37400 
   36977    37358    37646    37400    37373    37311    36524    36205 
   36906    37571    37700    37323    37208    37710    38148    38034 
   36987    36219    37099    37773    37253    37312    37984    38005 
   37476    37211    37365    37341    37392    38013    37835    36801 
   37432    38581    37465    36655    37862    38145    37251    37565 
   38577    38292    37328    37461    38144    38107    37544    36907 
   36950    37612    37193    36709    37523    37949    38016    37951 
   37411    37735    37802    36563    36066    36733    37385    37332 
   37033    37747    38541    37735    36792    37384    37956    37169 
   36350    36830    37775    37601    37154    38175    39436    39106 
   37822    37022    37349    38637    39410    38288    36813    36780 
   37439    37932    38272    38934    39322    38099    36886    37166 
   37274    37293    38388    38489    36767    36317    37561    37798 
   37650    38372    38280    37420    37146    37069    36891    36607 
   36724    37771    38522    37935    36829    36853    37801    37670 
   37010    37370    37813    37636    37457    37555    37309    36089 
   35182    35876    37143    38037    38356    37681    36624    36325 
   36869    37596    38030    38453    38828    38167    36791    36394 
   37091    37743    38025    38059    37810    37785    38500    38709 
   37604    36830    36861    36552    36579    38045    39280    38457 
   36979    36440    36312    36282    37177    38502    38052    36463 
   36336    37160    37567    37539    37285    37616    38527    38670 
   37851    37589    38010    37535    37173    38331    39179    38931 
   38692    38749    38770    37863    36624    36675    37089    37120 
   37578    38118    38610    38569    37183    36487    37245    37527 
   37732    38183    37970    37586    37111    36815    37428    37982 
   38269    38844    38605    37554    37071    36740    36097    36082 
   36555    36763    37291    38492    39221    38773    37802    36875 
   36394    36632    37015    37420    38271    38971    38464    37227 
   37033    37885    38026    37183    36895    37620    37867    37308 
   37168    37584    37571    37164    37598    38264    37789    37014 
   36706    36990    37643    37405    36747    37080    37586    37080 
   36413    37050    38205    38280    37918    37833    37270    36842 
   37654    38319    37899    37574    37516    37184    37011    37635 
   38500    38403    37854    37870    37770    36980    36498    37197 
   38105    37962    37322    37243    37692    37774    37231    37181 
   37590    37212    36687    37081    38026    38627    37925    36551 
   36254    37083    37804    37775    37550    37586    37326    36844 
   37130    37937    37917    37355    37335    37296    37122    37490 
   37970    38227    38348    38380    38140    37488    37658    38392 
   37710    36813    37296    37773    37744    37998    38264    37930 
   36904    35915    36402    38213    39352    39147    37890    36445 
   36490    37278    37427    37760    38308    38302    37897    37388 
   37405    38118    38087    36919    36327    36903    37636    38083 
   38433    38516    37989    37068    36521    36518    36454    36412 
   36760    37297    38248    39478    39634    38260    36825    36583 
   37089    37478    37629    37832    38356    38800    38330    37542 
   37736    38277    37989    37481    37438    37435    37176    36934 
   36944    37012    37133    37311    37261    37358    37887    37989 
   37172    36412    36701    37420    37611    37627    37762    37531 
   36925    36657    37153    37760    37929    37729    37039    36661 
   37320    37563    36697    36494    37504    37995    37662    37652 
   37752    37567    37463    37555    37748    37492    37019    37675 
   38716    38384    37706    38126    38462    37821    37481    37620 
   37293    37372    38067    38344    38427    38065    37260    37559 
   38647    38550    37189    36309    36732    37554    37816    37702 
   37621    37096    36336    36529    37282    37341    37084    37404 
   37918    37986    37758    37415    36749    36420    36952    37110 
   37330    39055    39937    38541    37458    37725    38673    39158 
   37882    36944    37843    38236    38184    39079    39295    38075 
   37143    37397    37535    36713    36613    37956    39015    38971 
   38431    38032    38137    38113    37111    35726    34823    34990 
   36490    37731    38005    38832    39330    38156    37303    37606 
   37660    36892    35579    34850    35233    35914    36744    36992 
   35482    34302    35476    36807    37102    37544    37173    35253 
   34068    35095    36837    37611    37953    38924    39222    37727 
   36774    37763    38979    39845    40609    40635    40041    39324 
   38445    37821    38094    39012    39843    39827    38800    38148 
   38234    37493    36579    37312    38585    38778    38620    38861 
   38666    38083    38005    37530    36070    35208    35943    37596 
   38549    37933    37489    38587    39433    38388    36414    35448 
