Origin Time       2019/03/11 15:37:00
Lat.              33.2
Long.             132.7
Depth. (km)       40
Mag.              4.5
Station Code      EHMH01
Station Lat.      33.0556
Station Long.     132.5552
Station Height(m) 275
Record Time       2019/03/11 15:37:58
Sampling Freq(Hz) 100Hz
Duration Time(s)  120
Dir.              3
Scale Factor      2942(gal)/8224139
Max. Acc. (gal)   4.674
Last Correction   2019/03/11 15:37:43
Memo.             
[...]
   78459    78470    78468    78432    78443    78476    78445    78413 
   78448    78463    78440    78456    78459    78435    78462    78467 
   78437    78471    78491    78452    78451    78471    78468    78468 
   78467    78452    78439    78449    78447    78436    78447    78444 
   78430    78433    78444    78459    78457    78462    78475    78452 
   78440    78453    78456    78460    78464    78463    78459    78444 
   78443    78462    78455    78432    78441    78462    78453    78440 
   78439    78443    78448    78443    78440    78463    78464    78443 
   78474    78505    78459    78437    78468    78464    78462    78478 
   78460    78452    78453    78453    78471    78453    78432    78466 
   78479    78472    78475    78453    78455    78479    78470    78466 
   78467    78460    78460    78460    78467    78466    78459    78459 
   78452    78464    78482    78452    78443    78472    78456    78443 
   78474    78476    78468    78475    78466    78468    78464    78445 
   78463    78471    78455    78471    78478    78455    78462    78470 
   78460    78474    78475    78462    78472    78460    78452    78466 
   78424    78403    78464    78480    78437    78425    78441    78439 
   78452    78475    78441    78412    78441    78464    78457    78444 
   78429    78418    78428    78448    78449    78439    78433    78444 
   78445    78421    78430    78455    78435    78420    78439    78444 
   78448    78445    78416    78430    78475    78447    78420    78453 
   78455    78428    78429    78430    78433    78439    78428    78432 
   78443    78447    78451    78437    78444    78456    78433    78435 
   78459    78444    78428    78436    78430    78422    78430    78441 
   78449    78444    78429    78422    78435    78457    78462    78441 
   78436    78455    78449    78425    78421    78428    78437    78443 
   78422    78417    78441    78424    78403    78440    78445    78413 
   78418    78433    78437    78428    78425    78445    78433    78417 
   78430    78432    78429    78449    78466    78457    78440    78441 
   78460    78460    78447    78460    78471    78460    78459    78467 
   78470    78464    78449    78447    78463    78453    78425    78435 
   78467    78457    78443    78464    78460    78441    78451    78459 
   78464    78472    78470    78476    78478    78444    78443    78476 
   78457    78436    78455    78449    78452    78479    78459    78441 
   78474    78463    78440    78455    78441    78436    78460    78464 
   78468    78457    78439    78457    78470    78460    78464    78453 
   78440    78452    78457    78457    78440    78425    78460    78478 
   78444    78447    78457    78441    78452    78470    78474    78483 
   78472    78445    78443    78459    78479    78499    78503    78489 
   78467    78456    78466    78468    78452    78460    78474    78463 
   78467    78480    78467    78459    78459    78443    78441    78466 
   78466    78459    78474    78468    78464    78486    78482    78451 
   78451    78467    78470    78478    78474    78451    78463    78476 
   78467    78466    78459    78445    78449    78451    78462    78467 
   78436    78437    78479    78480    78456    78452    78467    78479 
   78457    78453    78483    78479    78471    78476    78471    78457 
   78462    78482    78471    78457    78478    78471    78455    78467 
   78457    78447    78463    78474    78476    78476    78471    78463 
   78460    78463    78445    78448    78476    78456    78445    78480 
   78480    78462    78459    78457    78460    78479    78480    78455 
   78468    78480    78451    78448    78451    78459    78483    78466 
   78451    78471    78468    78459    78459    78462    78475    78478 
   78460    78445    78462    78483    78466    78455    78478    78472 
   78452    78457    78467    78466    78448    78447    78491    78494 
   78440    78451    78487    78449    78435    78464    78451    78445 
   78476    78479    78452    78441    78464    78475    78459    78468 
   78484    78476    78474    78459    78459    78483    78457    78451 
   78494    78471    78451    78478    78468    78456    78463    78455 
   78445    78444    78457    78474    78467    78467    78476    78471 
   78460    78455    78468    78472    78444    78455    78495    78474 
   78447    78467    78455    78448    78487    78471    78447    78483 
   78475    78439    78468    78487    78460    78471    78480    78459 
   78468    78486    78464    78444    78466    78490    78474    78467 
   78480    78463    78456    78478    78466    78452    78467    78471 
   78470    78476    78479    78472    78464    78471    78464    78463 
   78486    78468    78453    78484    78487    78466    78459    78457 
   78460    78457    78457    78478    78487    78470    78453    78470 
   78480    78447    78445    78480    78466    78441    78457    78470 
   78457    78455    78462    78452    78449    78460    78459    78449 
   78447    78453    78464    78476    78462    78441    78472    78476 
   78430    78433    78459    78463    78472    78475    78470    78472 
   78466    78471    78486    78463    78449    78463    78471    78482 
   78482    78459    78460    78494    78482    78455    78475    78472 
   78451    78462    78464    78456    78464    78474    78489    78516 
   78537    78518    78487    78520    78552    78533    78533    78538 
   78534    78547    78530    78509    78525    78548    78545    78530 
   78524    78526    78530    78538    78543    78537    78529    78520 
   78510    78518    78536    78537    78529    78532    78544    78529 
   78510    78540    78563    78522    78495    78530    78565    78543 
   78522    78533    78516    78505    78520    78526    78536    78524 
   78507    78532    78536    78514    78534    78547    78507    78497 
   78532    78536    78507    78493    78518    78536    78518    78517 
   78514    78510    78525    78520    78524    78538    78514    78511 
   78538    78534    78516    78516    78498    78489    78526    78530 
   78506    78520    78510    78507    78528    78495    78494    78528 
   78513    78509    78506    78495    78534    78528    78464    78470 
   78502    78499    78494    78495    78498    78484    78479    78498 
   78494    78479    78475    78483    78505    78498    78490    78503 
   78498    78490    78490    78480    78475    78491    78513    78494 
   78470    78484    78476    78457    78475    78491    78482    78484 
   78489    78483    78489    78482    78476    78493    78507    78501 
   78484    78497    78505    78479    78483    78495    78464    78452 
   78482    78494    78479    78482    78486    78476    78475    78471 
   78483    78484    78462    78468    78480    78480    78499    78497 
   78484    78495    78490    78484    78495    78483    78475    78497 
   78498    78471    78471    78499    78502    78489    78487    78494 
   78494    78475    78463    78478    78489    78483    78486    78493 
   78482    78490    78506    78489    78471    78480    78501    78494 
   78459    78471    78490    78484    78494    78479    78453    78468 
   78489    78489    78479    78480    78497    78490    78462    78479 
   78498    78464    78464    78490    78486    78486    78487    78474 
   78466    78470    78479    78475    78468    78475    78474    78472 
   78486    78475    78471    78490    78479    78474    78506    78497 
   78466    78494    78513    78489    78497    78505    78478    78475 
   78497    78483    78474    78499    78498    78487    78507    78489 
   78453    78471    78502    78497    78474    78475    78493    78490 
   78495    78493    78478    78487    78494    78487    78483    78483 
   78497    78487    78455    78475    78513    78502    78490    78487 
   78468    78474    78487    78480    78474    78474    78489    78480 
   78457    78468    78479    78468    78472    78494    78506    78489 
   78478    78491    78493    78491    78493    78478    78486    78499 
   78475    78460    78470    78483    78499    78495    78482    78482 
   78484    78476    78457    78459    78479    78484    78483    78486 
   78483    78480    78470    78467    78487    78484    78472    78482 
   78494    78502    78478    78474    78511    78507    78486    78472 
   78463    78497    78499    78470    78475    78470    78474    78502 
   78487    78464    78480    78489    78476    78486    78491    78478 
   78484    78501    78497    78479    78460    78474    78495    78476 
   78482    78509    78484    78479    78499    78476    78479    78505 
   78497    78483    78476    78467    78476    78503    78501    78482 
   78486    78489    78536    78811    79567    80777    81251    79161 
   75833    76582    81391    81942    77021    73889    73580    76833 
   84597    84758    73548    70876    81303    83613    76283    74248 
   75749    77356    79794    78085    74784    79506    87404    82667 
   72958    75987    82729    82266    77296    71446    73988    86108 
   88231    73120    66175    80098    90609    83311    73992    72940 
   73926    77747    83775    80055    71547    72057    77255    81568 
   84904    82344    76744    75479    78105    82945    82503    75208 
   73911    78572    82097    83313    78456    72476    75039    82028 
   82788    77188    75389    78884    79836    77658    76307    76802 
   79651    81340    78117    76952    79423    78005    76987    79327 
   78977    77661    77566    77966    79886    79640    77938    79123 
   79203    78162    79363    79245    77689    77394    77545    78310 
   79008    78783    78808    78443    78162    79416    79913    79047 
   79253    79045    77269    76990    77517    77433    79181    80021 
   77604    77974    81405    81781    79482    76975    76060    78241 
   78973    75995    74517    76596    79601    80364    77522    75389 
   79438    84686    82462    78057    78560    78908    77585    78231 
   78826    77710    76459    76639    78236    79054    78984    79097 
   77932    76580    78942    81413    77872    74537    77920    80566 
   78503    77976    79158    79205    79099    78201    78418    80997 
   79465    75393    77020    79668    78082    77128    79006    80511 
   79178    77433    77893    78889    79645    79461    77487    76342 
   77854    79878    79335    77508    78462    79713    77681    76947 
   79085    79741    78679    77994    78969    79834    77753    76989 
   79929    79587    76119    76812    78803    78424    78732    78691 
   78084    78954    78738    78514    79963    78576    76738    79034 
   80168    77831    76928    77967    78254    78846    79617    78268 
   77538    79060    79550    78746    78278    78194    78362    78733 
   79008    78336    77488    77961    78236    77348    77710    79656 
   79439    77141    78061    80937    79640    76883    78059    80588 
   79996    77068    76844    79243    79238    78021    78646    79099 
   77944    77410    78073    78560    79633    79606    77391    77160 
   78779    78865    78154    77795    77172    77213    79243    80435 
   78543    77511    78898    79527    79606    79050    76912    76659 
   79462    81083    79069    76909    77521    78695    79591    79960 
   78035    76312    77924    81087    81599    77944    75955    79184 
   81157    78398    76015    77375    79066    78651    78495    78385 
   77409    78451    80532    79261    76412    76889    79844    80169 
   77593    76751    77869    78927    79469    78741    78309    78483 
   78050    78667    79446    78406    77696    78150    78194    78287 
   78945    79066    78649    78763    79381    79208    78059    78256 
   79743    79353    77530    77072    77673    77950    79343    80148 
   76711    75095    78790    80284    78055    76947    78193    79805 
   79651    78333    78165    79639    80249    78267    76894    79024 
   80241    77176    76115    79226    79655    78182    79116    78549 
   76662    78694    80874    78962    77166    78040    79145    79219 
   78791    77589    76901    78220    79519    79108    77889    77463 
   78359    79216    78945    78584    79029    78748    76972    76499 
   78543    79394    77985    77773    79234    80028    78691    77056 
   78214    79671    78440    77163    77912    79141    78768    77755 
   78640    79803    78821    78097    78815    78385    78151    79953 
   79898    77365    77037    78972    79324    78086    77927    78996 
   79532    78534    77124    77722    79463    79003    77106    76786 
   78471    80018    79307    77903    78123    79095    79456    79076 
   78151    77714    78444    79007    78885    78329    77708    78322 
   78499    77557    78398    79330    78478    77958    77869    78179 
   78910    79134    79211    79177    79088    78732    77866    78252 
   79369    78285    76346    76910    78726    78497    77406    78289 
   79154    78233    78246    79240    78219    76607    77961    79994 
   78583    76561    77946    79766    78220    76631    78484    79317 
   77676    78499    80320    80989    82390    80935    77152    77820 
   79488    76613    72663    71625    73633    75604    75622    76360 
   78426    79969    80515    79245    78912    81521    81048    77885 
   79108    80280    77209    76538    78510    79185    80014    82329 
   85469    85321    82613    83843    84021    78185    75794    78672 
   75486    66410    65418    76585    87003    85322    76407    75968 
   84828    86031    80505    78899    76993    76270    79974    80476 
   77930    76293    73527    72481    74981    75659    75315    76874 
   76582    76033    81122    87540    88701    87212    86193    84364 
   79983    75022    74672    76108    74189    74817    78193    74614 
   69496    73909    81004    82483    80384    76632    74061    73753 
   72962    75208    80312    80580    80241    83843    83396    79461 
   79724    81117    79380    78414    79038    78204    77264    77026 
   77566    79448    79348    77862    78480    78532    76809    76747 
   79020    80784    80636    79933    78421    76940    78614    80156 
   78437    77276    77248    76122    73975    73438    76405    78173 
   77500    78349    78310    77253    78329    78335    77423    78952 
   80212    80798    82925    83689    81886    80412    80203    80913 
   81427    80098    77598    75899    76485    78179    77579    75523 
   76180    78648    78663    77882    79614    80628    79155    78382 
   79126    79489    78601    77981    78668    79243    78919    78522 
   79015    79807    78687    76530    76740    77962    76971    76053 
   77387    78078    77872    79123    79429    78362    79585    80485 
   78375    77996    80063    79876    78077    77951    78672    78597 
   78052    77981    78490    78414    78040    77793    76312    75070 
   76119    77548    77996    78289    78273    78005    78953    80307 
   79855    78833    79621    81028    80717    79573    79215    79402 
   79698    80053    80572    80488    79423    79313    79975    79030 
   77770    77778    77442    76318    75640    76010    76729    77296 
   78224    78229    76943    76944    77843    77746    77593    77741 
   78177    79571    79300    76678    76990    80214    80549    78578 
   78449    79239    79103    79219    79311    78436    78074    78125 
   77780    78902    80651    80050    78548    78489    79312    79740 
   79463    79462    79447    78448    78187    79105    78641    77508 
   78003    78530    78478    78969    78289    77283    78042    77809 
   77164    78634    78961    77890    78389    78475    77090    76866 
   78262    79240    78678    77859    77912    78333    78699    78437 
   77723    77940    78733    78780    78266    77861    78354    79315 
   78937    77942    78208    78910    78533    77633    77849    79247 
   79859    78781    77988    78606    79270    79173    78447    77876 
   78293    78864    78590    77920    77976    78891    79351    79057 
   79208    79625    79517    79289    78871    78567    79401    79747 
   78413    77865    78980    79856    79381    78034    77481    77745 
   77495    77649    78266    78074    78069    78339    77785    77483 
   77912    78066    78533    79200    78632    78167    78719    78591 
   78050    78440    79029    78709    78487    79243    79083    77764 
   77946    79254    79303    78553    78430    78664    78471    78248 
   78857    79408    78590    77857    78711    79170    78418    78246 
   78339    78432    78953    78665    78275    78891    79050    78930 
   79276    79041    78529    78383    78270    78279    77892    77226 
   77541    78368    78510    78101    77965    78291    78367    78007 
   77774    78098    78806    79223    79018    78513    78520    78848 
   78437    78023    78372    78452    78229    78412    78491    78591 
   79362    79510    78335    77815    78526    78953    78841    78645 
   78408    78533    78840    78476    77998    78270    78613    78359 
   77653    77309    77931    78267    77687    77361    77386    77465 
   78071    78760    78721    78453    78817    79408    79304    78742 
   78653    79061    79235    79038    78993    79101    78999    78918 
   78914    78652    78648    79084    79027    78501    78120    78178 
   78894    79369    78931    78248    77835    78140    78988    79384 
   79470    79332    78699    78595    78838    78551    78463    78584 
   78395    78170    78216    78281    78043    78317    78966    78641 
   78055    78214    78385    78274    78229    78109    78009    78368 
   78646    77976    77144    77444    78214    78366    78517    78818 
   78395    78174    78911    79008    78403    78682    79035    78232 
   77661    78344    79051    78703    77943    78189    78889    78462 
   77795    78169    78784    78714    78359    78259    78069    77985 
   78358    78219    77477    77179    77508    78047    77959    77377 
   77769    78910    79195    78549    78256    78592    78860    79011 
   79157    79127    79002    78842    78497    78347    79105    80057 
   80119    79439    78783    79223    80148    79960    79018    78356 
   78464    78999    79130    78860    78494    78345    78595    78761 
   78540    78267    78189    78282    78394    78355    78289    78178 
   77846    77593    77568    77801    78471    79062    78879    78136 
   77792    78270    78727    78532    78128    77932    77970    78437 
   78987    78926    78626    78553    78628    78799    78784    78528 
   78285    78116    78181    78443    78740    79159    79154    78560 
   78236    78075    77915    78177    78246    77990    78189    78552 
   78610    78439    77936    77610    78317    79294    79304    78846 
   78729    78900    79289    79617    79421    78881    78580    78814 
   79228    78849    77738    77523    78389    78664    78225    78424 
   78935    78729    78780    79362    78925    78044    78247    78673 
   78324    78206    78819    78800    78212    78394    78829    78786 
   78385    77711    77479    77963    78304    78084    77734    77811 
   78231    78332    78050    77892    77863    77838    78108    78595 
   78730    78526    78582    78744    78252    77668    78213    79000 
