Origin Time       2019/03/09 01:08:00
Lat.              35.4
Long.             136.7
Depth. (km)       40
Mag.              4.5
Station Code      FKIH05
Station Lat.      35.639
Station Long.     136.0303
Station Height(m) -112
Record Time       2019/03/09 01:08:17
Sampling Freq(Hz) 100Hz
Duration Time(s)  120
Dir.              3
Scale Factor      3920(gal)/6170801
Max. Acc. (gal)   1.347
Last Correction   2019/03/09 01:08:02
Memo.             
[...]
  -16464   -16463   -16463   -16463   -16463   -16464   -16465   -16464 
  -16464   -16465   -16463   -16463   -16464   -16463   -16463   -16465 
  -16464   -16463   -16463   -16463   -16462   -16464   -16465   -16463 
  -16465   -16466   -16463   -16462   -16464   -16464   -16462   -16462 
  -16464   -16464   -16463   -16463   -16463   -16462   -16464   -16465 
  -16463   -16462   -16465   -16466   -16465   -16465   -16465   -16463 
  -16462   -16464   -16465   -16462   -16461   -16463   -16464   -16463 
  -16463   -16464   -16464   -16463   -16464   -16465   -16462   -16461 
  -16461   -16463   -16465   -16464   -16464   -16464   -16463   -16464 
  -16464   -16463   -16464   -16464   -16464   -16466   -16464   -16463 
  -16463   -16462   -16462   -16465   -16464   -16462   -16464   -16465 
  -16463   -16463   -16463   -16462   -16463   -16464   -16463   -16462 
  -16462   -16462   -16464   -16464   -16462   -16462   -16463   -16463 
  -16463   -16465   -16465   -16462   -16463   -16465   -16466   -16464 
  -16462   -16463   -16464   -16464   -16464   -16463   -16463   -16464 
  -16463   -16464   -16466   -16464   -16463   -16464   -16463   -16461 
  -16462   -16463   -16464   -16464   -16462   -16462   -16464   -16463 
  -16462   -16463   -16464   -16463   -16464   -16465   -16463   -16461 
  -16463   -16466   -16464   -16463   -16464   -16464   -16464   -16464 
  -16464   -16465   -16465   -16464   -16465   -16466   -16464   -16463 
  -16463   -16463   -16465   -16463   -16463   -16464   -16462   -16462 
  -16465   -16464   -16463   -16465   -16466   -16464   -16463   -16465 
  -16465   -16464   -16464   -16463   -16463   -16463   -16463   -16464 
  -16465   -16464   -16462   -16463   -16464   -16464   -16465   -16465 
  -16464   -16463   -16463   -16465   -16465   -16465   -16464   -16464 
  -16463   -16462   -16463   -16465   -16465   -16465   -16465   -16464 
  -16463   -16463   -16463   -16464   -16463   -16464   -16463   -16462 
  -16463   -16464   -16463   -16463   -16463   -16464   -16464   -16464 
  -16464   -16464   -16465   -16465   -16463   -16463   -16462   -16463 
  -16464   -16464   -16465   -16465   -16465   -16463   -16461   -16462 
  -16464   -16464   -16465   -16464   -16462   -16463   -16465   -16463 
  -16463   -16464   -16461   -16462   -16465   -16463   -16461   -16463 
  -16463   -16463   -16464   -16464   -16463   -16463   -16462   -16463 
  -16465   -16464   -16464   -16466   -16463   -16462   -16462   -16463 
  -16466   -16464   -16462   -16465   -16465   -16463   -16463   -16463 
  -16462   -16465   -16465   -16463   -16463   -16464   -16465   -16464 
  -16462   -16464   -16464   -16463   -16463   -16463   -16463   -16465 
  -16464   -16462   -16464   -16465   -16463   -16463   -16464   -16464 
  -16464   -16464   -16462   -16463   -16465   -16464   -16462   -16462 
  -16463   -16464   -16463   -16463   -16462   -16462   -16462   -16461 
  -16461   -16463   -16462   -16464   -16465   -16464   -16464   -16464 
  -16463   -16464   -16465   -16464   -16464   -16464   -16464   -16463 
  -16462   -16463   -16465   -16465   -16463   -16463   -16462   -16461 
  -16462   -16463   -16463   -16464   -16464   -16463   -16462   -16464 
  -16467   -16465   -16461   -16464   -16465   -16462   -16463   -16464 
  -16461   -16464   -16466   -16464   -16464   -16464   -16464   -16466 
  -16464   -16462   -16465   -16466   -16463   -16462   -16463   -16463 
  -16463   -16464   -16463   -16462   -16461   -16463   -16465   -16465 
  -16464   -16464   -16463   -16463   -16464   -16463   -16462   -16463 
  -16462   -16462   -16463   -16462   -16464   -16466   -16464   -16462 
  -16463   -16462   -16461   -16462   -16461   -16462   -16466   -16467 
  -16465   -16464   -16464   -16465   -16464   -16463   -16464   -16465 
  -16464   -16463   -16463   -16463   -16464   -16463   -16464   -16466 
  -16465   -16464   -16466   -16465   -16464   -16464   -16462   -16461 
  -16465   -16466   -16463   -16462   -16465   -16466   -16464   -16463 
  -16464   -16465   -16465   -16465   -16464   -16463   -16464   -16463 
  -16462   -16462   -16462   -16464   -16465   -16462   -16461   -16463 
  -16462   -16461   -16464   -16465   -16464   -16464   -16463   -16462 
  -16465   -16466   -16465   -16464   -16463   -16464   -16464   -16465 
  -16465   -16463   -16463   -16464   -16465   -16467   -16465   -16462 
  -16464   -16466   -16465   -16463   -16463   -16462   -16462   -16463 
  -16463   -16463   -16464   -16465   -16464   -16463   -16464   -16465 
  -16463   -16464   -16465   -16464   -16462   -16463   -16463   -16464 
  -16464   -16463   -16464   -16464   -16462   -16462   -16465   -16465 
  -16463   -16463   -16464   -16463   -16463   -16464   -16463   -16462 
  -16462   -16464   -16463   -16462   -16463   -16463   -16463   -16463 
  -16465   -16465   -16463   -16463   -16465   -16464   -16462   -16463 
  -16461   -16452   -16434   -16416   -16415   -16442   -16481   -16488 
  -16444   -16405   -16429   -16463   -16440   -16417   -16462   -16509 
  -16460   -16379   -16417   -16509   -16497   -16439   -16479   -16644 
  -16778   -16638   -16393   -16486   -16608   -16211   -15932   -16432 
  -16966   -16777   -16307   -16434   -17017   -16869   -16009   -15890 
  -16568   -16793   -16553   -16609   -16698   -16208   -15606   -15716 
  -16534   -17335   -17227   -16392   -16018   -16273   -16216   -15790 
  -16188   -17141   -17054   -16337   -16141   -16280   -16337   -16277 
  -16375   -16663   -16660   -16416   -16242   -16239   -16671   -17046 
  -16814   -16441   -16178   -16138   -16449   -16605   -16430   -16462 
  -16723   -16595   -16290   -16396   -16639   -16742   -16367   -15747 
  -16174   -16997   -16731   -16315   -16416   -16341   -16168   -16320 
  -16838   -17161   -16776   -16281   -16252   -16385   -16487   -16661 
  -16587   -16266   -16333   -16602   -16542   -16344   -16279   -16387 
  -16492   -16429   -16454   -16648   -16584   -16187   -16157   -16719 
  -16860   -16182   -15856   -16318   -16684   -16573   -16260   -16308 
  -16913   -17027   -16275   -15923   -16367   -16698   -16579   -16477 
  -16652   -16681   -16313   -16171   -16416   -16489   -16448   -16520 
  -16665   -16747   -16443   -16120   -16469   -16935   -16605   -16015 
  -16130   -16622   -16697   -16502   -16549   -16671   -16607   -16497 
  -16253   -16045   -16311   -16524   -16317   -16149   -16121   -16330 
  -16762   -16941   -16749   -16525   -16471   -16355   -16195   -16323 
  -16543   -16630   -16709   -16709   -16438   -16234   -16406   -16339 
  -16062   -16393   -16818   -16751   -16619   -16286   -15805   -15974 
  -16618   -16854   -16577   -16376   -16529   -16645   -16466   -16276 
  -16282   -16468   -16784   -16890   -16646   -16599   -16816   -16629 
  -16148   -16058   -16374   -16568   -16484   -16587   -16833   -16641 
  -16113   -15719   -15854   -16369   -16529   -16462   -16597   -16664 
  -16461   -16129   -16189   -16610   -16656   -16585   -16798   -16733 
  -16312   -16162   -16375   -16576   -16693   -16680   -16500   -16462 
  -16495   -16379   -16425   -16510   -16413   -16512   -16690   -16608 
  -16387   -16195   -16277   -16402   -16300   -16490   -16792   -16660 
  -16469   -16445   -16442   -16380   -16312   -16526   -16858   -16773 
  -16264   -16000   -16243   -16376   -16423   -16768   -16915   -16621 
  -16184   -15895   -16015   -16294   -16501   -16787   -16880   -16676 
  -16541   -16422   -16325   -16418   -16457   -16415   -16491   -16556 
  -16472   -16340   -16390   -16566   -16468   -16280   -16329   -16428 
  -16665   -16793   -16445   -16262   -16353   -16223   -16355   -16819 
  -16850   -16744   -16796   -16487   -16278   -16471   -16358   -16170 
  -16374   -16517   -16409   -16400   -16507   -16356   -16083   -16199 
  -16510   -16557   -16505   -16475   -16311   -16310   -16521   -16506 
  -16530   -16769   -16618   -16270   -16371   -16608   -16588   -16480 
  -16522   -16696   -16773   -16626   -16375   -16391   -16527   -16292 
  -16187   -16561   -16725   -16469   -16199   -16169   -16270   -16379 
  -16583   -16750   -16841   -16663   -15964   -15764   -16443   -16642 
  -16407   -16689   -16921   -16590   -16031   -15746   -16266   -16994 
  -16990   -16659   -16497   -16484   -16613   -16486   -16017   -16035 
  -16642   -16870   -16574   -16329   -16304   -16544   -16635   -16277 
  -16304   -16739   -16735   -16420   -16160   -16246   -16498   -16252 
  -16014   -16409   -16764   -16653   -16469   -16508   -16751   -16771 
  -16264   -15952   -16353   -16762   -16709   -16489   -16402   -16526 
  -16569   -16338   -16337   -16841   -16973   -16310   -15888   -16274 
  -16833   -16894   -16471   -16243   -16386   -16305   -15980   -16096 
  -16652   -16753   -16477   -16514   -16489   -16325   -16452   -16500 
  -16323   -16354   -16448   -16399   -16510   -16627   -16496   -16372 
  -16369   -16436   -16487   -16552   -16723   -16704   -16509   -16446 
  -16287   -16212   -16585   -16866   -16831   -16693   -16366   -16123 
  -16036   -15946   -16236   -16778   -16941   -16668   -16300   -16291 
  -16562   -16497   -16374   -16614   -16528   -16120   -16203   -16517 
  -16670   -16824   -16702   -16281   -16122   -16195   -16309   -16582 
  -16723   -16540   -16415   -16430   -16335   -16365   -16594   -16531 
  -16403   -16553   -16529   -16441   -16515   -16349   -16242   -16544 
  -16742   -16666   -16568   -16506   -16434   -16268   -16118   -16301 
  -16714   -16738   -16419   -16465   -16607   -16289   -16199   -16633 
  -16805   -16680   -16571   -16371   -16162   -16114   -16253   -16464 
  -16657   -16769   -16631   -16313   -16120   -16199   -16458   -16751 
  -16853   -16481   -16097   -16300   -16446   -16142   -16176   -16557 
  -16636   -16517   -16482   -16568   -16685   -16609   -16479   -16522 
  -16541   -16467   -16343   -16212   -16423   -16738   -16583   -16418 
  -16594   -16639   -16456   -16300   -16377   -16650   -16680   -16394 
  -16249   -16435   -16635   -16439   -16070   -16129   -16490   -16660 
  -16606   -16561   -16543   -16307   -16125   -16439   -16720   -16649 
  -16724   -16742   -16367   -16086   -16084   -16233   -16485   -16566 
  -16588   -16713   -16574   -16320   -16425   -16628   -16594   -16489 
  -16378   -16227   -16221   -16400   -16601   -16612   -16407   -16342 
  -16547   -16696   -16567   -16339   -16273   -16284   -16310   -16530 
  -16748   -16556   -16277   -16311   -16351   -16406   -16634   -16732 
  -16729   -16635   -16359   -16363   -16548   -16389   -16231   -16352 
  -16584   -16842   -16798   -16420   -16225   -16319   -16386   -16438 
  -16538   -16542   -16575   -16595   -16285   -16063   -16327   -16512 
  -16375   -16340   -16566   -16765   -16658   -16464   -16348   -16318 
  -16537   -16629   -16399   -16414   -16644   -16609   -16399   -16316 
  -16384   -16498   -16568   -16472   -16322   -16369   -16546   -16552 
  -16238   -16094   -16438   -16640   -16462   -16372   -16515   -16581 
  -16350   -16221   -16400   -16461   -16438   -16598   -16685   -16642 
  -16657   -16551   -16334   -16347   -16525   -16617   -16618   -16398 
  -16086   -16175   -16422   -16535   -16779   -16839   -16564   -16512 
  -16512   -16190   -15951   -16173   -16666   -16818   -16500   -16396 
  -16634   -16638   -16328   -16089   -16241   -16697   -16881   -16660 
  -16526   -16540   -16391   -16161   -16241   -16540   -16504   -16309 
  -16463   -16637   -16639   -16565   -16281   -16249   -16550   -16527 
  -16391   -16432   -16435   -16499   -16455   -16232   -16381   -16708 
  -16571   -16251   -16280   -16545   -16620   -16470   -16384   -16443 
  -16472   -16389   -16413   -16600   -16669   -16553   -16429   -16381 
  -16419   -16487   -16412   -16276   -16427   -16671   -16608   -16513 
  -16517   -16442   -16423   -16380   -16328   -16448   -16468   -16387 
  -16399   -16397   -16466   -16550   -16496   -16532   -16597   -16479 
  -16425   -16490   -16468   -16460   -16507   -16531   -16555   -16521 
  -16430   -16337   -16281   -16434   -16618   -16458   -16340   -16602 
  -16669   -16382   -16250   -16374   -16537   -16595   -16540   -16483 
  -16497   -16450   -16177   -16015   -16397   -16870   -16845   -16539 
  -16332   -16341   -16484   -16539   -16476   -16466   -16482   -16429 
  -16421   -16359   -16237   -16456   -16779   -16690   -16385   -16237 
  -16366   -16549   -16518   -16405   -16431   -16601   -16637   -16404 
  -16259   -16365   -16444   -16383   -16336   -16433   -16609   -16557 
  -16384   -16498   -16564   -16329   -16325   -16594   -16677   -16472 
  -16262   -16365   -16616   -16615   -16425   -16431   -16617   -16586 
  -16311   -16243   -16574   -16748   -16502   -16265   -16145   -16275 
  -16522   -16531   -16786   -17050   -16559   -16117   -16298   -16482 
  -16529   -16457   -16221   -16194   -16336   -16416   -16558   -16635 
  -16535   -16397   -16261   -16306   -16498   -16635   -16829   -16783 
  -16412   -16236   -15950   -15317   -15200   -15930   -16779   -17154 
  -17223   -17658   -18354   -18335   -17493   -16359   -15341   -14813 
  -14505   -14368   -15327   -17022   -17633   -17151   -17138   -17783 
  -17986   -16980   -15337   -14820   -15936   -16807   -16250   -15560 
  -16003   -16769   -16371   -15314   -15574   -16950   -17130   -16181 
  -16334   -17505   -17934   -17277   -16524   -16645   -17046   -16243 
  -14710   -14356   -15536   -16730   -16877   -16700   -17114   -17603 
  -17270   -16685   -16877   -17284   -17211   -17060   -16837   -16511 
  -16178   -15220   -14343   -15223   -17156   -18232   -18031   -17468 
  -17361   -17163   -16188   -15258   -15142   -15494   -16046   -16523 
  -16526   -16442   -16590   -16519   -16249   -16236   -16426   -16500 
  -16312   -16340   -17046   -17562   -16993   -16089   -15951   -16487 
  -16723   -16245   -15742   -15841   -16482   -17071   -16945   -16405 
  -16030   -15690   -15577   -16234   -17183   -17367   -16931   -16604 
  -16410   -16533   -16889   -16630   -15983   -15801   -15794   -15627 
  -15826   -16458   -16679   -16247   -16025   -16390   -16891   -17075 
  -16832   -16780   -17151   -17061   -16516   -16331   -16324   -16071 
  -15621   -15246   -15464   -16145   -16590   -16969   -17490   -17513 
  -17015   -16526   -16198   -16141   -16270   -16310   -16300   -16379 
  -16558   -16864   -17176   -17221   -17082   -16926   -16567   -16083 
  -15890   -16056   -16289   -16364   -16301   -16356   -16586   -16619 
  -16318   -15873   -15695   -16133   -16603   -16479   -16157   -16080 
  -16239   -16632   -16928   -16765   -16634   -16801   -16809   -16705 
  -16636   -16393   -16306   -16643   -16858   -16775   -16700   -16491 
  -16009   -15582   -15699   -16419   -16993   -17007   -17066   -17242 
  -17036   -16774   -16827   -16800   -16489   -16252   -16213   -15961 
  -15458   -15393   -15969   -16626   -16933   -16770   -16350   -16083 
  -16166   -16380   -16393   -16412   -16577   -16463   -16137   -16094 
  -16158   -16149   -16516   -17093   -17225   -16995   -16735   -16461 
  -16264   -16276   -16367   -16410   -16515   -16672   -16671   -16501 
  -16414   -16410   -16232   -15964   -15964   -16217   -16480   -16724 
  -16832   -16880   -17057   -16790   -15920   -15495   -15972   -16528 
  -16446   -16185   -16401   -16829   -16952   -16573   -16055   -15984 
  -16243   -16348   -16277   -16486   -17005   -17096   -16661   -16452 
  -16586   -16731   -16756   -16606   -16633   -16919   -16797   -16361 
  -16103   -15931   -16218   -16924   -17056   -16670   -16468   -16398 
  -16392   -16632   -16801   -16570   -16322   -16285   -16180   -16203 
  -16680   -16980   -16528   -16027   -16032   -16121   -16220   -16484 
  -16668   -16632   -16355   -15944   -15843   -16188   -16408   -16280 
  -16371   -16674   -16685   -16553   -16466   -16405   -16531   -16570 
  -16374   -16494   -16656   -16302   -16073   -16268   -16524   -16862 
  -16983   -16736   -16729   -16890   -16615   -16226   -16172   -16235 
  -16313   -16332   -16180   -16132   -16284   -16369   -16354   -16387 
  -16460   -16522   -16674   -16759   -16552   -16481   -16702   -16720 
  -16592   -16579   -16555   -16474   -16388   -16472   -16711   -16658 
  -16351   -16291   -16456   -16577   -16627   -16661   -16668   -16465 
  -16070   -15945   -16319   -16692   -16645   -16477   -16361   -16228 
  -16325   -16596   -16683   -16583   -16424   -16248   -16119   -16105 
  -16236   -16391   -16464   -16496   -16419   -16287   -16293   -16409 
  -16617   -16780   -16635   -16395   -16292   -16301   -16536   -16759 
  -16651   -16481   -16388   -16244   -16148   -16274   -16542   -16610 
  -16436   -16350   -16456   -16613   -16624   -16431   -16289   -16430 
  -16692   -16762   -16582   -16349   -16397   -16775   -16932   -16747 
  -16732   -16693   -16408   -16371   -16448   -16311   -16345   -16460 
  -16346   -16387   -16602   -16642   -16668   -16728   -16638   -16485 
  -16316   -16245   -16358   -16354   -16353   -16554   -16600   -16564 
  -16566   -16386   -16283   -16380   -16380   -16409   -16602   -16642 
  -16467   -16368   -16416   -16468   -16399   -16261   -16202   -16259 
  -16402   -16523   -16563   -16514   -16300   -16166   -16364   -16578 
  -16559   -16482   -16533   -16611   -16421   -16187   -16326   -16452 
  -16352   -16458   -16666   -16688   -16631   -16561   -16510   -16452 
  -16341   -16321   -16413   -16413   -16346   -16387   -16418   -16372 
  -16425   -16499   -16395   -16305   -16441   -16566   -16505   -16438 
  -16428   -16361   -16339   -16506   -16641   -16600   -16577   -16521 
  -16381   -16435   -16664   -16770   -16660   -16484   -16467   -16577 
  -16578   -16496   -16539   -16591   -16529   -16517   -16492   -16332 
  -16218   -16183   -16224   -16455   -16572   -16292   -16022   -16126 
  -16398   -16459   -16211   -16061   -16335   -16670   -16676   -16617 
  -16735   -16738   -16506   -16411   -16600   -16726   -16576   -16441 
  -16537   -16601   -16550   -16601   -16666   -16589   -16459   -16377 
  -16327   -16343   -16573   -16812   -16637   -16241   -16158   -16383 
  -16519   -16470   -16452   -16503   -16433   -16283   -16285   -16371 
  -16420   -16596   -16839   -16775   -16514   -16452   -16445   -16348 
  -16410   -16528   -16424   -16305   -16356   -16371   -16321   -16356 
  -16480   -16668   -16773   -16599   -16353   -16296   -16350   -16394 
  -16310   -16178   -16310   -16640   -16828   -16708   -16350   -16090 
  -16219   -16520   -16565   -16431   -16435   -16479   -16429   -16389 
  -16394   -16467   -16543   -16493   -16440   -16418   -16393   -16475 
  -16566   -16555   -16511   -16420   -16344   -16356   -16392   -16464 
  -16583   -16661   -16677   -16609   -16447   -16353   -16392   -16415 
  -16413   -16495   -16577   -16552   -16492   -16441   -16448   -16623 
  -16753   -16572   -16371   -16372   -16368   -16382   -16468   -16464 
  -16517   -16655   -16570   -16375   -16345   -16450   -16528   -16342 
  -16194   -16590   -16891   -16519   -16133   -16112   -16242   -16405 
  -16455   -16460   -16512   -16520   -16529   -16446   -16296   -16372 
  -16527   -16536   -16469   -16400   -16488   -16649   -16587   -16423 
  -16347   -16308   -16420   -16591   -16491   -16381   -16448   -16360 
  -16294   -16414   -16380   -16373   -16535   -16522   -16479   -16655 
  -16774   -16626   -16375   -16282   -16381   -16530   -16639   -16669 
