Origin Time       2019/01/03 18:10:00
Lat.              33.027
Long.             130.553
Depth. (km)       10
Mag.              5.1
Station Code      FKOH06
Station Lat.      33.5925
Station Long.     131.1348
Station Height(m) -268
Record Time       2019/01/03 18:10:42
Sampling Freq(Hz) 100Hz
Duration Time(s)  120
Dir.              3
Scale Factor      2940(gal)/6170270
Max. Acc. (gal)   2.512
Last Correction   2019/01/03 18:10:27
Memo.             
[...]
   17096    17094    17094    17096    17096    17095    17096    17098 
   17096    17097    17097    17094    17094    17095    17095    17097 
   17097    17095    17096    17097    17096    17097    17095    17094 
   17096    17093    17094    17096    17095    17096    17096    17094 
   17094    17096    17097    17097    17096    17096    17098    17096 
   17095    17095    17095    17095    17095    17096    17095    17094 
   17097    17096    17095    17097    17096    17096    17099    17099 
   17096    17096    17097    17097    17098    17099    17098    17098 
   17098    17099    17099    17097    17095    17094    17097    17098 
   17096    17095    17096    17096    17095    17097    17097    17093 
   17096    17097    17094    17095    17097    17095    17094    17098 
   17096    17094    17096    17098    17096    17095    17096    17097 
   17096    17096    17098    17097    17096    17098    17096    17093 
   17095    17098    17096    17095    17096    17098    17096    17096 
   17099    17099    17095    17095    17096    17095    17095    17097 
   17096    17096    17096    17095    17093    17096    17097    17096 
   17096    17096    17095    17095    17096    17096    17097    17098 
   17096    17094    17095    17097    17096    17094    17095    17097 
   17099    17097    17093    17096    17098    17095    17095    17097 
   17096    17096    17097    17097    17098    17097    17095    17096 
   17097    17096    17096    17098    17098    17097    17098    17098 
   17096    17097    17099    17098    17097    17099    17099    17096 
   17097    17098    17097    17096    17096    17096    17097    17097 
   17095    17095    17095    17095    17096    17098    17098    17097 
   17096    17095    17095    17095    17095    17095    17096    17095 
   17094    17095    17097    17097    17095    17096    17097    17095 
   17094    17097    17098    17096    17094    17094    17095    17096 
   17096    17095    17096    17097    17094    17094    17095    17095 
   17096    17097    17094    17094    17096    17095    17094    17094 
   17095    17094    17094    17095    17095    17096    17096    17095 
   17097    17097    17093    17094    17096    17096    17095    17095 
   17095    17095    17095    17096    17097    17095    17094    17095 
   17097    17096    17096    17097    17095    17095    17097    17096 
   17096    17098    17095    17095    17097    17095    17096    17097 
   17094    17094    17097    17097    17095    17096    17097    17096 
   17094    17096    17097    17095    17096    17097    17096    17098 
   17097    17094    17096    17096    17095    17096    17097    17097 
   17096    17095    17096    17095    17096    17098    17097    17096 
   17096    17097    17100    17102    17100    17100    17102    17105 
   17109    17107    17097    17093    17107    17127    17134    17135 
   17140    17141    17117    17077    17070    17117    17159    17141 
   17098    17096    17145    17209    17255    17246    17163    17022 
   16877    16807    16851    16956    17065    17201    17304    17233 
   17081    17040    17040    17045    17126    17089    16880    16830 
   16928    16954    17049    17213    17155    16970    16998    17129 
   17114    17180    17360    17261    17084    17187    17250    17140 
   17078    17015    16997    17243    17651    17860    17706    17364 
   16970    16499    16075    16046    16447    16844    17211    17725 
   17904    17506    17166    17227    17315    17240    16946    16471 
   16481    17160    17760    17925    17872    17845    17857    17565 
   16849    16285    16327    16602    16727    16850    16977    16834 
   16488    16398    16688    16861    16780    17004    17456    17539 
   17300    16890    16581    16887    17257    17016    16776    16702 
   16534    17047    18198    18660    18357    18071    17551    16655 
   16123    16024    16037    16426    17018    17182    16944    16891 
   17410    17936    17610    16817    16422    16367    16166    15980 
   16650    17970    18678    18510    18089    17954    17943    17431 
   16831    16692    16464    15857    15437    16035    17743    19063 
   18778    17948    17800    17799    17320    16680    16171    15891 
   15810    15561    15518    16497    17564    17722    17867    18164 
   18115    18052    17526    16712    16860    17074    16498    16508 
   17206    17158    16515    16553    17204    17603    17415    16536 
   16102    17120    17911    17737    17979    18242    17674    16891 
   16199    15745    15741    15734    15909    16933    18015    17903 
   17268    17685    18460    17974    17135    17090    17147    17119 
   17151    16824    16756    17237    17106    16693    16834    16807 
   16863    17306    17400    17752    18158    17358    16615    16888 
   17119    17225    17216    16709    16339    16477    16833    17109 
   17221    17466    17438    16797    16307    16265    16995    18453 
   18789    18062    18035    17536    16071    15799    16259    16111 
   16321    16928    17115    17196    17468    17827    17941    17524 
   16962    16636    16520    16478    16509    16787    17205    17637 
   17965    17776    17297    17040    16824    16847    17254    17268 
   16941    16921    17087    17173    16775    16137    16478    17478 
   17732    17277    16819    16741    17100    17400    17372    17184 
   16864    16605    16712    17179    17629    17663    17290    16843 
   16694    16947    17318    17517    17598    17543    17193    16811 
   16706    16891    17215    17330    17278    17341    17106    16510 
   16528    16960    16940    17145    17685    17542    16888    16566 
   17053    17948    18154    17570    16946    16857    17242    17238 
   16911    17049    16956    16144    15754    16396    17127    16983 
   16804    17435    17709    17366    17375    17494    17529    17451 
   16864    16353    16486    17095    17584    17036    16231    16320 
   16475    16644    17369    17682    17385    17465    18039    18290 
   17654    16918    17040    17362    17201    16922    16681    16505 
   16465    16740    17390    17456    16819    16632    16924    17410 
   17906    17754    17413    17664    17976    17711    17019    16490 
   16584    17131    17600    17664    17296    16768    16512    16594 
   16675    16656    16756    16888    16896    17193    17769    17792 
   17309    17174    17286    17012    16623    16501    16254    16210 
   17107    17931    17819    17777    17822    16914    15941    16179 
   16590    16366    16639    17338    17485    17641    17945    17745 
   17454    17279    16821    16496    16361    16106    16553    17554 
   18048    18132    17464    16298    16229    16686    16489    16550 
   17172    17525    17581    17467    17210    17286    17515    17238 
   16942    17352    17571    16923    16815    17480    17497    17363 
   17718    17649    17125    16480    15983    16582    17661    17619 
   16761    16103    16095    16873    17487    17328    17562    18286 
   17870    16723    16658    17069    16868    16977    17549    17560 
   17011    16385    16216    16849    17628    17777    17355    17074 
   16976    16278    15569    16155    17509    18231    18070    17660 
   17285    16906    16888    17317    17407    16976    16669    16458 
   16279    16690    17392    17414    17140    17573    17873    17128 
   16913    18040    18787    18418    17569    16684    16289    16127 
   15750    15944    16829    17445    17596    17331    16963    17422 
   18102    17798    17182    16740    16218    16367    16968    16966 
   17118    17580    17280    16825    16695    16389    16438    17092 
   17504    17303    16983    16760    16357    16396    17289    17596 
   16804    16404    16765    17162    17690    18173    17956    17555 
   17763    17916    17189    16329    16031    15939    16284    17003 
   17311    17439    17589    17450    17230    17195    17413    17378 
   17006    17485    18256    17510    16160    15940    16456    17094 
   17792    17792    17326    17783    18376    17817    17308    17341 
   16718    15960    16033    16044    15826    16215    16828    17198 
   17376    17124    16576    16366    16890    17605    17586    17245 
   17445    18073    18623    18385    17496    16969    16811    16826 
   16951    16718    16386    16157    15993    16324    16795    17065 
   17407    17471    17329    17240    16702    16390    16995    17412 
   17494    17890    17805    17114    17064    17417    17282    17347 
   17666    17252    16895    17454    17563    16786    16611    17082 
   17184    16780    16107    15920    16784    17831    18053    17552 
   16787    16052    16179    17396    17991    17141    16328    16429 
   17133    17883    17867    17507    17731    17893    17486    17155 
   17194    17145    16758    16502    16608    16805    16961    16975 
   17128    17512    16997    15803    15673    16425    17107    17604 
   17859    18027    17753    16950    16846    17505    17687    17387 
   17094    16742    16633    16866    17025    17140    17400    17827 
   17938    17219    16494    16438    16565    16864    17248    17167 
   17109    17494    17616    17378    17356    17397    17238    17297 
   17471    16991    16323    16432    16832    17097    17409    17276 
   16841    16912    17009    16655    16467    16518    16575    16972 
   17583    17968    18031    17668    17209    16969    16608    16415 
   16659    16771    16981    17411    17371    17191    17342    17397 
   17228    17050    16991    16999    16902    17054    17749    18262 
   17854    16910    16387    16520    16638    16539    16598    16741 
   16810    16816    16794    16971    17228    17337    17370    17138 
   16828    16999    17363    17576    17820    17827    17309    16901 
   17093    17223    16984    16866    16870    17065    17554    17709 
   17371    17178    17340    17412    17015    16530    16589    16973 
   17117    16918    16681    16855    17095    16791    16580    16894 
   17008    16971    17445    17899    17503    16858    16862    17185 
   17418    17531    17428    17511    17636    17178    16735    16728 
   16684    16686    16937    17121    17151    17246    17310    17328 
   17579    17584    16871    16486    16806    16700    16389    16752 
   17315    17470    17146    16701    16766    17089    16973    16917 
   17425    17576    17019    16764    17084    17300    17450    17785 
   17744    17440    17341    16830    16312    16791    17157    16790 
   16896    17284    17081    16923    17152    17220    17135    17090 
   17123    17279    17316    17137    16789    16405    16690    17481 
   17590    17325    17424    17210    16552    16193    16338    16911 
   17522    17598    17519    17819    17842    17266    16894    16963 
   17117    17142    16809    16413    16556    16963    17024    16906 
   16986    17202    17404    17377    17021    16858    17152    17246 
   16873    16747    17304    17811    17563    17218    17212    17104 
   17119    17209    17081    17394    17627    16815    16101    16354 
   16901    17250    17197    17079    17515    17752    16988    16311 
   16451    16775    17093    17043    16516    16518    16836    17027 
   17604    17950    17699    17438    17097    16936    17214    17290 
   17227    17469    17704    17881    17835    17347    17043    16920 
   16900    17295    17221    16674    16710    16804    16590    16874 
   17440    17510    17351    17321    16987    16514    16756    17226 
   17056    16930    17186    16992    16277    15743    15821    16241 
   16495    16766    16986    16721    16637    17224    17904    18259 
   18108    17643    17596    17851    17304    16322    16513    17505 
   17701    17026    16494    16920    18366    19751    19905    19232 
   18537    17464    16017    14931    14608    15005    15276    14950 
   14942    15363    15406    15678    16759    17766    18447    19056 
   19345    19492    19342    18437    17645    17690    17761    17263 
   16774    16980    17659    18227    18733    19283    19437    19096 
   18447    16948    14735    13283    13244    14174    15109    14814 
   13498    12761    13555    15439    16979    17570    17919    17837 
   17223    17119    17382    17318    17056    16829    17025    17812 
   19108    20698    21727    21733    20875    19465    18516    18522 
   18776    18569    17527    16310    15634    14497    12975    12456 
   12331    12245    13009    13945    14537    15162    15856    17263 
   19521    21075    21266    21061    20348    18604    17719    18912 
   19770    19101    18843    19515    19973    19841    19018    18194 
   18515    19061    18660    17785    16224    13855    12353    12275 
   12217    11835    11934    12657    13924    15472    16310    16537 
   17442    18822    19492    19417    19488    20465    21823    22204 
   21657    20779    19213    17587    16872    16397    15830    15246 
   14312    14222    15002    14269    13320    14898    16630    16418 
   16299    16805    16820    17073    17784    17677    16801    16229 
   16007    15846    16500    18229    19623    19941    19609    19064 
   18755    18127    16936    16676    17838    19449    20220    18702 
   15893    14255    13723    13850    14840    15522    15600    15542 
   14896    14353    14701    15037    15586    17804    20796    22368 
   22075    20743    19588    19056    18469    17749    17169    16557 
   15646    14702    14476    14565    14479    15127    16437    17234 
   17234    16627    16288    17307    18734    19545    20174    19471 
   16950    15608    16401    17146    17737    18713    18318    16216 
   15017    15668    16307    16180    16161    16554    17379    18378 
   18832    18982    18966    17852    15755    14112    14528    17273 
   19610    18940    16720    15936    16733    16780    15599    14982 
   15031    15449    17191    19030    19078    18183    17674    18013 
   18976    19166    17777    16091    15674    16104    16401    16590 
   15894    14231    13946    15462    16719    17317    17921    18578 
   19052    19011    19000    19190    18118    16117    15415    16056 
   16688    17291    18036    18032    17072    16449    16824    17309 
   17078    16555    16918    18295    18914    17768    17069    18206 
   18420    16811    16480    17526    17519    16756    16248    15631 
   14923    14981    16226    17582    17813    17582    18100    18858 
   18843    18617    18861    18926    18165    16534    15313    15732 
   16350    16380    16928    17572    17549    17316    17313    17280 
   16431    15203    15340    16684    17235    16771    16546    16288 
   15270    14611    15412    16773    17402    17165    16871    17400 
   18347    18337    17210    16451    16703    17215    18020    18956 
   18845    17619    16050    14963    15158    16248    17144    17328 
   16914    16721    17427    18263    18431    18230    17593    16675 
   16424    16607    16791    17530    18385    18814    19240    19277 
   18709    18207    17727    17164    16725    16197    15858    16321 
   16957    16751    16334    16732    17246    17017    16455    15904 
   15378    15357    16154    17435    18707    19175    18229    16665 
   16037    16719    17562    17843    17874    17860    18031    18343 
   18273    17617    16412    15528    15833    16150    15585    15318 
   15855    16373    16650    16625    16016    15660    16263    17065 
   17528    17622    17572    17898    17872    16843    16056    16198 
   16857    17730    18071    17815    17685    17703    17916    18300 
   18507    18802    19062    18592    17536    16362    15437    15587 
   16725    17321    17059    17074    17312    17180    17096    17071 
   16897    17021    17229    17150    16997    16751    16505    16451 
   16630    16893    16911    16985    17344    17308    16702    16468 
   16875    17078    17239    17792    17719    16860    16564    16994 
   17175    16959    16850    16944    17070    17210    17279    17240 
   17383    17539    17203    16848    16956    17101    17160    17156 
   17013    17041    17210    17108    16583    16171    16640    17521 
   17920    17965    17660    16870    16317    16395    16769    17351 
   17853    17503    16628    16775    17998    18854    19017    18769 
   18077    17425    17090    16593    15768    15049    15085    16068 
   17072    17313    17103    16804    16691    16998    17361    17500 
   17678    18020    18038    17102    15768    15332    15779    16194 
   16387    16484    16487    16665    17135    17672    18346    19166 
   19535    19270    18865    18355    17616    16843    16295    16267 
   16402    16228    16118    16341    16718    16921    16949    17423 
   18039    17867    17531    17778    17801    17305    17078    17151 
   16971    16388    15782    15967    16800    17051    16996    17676 
   18266    18165    18064    17548    16607    16607    17156    17117 
   16882    16730    16551    16437    16452    16959    17659    17669 
   17173    16803    16779    17057    17434    17711    17493    16974 
   17063    17519    17347    16642    16086    15983    16285    16737 
   17078    17093    16866    16896    17115    16901    16654    16959 
   17309    17588    17837    17572    17068    16788    16750    16964 
   17199    17334    17411    17487    17567    17201    16583    16508 
   16827    17288    17970    18380    18156    17675    17284    17075 
   17100    17225    17385    17606    17704    17696    17857    17918 
   17381    16950    17230    17160    16448    16207    16660    17147 
   17136    16708    16382    16086    15689    15824    16489    16946 
   17108    17063    16893    16859    16806    16826    17122    17144 
   17035    17380    17491    17047    16962    17409    17595    17320 
   17363    17904    18124    17880    17654    17563    17538    17389 
   16957    16419    16125    16101    15952    15769    16145    16933 
   17439    17606    17734    17629    17211    17053    17303    17300 
   16864    16627    16898    17221    17101    16741    16699    17146 
   17872    18350    18143    17664    17486    17339    17058    17158 
   17482    17281    16739    16388    16210    16252    16561    16966 
   17395    17735    17767    17420    16849    16362    16289    16647 
   17099    17333    17378    17396    17180    16753    16726    17103 
   17352    17392    17328    17214    17154    17042    16823    16767 
   17001    17244    17185    16966    16926    17059    17221    17167 
   16652    16088    16113    16607    16926    16974    17199    17376 
   17157    17042    17230    17494    17833    17874    17393    17028 
   17164    17316    17084    16794    16848    16971    16730    16250 
   15892    15837    16079    16433    16770    17219    17673    17715 
   17414    17051    16785    16984    17456    17610    17513    17429 
   17422    17383    17173    17141    17492    17720    17603    17489 
   17502    17495    17333    17007    16728    16617    16717    17018 
   17057    16557    16112    16281    16740    16946    16953    17059 
